,city,state,zip_code,latitude,longitude
0,Abbeville,LA,70510,30.0,-92.1
1,Aberdeen,MD,21001,39.5,-76.2
2,Aberdeen,NC,28315,35.2,-79.4
3,Aberdeen,SD,57401,45.5,-98.4
4,Aberdeen,WA,98520,47.0,-123.8
5,Abilene,TX,79601,32.5,-99.7
6,Abilene,TX,79601,32.5,-99.7
7,Abilene,TX,79606,32.4,-99.8
8,Abingdon,MD,21009,39.5,-76.3
9,Abingdon,VA,24211,36.7,-81.9
10,Abington,MA,2351,42.1,-71.0
11,Acworth,GA,30101,34.0,-84.7
12,Ada,OK,74820,34.8,-96.7
13,Addison,IL,60101,41.9,-88.0
14,Adel,GA,31620,31.1,-83.4
15,Adrian,MI,49221,41.9,-84.0
16,Ahoskie,NC,27910,36.3,-77.0
17,Aiken,SC,29801,33.6,-81.8
18,Aiken,SC,29803,33.5,-81.7
19,Akron,OH,44312,41.0,-81.5
20,Alabaster,AL,35007,33.2,-86.8
21,Alabaster,AL,35007,33.2,-86.8
22,Alameda,NM,87114,35.2,-106.7
23,Alamo,TX,78516,26.2,-98.1
24,Alamogordo,NM,88310,32.9,-106.0
25,Alamogordo,NM,88310,32.9,-105.9
26,Alamosa,CO,81101,37.5,-105.9
27,Albany,GA,31701,31.6,-84.2
28,Albany,GA,31705,31.6,-84.1
29,Albany,GA,31707,31.6,-84.2
30,Albany,GA,31707,31.6,-84.2
31,Albany,NY,12205,42.7,-73.8
32,Albany,OR,97322,44.6,-123.1
33,Albemarle,NC,28001,35.3,-80.2
34,Albert Lea,MN,56007,43.7,-93.3
35,Albion,NY,14411,43.2,-78.2
36,Albuquerque,NM,87108,35.1,-106.6
37,Albuquerque,NM,87110,35.1,-106.6
38,Albuquerque,NM,87110,35.1,-106.6
39,Albuquerque,NM,87111,35.1,-106.5
40,Albuquerque,NM,87111,35.1,-106.5
41,Albuquerque,NM,87112,35.1,-106.5
42,Albuquerque,NM,87112,35.1,-106.5
43,Albuquerque,NM,87114,35.2,-106.7
44,Albuquerque,NM,87120,35.1,-106.7
45,Albuquerque,NM,87120,35.1,-106.7
46,Albuquerque,NM,87121,35.0,-106.7
47,Albuquerque,NM,87121,35.1,-106.7
48,Albuquerque,NM,87123,35.1,-106.5
49,Alcoa,TN,37701,35.8,-84.0
50,Aledo,IL,61231,41.2,-90.7
51,Alexander City,AL,35010,32.9,-86.0
52,Alexandria,KY,41001,39.0,-84.4
53,Alexandria,LA,71301,31.3,-92.5
54,Alexandria,LA,71301,31.3,-92.5
55,Alexandria,LA,71303,31.3,-92.5
56,Alexandria,MN,56308,45.8,-95.4
57,Alexandria,VA,22306,38.7,-77.1
58,Alexandria,VA,22306,38.8,-77.1
59,Alexandria,VA,22315,38.8,-77.1
60,Algonquin,IL,60102,42.2,-88.3
61,Algood,TN,38506,36.2,-85.5
62,Alice,TX,78332,27.8,-98.0
63,Allen,TX,75002,33.1,-96.6
64,Allen,TX,75013,33.1,-96.7
65,Allentown,PA,18106,40.6,-75.6
66,Alliance,OH,44601,40.9,-81.2
67,Alma,AR,72921,35.5,-94.2
68,Alma,MI,48801,43.4,-84.7
69,Alpena,MI,49707,45.1,-83.5
70,Alpharetta,GA,30004,34.1,-84.3
71,Alpharetta,GA,30004,34.2,-84.2
72,Altamonte Springs,FL,32714,28.7,-81.4
73,Altavista,VA,24517,37.1,-79.3
74,Altoona,IA,50009,41.6,-93.5
75,Altoona,PA,16601,40.5,-78.4
76,Altus,OK,73521,34.7,-99.3
77,Alva,OK,73717,36.8,-98.6
78,Alvin,TX,77511,29.4,-95.2
79,Amarillo,TX,79103,35.2,-101.8
80,Amarillo,TX,79106,35.2,-101.9
81,Amarillo,TX,79109,35.1,-101.9
82,Amarillo,TX,79110,35.1,-101.9
83,Amarillo,TX,79110,35.2,-101.9
84,Amarillo,TX,79118,35.2,-101.8
85,Amarillo,TX,79119,35.2,-101.9
86,Amelia,OH,45102,39.0,-84.2
87,American Canyon,CA,94503,38.2,-122.3
88,American Fork,UT,84003,40.4,-111.8
89,Americus,GA,31709,32.1,-84.2
90,Ames,IA,50010,42.0,-93.6
91,Ames,IA,50010,42.1,-93.6
92,Amherst,NH,3031,42.8,-71.6
93,Amherst,NY,14226,43.0,-78.8
94,Amite,LA,70422,30.7,-90.5
95,Ammon,ID,83406,43.5,-112.0
96,Amory,MS,38821,34.0,-88.5
97,Amsterdam,NY,12010,43.0,-74.2
98,Anadarko,OK,73005,35.1,-98.3
99,Anaheim,CA,92801,33.8,-118.0
100,Anaheim,CA,92801,33.8,-117.9
101,Anaheim,CA,92801,33.9,-117.9
102,Anaheim,CA,92805,33.8,-117.9
103,Anamosa,IA,52205,42.1,-91.3
104,Anchorage,AK,99503,61.2,-149.9
105,Anchorage,AK,99504,61.2,-149.7
106,Anchorage,AK,99515,61.1,-149.9
107,Andalusia,AL,36420,31.3,-86.4
108,Anderson,CA,96007,40.4,-122.3
109,Anderson,IN,46013,40.1,-85.6
110,Anderson,SC,29621,34.5,-82.6
111,Anderson,SC,29621,34.6,-82.7
112,Anderson,SC,29624,34.5,-82.7
113,Andover,MN,55304,45.2,-93.3
114,Angleton,TX,77515,29.2,-95.4
115,Angola,IN,46703,41.7,-85.0
116,Ankeny,IA,50021,41.7,-93.6
117,Anna,IL,62906,37.5,-89.2
118,Anna,TX,75409,33.3,-96.6
119,Anniston,AL,36206,33.7,-85.8
120,Antelope,CA,95843,38.7,-121.4
121,Anthem,AZ,85086,33.9,-112.2
122,Antigo,WI,54409,45.2,-89.1
123,Antioch,CA,94531,38.0,-121.8
124,Antioch,IL,60002,42.5,-88.1
125,Antioch,TN,37013,36.1,-86.6
126,Apache Junction,AZ,85120,33.4,-111.6
127,Apex,NC,27502,35.7,-78.8
128,Apopka,FL,32703,28.6,-81.5
129,Apple Valley,CA,92307,34.5,-117.2
130,Apple Valley,MN,55124,44.7,-93.2
131,Appleton,WI,54913,44.3,-88.5
132,Appleton,WI,54915,44.2,-88.4
133,Appomattox,VA,24522,37.4,-78.8
134,Arab,AL,35016,34.3,-86.5
135,Aransas Pass,TX,78336,27.9,-97.2
136,Arbutus,MD,21227,39.2,-76.7
137,Arcadia,FL,34266,27.2,-81.8
138,Archdale,NC,27263,35.9,-79.9
139,Arden,NC,28704,35.5,-82.5
140,Ardmore,OK,73401,34.2,-97.1
141,Arkadelphia,AR,71923,34.1,-93.1
142,Arkansas City,KS,67005,37.1,-97.0
143,Arlington,TX,76011,32.8,-97.1
144,Arlington,TX,76011,32.8,-97.1
145,Arlington,TX,76017,32.6,-97.1
146,Arlington,TX,76017,32.7,-97.2
147,Arlington,TX,76017,32.7,-97.2
148,Arlington,TX,76017,32.7,-97.1
149,Arlington,WA,98223,48.2,-122.2
150,Arnold,MO,63010,38.4,-90.4
151,Arroyo Grande,CA,93420,35.1,-120.6
152,Artesia,NM,88210,32.8,-104.4
153,Arvada,CO,80002,39.8,-105.1
154,Ash Flat,AR,72513,36.2,-91.6
155,Ashdown,AR,71822,33.7,-94.1
156,Asheboro,NC,27203,35.7,-79.8
157,Asheville,NC,28803,35.5,-82.5
158,Asheville,NC,28805,35.6,-82.5
159,Ashland,KY,41101,38.5,-82.7
160,Ashland,KY,41102,38.4,-82.7
161,Ashland,OH,44805,40.9,-82.3
162,Ashland,VA,23005,37.7,-77.4
163,Ashland,VA,23005,37.8,-77.5
164,Ashland,WI,54806,46.6,-90.9
165,Ashland City,TN,37015,36.2,-87.0
166,Ashtabula,OH,44004,41.9,-80.7
167,Atchison,KS,66002,39.5,-95.1
168,Athens,AL,35611,34.8,-87.0
169,Athens,GA,30605,33.9,-83.3
170,Athens,GA,30606,33.9,-83.4
171,Athens,GA,30606,33.9,-83.4
172,Athens,OH,45701,39.3,-82.1
173,Athens,TN,37303,35.5,-84.6
174,Athens,TX,75751,32.2,-95.8
175,Atlanta,GA,30314,33.8,-84.4
176,Atlanta,GA,30316,33.7,-84.3
177,Atlanta,GA,30318,33.8,-84.4
178,Atlanta,GA,30331,33.7,-84.5
179,Atlanta,GA,30354,33.7,-84.4
180,Atlanta,TX,75551,33.1,-94.2
181,Atlantic,IA,50022,41.4,-95.0
182,Atmore,AL,36502,31.0,-87.5
183,Atoka,OK,74525,34.4,-96.1
184,Attalla,AL,35954,34.0,-86.1
185,Atwater,CA,95301,37.3,-120.6
186,Auburn,AL,36830,32.6,-85.5
187,Auburn,AL,36832,32.6,-85.5
188,Auburn,AL,36832,32.6,-85.5
189,Auburn,IN,46706,41.4,-85.1
190,Auburn,ME,4210,44.1,-70.2
191,Auburn,NY,13021,43.0,-76.5
192,Auburn,WA,98001,47.3,-122.2
193,Auburndale,FL,33823,28.1,-81.8
194,Audubon,NJ,8106,39.9,-75.1
195,Augusta,GA,30906,33.4,-82.1
196,Augusta,GA,30907,33.5,-82.1
197,Augusta,GA,30907,33.5,-82.1
198,Augusta,GA,30909,33.5,-82.1
199,Augusta,KS,67010,37.7,-97.0
200,Augusta,ME,4330,44.3,-69.8
201,Aurora,CO,80010,39.7,-104.9
202,Aurora,CO,80011,39.8,-104.8
203,Aurora,CO,80012,39.7,-104.8
204,Aurora,CO,80014,39.7,-104.8
205,Aurora,CO,80015,39.6,-104.8
206,Aurora,CO,80015,39.6,-104.7
207,Aurora,CO,80016,39.6,-104.7
208,Aurora,IL,60502,41.8,-88.3
209,Aurora,IN,47001,39.1,-84.9
210,Aurora,MO,65605,36.9,-93.7
211,Aurora,OH,44202,41.4,-81.4
212,Austell,GA,30106,33.9,-84.6
213,Austin,MN,55912,43.7,-93.0
214,Austin,TX,78704,30.2,-97.8
215,Austin,TX,78717,30.5,-97.8
216,Austin,TX,78735,30.2,-97.8
217,Austin,TX,78748,30.2,-97.8
218,Austin,TX,78753,30.3,-97.7
219,Austin,TX,78753,30.4,-97.7
220,Austin,TX,78757,30.4,-97.7
221,Austintown,OH,44515,41.1,-80.8
222,Ava,MO,65608,37.0,-92.7
223,Avon,CO,81620,39.6,-106.5
224,Avon,CT,6001,41.8,-72.9
225,Avon,IN,46123,39.8,-86.4
226,Avon,MA,2322,42.1,-71.0
227,Avon,OH,44011,41.5,-82.0
228,Avon Park,FL,33825,27.6,-81.5
229,Avondale,AZ,85392,33.5,-112.3
230,Azle,TX,76020,32.9,-97.5
231,Bad Axe,MI,48413,43.8,-83.0
232,Bainbridge,GA,39819,30.9,-84.6
233,Baker,LA,70714,30.6,-91.1
234,Bakersfield,CA,93306,35.4,-119.0
235,Bakersfield,CA,93307,35.3,-119.0
236,Bakersfield,CA,93307,35.4,-118.9
237,Bakersfield,CA,93308,35.4,-119.0
238,Bakersfield,CA,93312,35.4,-119.1
239,Bakersfield,CA,93312,35.4,-119.1
240,Bakersfield,CA,93312,35.4,-119.1
241,Bakersfield,CA,93313,35.3,-119.1
242,Balch Springs,TX,75180,32.7,-96.6
243,Baldwin Park,CA,91706,34.1,-118.0
244,Ballinger,TX,76821,31.7,-100.0
245,Baltimore,MD,21220,39.3,-76.4
246,Baltimore,MD,21237,39.3,-76.5
247,Bangor,ME,4401,44.8,-68.7
248,Baraboo,WI,53913,43.5,-89.8
249,Barboursville,WV,25504,38.4,-82.3
250,Barbourville,KY,40906,36.9,-83.9
251,Barceloneta,PR,617,18.4,-66.5
252,Bardstown,KY,40004,37.8,-85.4
253,Barnwell,SC,29812,33.2,-81.4
254,Barstow,CA,92311,34.9,-117.0
255,Bartlesville,OK,74006,36.7,-95.9
256,Bartlett,TN,38133,35.2,-89.8
257,Bartlett,TN,38135,35.2,-89.8
258,Bartow,FL,33830,27.9,-81.8
259,Bastrop,LA,71220,32.8,-91.9
260,Bastrop,TX,78602,30.1,-97.3
261,Batavia,IL,60510,41.9,-88.3
262,Batavia,NY,14020,43.0,-78.2
263,Batesville,AR,72501,35.8,-91.6
264,Batesville,MS,38606,34.3,-89.9
265,Baton Rouge,LA,70808,30.4,-91.2
266,Baton Rouge,LA,70808,30.4,-91.1
267,Baton Rouge,LA,70809,30.4,-91.1
268,Baton Rouge,LA,70810,30.4,-91.1
269,Baton Rouge,LA,70815,30.5,-91.1
270,Baton Rouge,LA,70816,30.4,-91.1
271,Baton Rouge,LA,70816,30.4,-91.1
272,Baton Rouge,LA,70816,30.4,-91.0
273,Baton Rouge,LA,70817,30.4,-91.0
274,Baton Rouge,LA,70818,30.5,-91.0
275,Baton Rouge,LA,70818,30.5,-91.1
276,Battle Creek,MI,49014,42.3,-85.2
277,Battle Ground,WA,98604,45.8,-122.5
278,Baxley,GA,31513,31.8,-82.4
279,Baxter,MN,56425,46.3,-94.2
280,Bay City,MI,48706,43.6,-83.9
281,Bay City,TX,77414,29.0,-95.9
282,Bay Minette,AL,36507,30.9,-87.8
283,Bayamon,PR,961,18.4,-66.2
284,Bayonne,NJ,7002,40.7,-74.1
285,Baytown,TX,77521,29.8,-95.0
286,Baytown,TX,77523,29.8,-94.9
287,Beardstown,IL,62618,40.0,-90.4
288,Beatrice,NE,68310,40.3,-96.7
289,Beaufort,SC,29906,32.4,-80.7
290,Beaufort,SC,29907,32.4,-80.6
291,Beaumont,CA,92223,33.9,-117.0
292,Beaumont,TX,77706,30.1,-94.2
293,Beaver Dam,KY,42320,37.4,-86.9
294,Beaver Dam,WI,53916,43.5,-88.8
295,Beaver Falls,PA,15010,40.8,-80.4
296,Beavercreek,OH,45431,39.8,-84.1
297,Beaverton,OR,97006,45.5,-122.9
298,Beaverton,OR,97008,45.5,-122.8
299,Bechtelsville,PA,19505,40.4,-75.6
300,Beckley,WV,25801,37.8,-81.2
301,Beckley,WV,25801,37.8,-81.2
302,Bedford,IN,47421,38.9,-86.5
303,Bedford,NH,3110,43.0,-71.5
304,Bedford,TX,76021,32.8,-97.1
305,Bedford,TX,76021,32.9,-97.1
306,Bedford,VA,24523,37.3,-79.5
307,Bedford Park,IL,60638,41.8,-87.7
308,Beebe,AR,72012,35.1,-91.9
309,Beeville,TX,78102,28.4,-97.8
310,Belen,NM,87002,34.7,-106.8
311,Belle Vernon,PA,15012,40.1,-79.8
312,Bellefontaine,OH,43311,40.3,-83.8
313,Belleville,IL,62221,38.5,-89.9
314,Belleville,MI,48111,42.2,-83.5
315,Bellevue,NE,68123,41.1,-95.9
316,Bellevue,NE,68123,41.2,-95.9
317,Bellevue,WA,98006,47.6,-122.2
318,Bellevue,WA,98007,47.6,-122.1
319,Bellingham,MA,2019,42.1,-71.5
320,Bellingham,WA,98226,48.8,-122.5
321,Bellmead,TX,76705,31.6,-97.1
322,Belmont,NC,28012,35.3,-81.0
323,Beloit,WI,53511,42.5,-89.0
324,Belton,TX,76513,31.1,-97.5
325,Belvidere,IL,61008,42.2,-88.8
326,Bemidji,MN,56601,47.5,-94.9
327,Benbrook,TX,76126,32.7,-97.5
328,Bend,OR,97702,44.0,-121.3
329,Bennettsville,SC,29512,34.6,-79.7
330,Bennington,VT,5201,42.9,-73.2
331,Bensalem,PA,19053,40.1,-75.0
332,Benson,AZ,85602,32.0,-110.3
333,Benton,AR,72015,34.6,-92.6
334,Benton,IL,62812,38.0,-88.9
335,Benton,KY,42025,36.9,-88.4
336,Benton Harbor,MI,49022,42.1,-86.4
337,Bentonville,AR,72712,36.3,-94.2
338,Bentonville,AR,72712,36.3,-94.2
339,Bentonville,AR,72712,36.4,-94.2
340,Bentonville,AR,72712,36.4,-94.2
341,Bentonville,AR,72712,36.4,-94.2
342,Bentonville,AR,72712,36.4,-94.2
343,Bentonville,AR,72712,36.4,-94.2
344,Bentonville,AR,72712,36.4,-94.2
345,Bentonville,AR,72712,36.4,-94.2
346,Berea,KY,40403,37.6,-84.3
347,Berlin,MD,21811,38.3,-75.2
348,Berlin,VT,5602,44.2,-72.6
349,Berlin,WI,54923,44.0,-89.0
350,Bernalillo,NM,87004,35.3,-106.6
351,Berryville,AR,72616,36.4,-93.6
352,Bessemer,AL,35022,33.4,-87.0
353,Bethany,MO,64424,40.3,-94.0
354,Bethel Park,PA,15102,40.3,-80.0
355,Bethlehem,PA,18020,40.7,-75.3
356,Biddeford,ME,4005,43.5,-70.5
357,Big Rapids,MI,49307,43.7,-85.5
358,Big Spring,TX,79720,32.2,-101.5
359,Big Stone Gap,VA,24219,36.9,-82.8
360,Billings,MT,59102,45.8,-108.6
361,Billings,MT,59105,45.8,-108.5
362,Biloxi,MS,39531,30.4,-89.0
363,Biloxi,MS,39531,30.4,-89.0
364,Biloxi,MS,39532,30.4,-88.9
365,Birmingham,AL,35206,33.6,-86.7
366,Birmingham,AL,35209,33.5,-86.8
367,Birmingham,AL,35210,33.5,-86.7
368,Birmingham,AL,35214,33.6,-86.9
369,Birmingham,AL,35215,33.6,-86.7
370,Birmingham,AL,35235,33.6,-86.6
371,Birmingham,AL,35242,33.4,-86.7
372,Birmingham,AL,35244,33.4,-86.7
373,Biscoe,NC,27209,35.4,-79.8
374,Bismarck,ND,58503,46.9,-100.8
375,Bismarck,ND,58504,46.8,-100.7
376,Black River Falls,WI,54615,44.3,-90.8
377,Blackfoot,ID,83221,43.2,-112.4
378,Blackstone,VA,23824,37.1,-78.0
379,Blackwell,OK,74631,36.8,-97.3
380,Blaine,MN,55014,45.2,-93.2
381,Blaine,MN,55434,45.2,-93.2
382,Blair,NE,68008,41.5,-96.1
383,Blairsville,GA,30512,34.9,-84.0
384,Blairsville,PA,15717,40.4,-79.2
385,Bloomingdale,IL,60108,41.9,-88.1
386,Bloomington,IL,61705,40.5,-89.0
387,Bloomington,IN,47403,39.1,-86.6
388,Bloomington,MN,55420,44.9,-93.3
389,Bloomsburg,PA,17815,41.0,-76.5
390,Blue Ridge,GA,30513,34.9,-84.3
391,Blue Springs,MO,64014,39.0,-94.3
392,Blue Springs,MO,64014,39.0,-94.3
393,Bluefield,VA,24605,37.2,-81.3
394,Bluffton,IN,46714,40.8,-85.2
395,Bluffton,SC,29910,32.3,-80.9
396,Blytheville,AR,72315,35.9,-89.9
397,Boaz,AL,35957,34.2,-86.2
398,Boca Raton,FL,33428,26.3,-80.2
399,Boerne,TX,78006,29.8,-98.7
400,Bogalusa,LA,70427,30.8,-89.9
401,Boiling Springs,SC,29316,35.1,-82.0
402,Boise,ID,83704,43.6,-116.3
403,Boise,ID,83709,43.6,-116.3
404,Boise,ID,83714,43.7,-116.3
405,Bolingbrook,IL,60440,41.7,-88.1
406,Bolivar,MO,65613,37.6,-93.4
407,Bolivar,TN,38008,35.3,-89.0
408,Bonham,TX,75418,33.6,-96.2
409,Bonner Springs,KS,66012,39.1,-94.9
410,Bonney Lake,WA,98391,47.2,-122.2
411,Boone,IA,50036,42.0,-93.9
412,Boone,NC,28607,36.2,-81.7
413,Booneville,AR,72927,35.1,-93.9
414,Booneville,MS,38829,34.7,-88.6
415,Boonton,NJ,7005,40.9,-74.4
416,Boonville,IN,47601,38.1,-87.3
417,Boonville,MO,65233,39.0,-92.7
418,Boothwyn,PA,19061,39.9,-75.4
419,Borger,TX,79007,35.7,-101.4
420,Bossier City,LA,71111,32.5,-93.7
421,Bossier City,LA,71111,32.6,-93.6
422,Bossier City,LA,71112,32.5,-93.7
423,Bottineau,ND,58318,48.8,-100.4
424,Bourbonnais,IL,60914,41.2,-87.8
425,Boutte,LA,70039,29.9,-90.4
426,Bowie,MD,20716,38.9,-76.7
427,Bowie,TX,76230,33.5,-97.8
428,Bowling Green,KY,42101,37.0,-86.5
429,Bowling Green,KY,42104,36.9,-86.4
430,Bowling Green,MO,63334,39.3,-91.2
431,Bowling Green,OH,43402,41.4,-83.7
432,Boynton Beach,FL,33435,26.5,-80.1
433,Boynton Beach,FL,33436,26.5,-80.1
434,Boynton Beach,FL,33436,26.5,-80.1
435,Boynton Beach,FL,33436,26.5,-80.1
436,Bozeman,MT,59715,45.7,-111.0
437,Braden River,FL,34203,27.4,-82.5
438,Bradenton,FL,34202,27.4,-82.5
439,Bradenton,FL,34203,27.4,-82.5
440,Bradenton,FL,34208,27.5,-82.5
441,Bradenton,FL,34210,27.5,-82.6
442,Bradford,PA,16701,42.0,-78.6
443,Brady,TX,76825,31.1,-99.3
444,Brandon,FL,33511,27.9,-82.3
445,Brandon,FL,33511,27.9,-82.3
446,Brandon,FL,33511,27.9,-82.3
447,Branford,CT,6405,41.3,-72.8
448,Branson,MO,65616,36.6,-93.3
449,Branson,MO,65616,36.7,-93.2
450,Branson West,MO,65737,36.7,-93.4
451,Brawley,CA,92227,33.0,-115.5
452,Brazil,IN,47834,39.5,-87.1
453,Brea,CA,92821,33.9,-117.9
454,Breaux Bridge,LA,70517,30.3,-91.9
455,Breckenridge,TX,76424,32.8,-98.9
456,Bremen,GA,30110,33.7,-85.2
457,Bremerton,WA,98311,47.6,-122.6
458,Brenham,TX,77833,30.1,-96.4
459,Brent,AL,35034,33.0,-87.2
460,Brewer,ME,4412,44.8,-68.7
461,Brewton,AL,36426,31.1,-87.1
462,Brick,NJ,8724,40.1,-74.1
463,Bridge City,TX,77611,30.0,-93.8
464,Bridgeton,MO,63044,38.7,-90.4
465,Bridgeton,NJ,8302,39.5,-75.2
466,Bridgeview,IL,60455,41.7,-87.8
467,Brighton,CO,80601,40.0,-104.8
468,Brighton,CO,80602,39.9,-104.9
469,Bristol,CT,6010,41.7,-72.9
470,Bristol,TN,37620,36.5,-82.2
471,Bristol,VA,24202,36.6,-82.1
472,Bristow,OK,74010,35.8,-96.4
473,Brockport,NY,14420,43.2,-77.9
474,Brockton,MA,2301,42.1,-71.1
475,Broken Arrow,OK,74011,36.0,-95.8
476,Broken Arrow,OK,74012,36.0,-95.8
477,Broken Arrow,OK,74012,36.0,-95.8
478,Broken Arrow,OK,74012,36.1,-95.8
479,Broken Arrow,OK,74012,36.1,-95.8
480,Broken Arrow,OK,74014,36.1,-95.7
481,Broken Bow,OK,74728,34.0,-94.7
482,Brookfield,MO,64628,39.8,-93.1
483,Brookhaven,MS,39601,31.6,-90.5
484,Brookings,SD,57006,44.3,-96.8
485,Brooklyn,CT,6234,41.8,-71.9
486,Brooklyn Center,MN,55430,45.1,-93.3
487,Brooklyn Park,MN,55445,45.1,-93.4
488,Brooksville,FL,34601,28.5,-82.4
489,Brooksville,FL,34613,28.5,-82.5
490,Broomfield,CO,80020,39.9,-105.0
491,Broomfield,CO,80021,39.9,-105.1
492,Broussard,LA,70518,30.1,-91.9
493,Brown Deer,WI,53223,43.2,-88.0
494,Brownsburg,IN,46112,39.9,-86.4
495,Brownsville,TN,38012,35.6,-89.2
496,Brownsville,TX,78520,26.0,-97.5
497,Brownsville,TX,78521,25.9,-97.5
498,Brownsville,TX,78526,26.0,-97.5
499,Brownwood,TX,76801,31.7,-99.0
500,Brunswick,GA,31520,31.2,-81.5
501,Brunswick,GA,31525,31.2,-81.5
502,Brunswick,ME,4011,43.9,-69.9
503,Bryan,OH,43506,41.5,-84.5
504,Bryan,TX,77802,30.7,-96.3
505,Bryan,TX,77807,30.6,-96.4
506,Bryant,AR,72022,34.6,-92.5
507,Buckeye,AZ,85326,33.4,-112.6
508,Buckhannon,WV,26201,39.0,-80.2
509,Bucyrus,OH,44820,40.8,-82.9
510,Buda,TX,78610,30.1,-97.8
511,Buena Park,CA,90620,33.8,-118.0
512,Buffalo,MN,55313,45.2,-93.9
513,Buffalo,MO,65622,37.6,-93.1
514,Buford,GA,30519,34.1,-83.9
515,Buford,GA,30519,34.1,-84.0
516,Bullhead City,AZ,86442,35.1,-114.6
517,Burbank,CA,91502,34.2,-118.3
518,Burke,VA,22015,38.8,-77.3
519,Burleson,TX,76028,32.5,-97.3
520,Burleson,TX,76028,32.5,-97.4
521,Burley,ID,83318,42.6,-113.8
522,Burlington,NC,27215,36.1,-79.5
523,Burlington,NC,27217,36.1,-79.4
524,Burlington,NJ,8016,40.0,-74.8
525,Burlington,WI,53105,42.7,-88.3
526,Burnsville,MN,55337,44.8,-93.3
527,Burton,MI,48509,43.0,-83.6
528,Bushnell,FL,33513,28.7,-82.1
529,Butler,MO,64730,38.3,-94.4
530,Butler,PA,16001,40.9,-79.9
531,Butte,MT,59701,46.0,-112.5
532,Byram,MS,39272,32.2,-90.3
533,Cabot,AR,72023,35.0,-92.0
534,Cabot,AR,72023,35.0,-92.0
535,Cadillac,MI,49601,44.3,-85.4
536,Caguas,PR,725,18.2,-66.0
537,Cahokia,IL,62206,38.6,-90.2
538,Cairo,GA,39828,30.9,-84.2
539,Calais,ME,4619,45.2,-67.3
540,Caldwell,ID,83605,43.6,-116.7
541,Caldwell,ID,83607,43.6,-116.6
542,Caldwell,TX,77836,30.5,-96.7
543,Calera,AL,35040,33.1,-86.8
544,Calexico,CA,92231,32.7,-115.5
545,Calhoun,GA,30701,34.5,-84.9
546,California,MD,20619,38.3,-76.5
547,Callaway,FL,32404,30.2,-85.6
548,Camarillo,CA,93010,34.2,-119.1
549,Cambridge,MD,21613,38.6,-76.1
550,Cambridge,MN,55008,45.6,-93.2
551,Cambridge,OH,43725,40.0,-81.6
552,Camby,IN,46113,39.6,-86.3
553,Camden,AR,71701,33.6,-92.8
554,Camden,DE,19934,39.1,-75.5
555,Camden,SC,29020,34.3,-80.6
556,Camden,TN,38320,36.1,-88.1
557,Camdenton,MO,65020,38.0,-92.7
558,Cameron,MO,64429,39.8,-94.2
559,Cameron,NC,28326,35.2,-79.0
560,Camilla,GA,31730,31.2,-84.2
561,Camillus,NY,13031,43.0,-76.3
562,Camp Hill,PA,17011,40.2,-76.9
563,Campbellsville,KY,42718,37.3,-85.4
564,Canal Winchester,OH,43110,39.9,-82.8
565,Canandaigua,NY,14424,42.9,-77.2
566,Canon City,CO,81212,38.4,-105.2
567,Canovanas,PR,729,18.4,-65.9
568,Canton,GA,30114,34.3,-84.5
569,Canton,IL,61520,40.6,-90.0
570,Canton,MI,48187,42.3,-83.4
571,Canton,MI,48188,42.3,-83.5
572,Canton,MS,39046,32.6,-90.1
573,Canton,OH,44705,40.8,-81.3
574,Canton,OH,44708,40.8,-81.4
575,Canton,TX,75103,32.5,-95.9
576,Canyon,TX,79015,35.0,-101.9
577,Cape Coral,FL,33909,26.7,-81.9
578,Cape Coral,FL,33914,26.6,-82.0
579,Cape Coral,FL,33990,26.6,-81.9
580,Cape Coral,FL,33991,26.6,-82.0
581,Cape Girardeau,MO,63701,37.3,-89.6
582,Cape Girardeau,MO,63701,37.3,-89.5
583,Carbondale,IL,62901,37.7,-89.2
584,Carencro,LA,70520,30.3,-92.0
585,Carlinville,IL,62626,39.3,-89.9
586,Carlisle,PA,17013,40.2,-77.2
587,Carlsbad,NM,88220,32.4,-104.2
588,Carlyle,IL,62231,38.6,-89.4
589,Carmel,IN,46033,40.0,-86.1
590,Carmi,IL,62821,38.1,-88.2
591,Carmichael,CA,95608,38.7,-121.3
592,Carnegie,PA,15106,40.4,-80.1
593,Caro,MI,48723,43.5,-83.4
594,Carolina,PR,987,18.4,-66.0
595,Carpentersville,IL,60110,42.1,-88.3
596,Carrizo Springs,TX,78834,28.5,-99.8
597,Carroll,IA,51401,42.1,-94.9
598,Carrollton,GA,30117,33.5,-85.1
599,Carrollton,KY,41008,38.7,-85.1
600,Carrollton,TX,75006,33.0,-96.9
601,Carrollton,TX,75006,33.0,-96.9
602,Carrollton,TX,75007,33.0,-96.9
603,Carson,CA,90746,33.8,-118.3
604,Carson City,NV,89705,39.1,-119.8
605,Carson City,NV,89706,39.2,-119.8
606,Cartersville,GA,30121,34.2,-84.8
607,Carthage,MO,64836,37.1,-94.3
608,Carthage,MS,39051,32.7,-89.5
609,Carthage,TN,37030,36.2,-85.9
610,Carthage,TX,75633,32.2,-94.4
611,Cary,NC,27513,35.8,-78.8
612,Cary,NC,27518,35.7,-78.8
613,Cary,NC,27519,35.8,-78.9
614,Casa Grande,AZ,85122,32.9,-111.7
615,Casper,WY,82604,42.8,-106.4
616,Casper,WY,82609,42.9,-106.3
617,Casselberry,FL,32707,28.6,-81.3
618,Cassville,MO,65625,36.7,-93.9
619,Castroville,TX,78009,29.4,-98.9
620,Catonsville,MD,21228,39.3,-76.8
621,Catoosa,OK,74015,36.2,-95.8
622,Catskill,NY,12414,42.2,-73.9
623,Cave Creek,AZ,85331,33.8,-112.0
624,Cayce,SC,29033,34.0,-81.1
625,Cayey,PR,736,18.1,-66.1
626,Cedar City,UT,84720,37.7,-113.1
627,Cedar Falls,IA,50613,42.5,-92.4
628,Cedar Hill,TX,75104,32.6,-96.9
629,Cedar Hill,TX,75104,32.6,-96.9
630,Cedar Hills,UT,84062,40.4,-111.8
631,Cedar Knolls,NJ,7927,40.8,-74.5
632,Cedar Park,TX,78613,30.5,-97.8
633,Cedar Park,TX,78613,30.5,-97.8
634,Cedar Rapids,IA,52402,42.0,-91.7
635,Cedar Rapids,IA,52404,41.9,-91.7
636,Cedartown,GA,30125,34.0,-85.2
637,Celina,OH,45822,40.6,-84.5
638,Centennial,CO,80015,39.6,-104.8
639,Centennial,CO,80112,39.6,-104.9
640,Center,TX,75935,31.8,-94.2
641,Centereach,NY,11720,40.9,-73.1
642,Centerton,AR,72712,36.4,-94.3
643,Centerville,IA,52544,40.7,-92.9
644,Centerville,UT,84014,40.9,-111.9
645,Central,SC,29630,34.7,-82.8
646,Central City,KY,42330,37.3,-87.1
647,Central Square,NY,13036,43.3,-76.1
648,Centralia,IL,62801,38.5,-89.2
649,Centre,AL,35960,34.2,-85.7
650,Ceres,CA,95307,37.6,-120.9
651,Cerritos,CA,90703,33.9,-118.1
652,Chadron,NE,69337,42.8,-103.0
653,Chalmette,LA,70043,30.0,-90.0
654,Chambersburg,PA,17202,39.9,-77.6
655,Chamblee,GA,30341,33.9,-84.3
656,Champaign,IL,61822,40.1,-88.3
657,Chandler,AZ,85225,33.3,-111.8
658,Chandler,AZ,85225,33.3,-111.9
659,Chandler,AZ,85226,33.3,-111.9
660,Chandler,AZ,85226,33.3,-111.9
661,Chandler,AZ,85286,33.3,-111.8
662,Chandler,AZ,85286,33.3,-111.8
663,Chandler,OK,74834,35.7,-96.8
664,Chantilly,VA,20151,38.9,-77.4
665,Chanute,KS,66720,37.7,-95.5
666,Chapel Hill,NC,27517,35.9,-79.1
667,Chardon,OH,44024,41.6,-81.2
668,Charles Town,WV,25414,39.3,-77.8
669,Charleston,IL,61920,39.5,-88.2
670,Charleston,SC,29412,32.7,-80.0
671,Charleston,SC,29414,32.8,-80.1
672,Charlotte,MI,48813,42.6,-84.8
673,Charlotte,NC,28205,35.2,-80.8
674,Charlotte,NC,28208,35.2,-80.9
675,Charlotte,NC,28216,35.3,-80.9
676,Charlotte,NC,28226,35.1,-80.9
677,Charlotte,NC,28226,35.1,-80.8
678,Charlotte,NC,28227,35.2,-80.7
679,Charlotte,NC,28227,35.2,-80.7
680,Charlotte,NC,28262,35.3,-80.8
681,Charlotte,NC,28262,35.3,-80.7
682,Charlotte,NC,28270,35.1,-80.7
683,Charlotte,NC,28273,35.1,-80.9
684,Charlottesville,VA,22901,38.1,-78.5
685,Chattanooga,TN,37405,35.1,-85.3
686,Chattanooga,TN,37411,35.0,-85.2
687,Chattanooga,TN,37411,35.0,-85.2
688,Chattanooga,TN,37415,35.1,-85.3
689,Chattanooga,TN,37419,35.0,-85.4
690,Chattanooga,TN,37421,35.0,-85.1
691,Chattanooga,TN,37421,35.0,-85.2
692,Cheboygan,MI,49721,45.6,-84.5
693,Checotah,OK,74426,35.5,-95.5
694,Cheektowaga,NY,14225,42.9,-78.7
695,Chehalis,WA,98532,46.7,-123.0
696,Chelan,WA,98816,47.8,-120.0
697,Chelmsford,MA,1824,42.6,-71.4
698,Chelsea,AL,35043,33.3,-86.6
699,Cheraw,SC,29520,34.7,-79.9
700,Cherry Hill,NJ,8002,39.9,-75.0
701,Cherryville,NC,28021,35.4,-81.3
702,Chesapeake,VA,23320,36.7,-76.2
703,Chesapeake,VA,23320,36.8,-76.2
704,Chesapeake,VA,23321,36.8,-76.4
705,Chesapeake,VA,23322,36.7,-76.2
706,Chesapeake,VA,23322,36.7,-76.3
707,Chesapeake,VA,23322,36.7,-76.3
708,Chester,IL,62233,37.9,-89.8
709,Chester,SC,29706,34.7,-81.2
710,Chester,VA,23831,37.4,-77.5
711,Chesterfield,MI,48051,42.6,-82.9
712,Chesterfield,MO,63005,38.7,-90.6
713,Chesterfield,VA,23832,37.4,-77.7
714,Cheyenne,WY,82007,41.1,-104.8
715,Cheyenne,WY,82009,41.2,-104.8
716,Chicago,IL,60608,41.9,-87.7
717,Chicago,IL,60620,41.7,-87.6
718,Chicago,IL,60620,41.8,-87.7
719,Chicago,IL,60628,41.7,-87.6
720,Chicago,IL,60639,41.9,-87.7
721,Chicago,IL,60639,41.9,-87.7
722,Chicago,IL,60653,41.8,-87.6
723,Chicago,IL,60657,41.9,-87.6
724,Chickasha,OK,73018,35.0,-97.9
725,Chico,CA,95928,39.7,-121.8
726,Chicopee,MA,1020,42.2,-72.6
727,Chiefland,FL,32626,29.5,-82.9
728,Childress,TX,79201,34.4,-100.2
729,Chillicothe,MO,64601,39.8,-93.6
730,Chillicothe,OH,45601,39.3,-83.0
731,Chilton,WI,53014,44.0,-88.1
732,Chino,CA,91710,34.0,-117.7
733,Chipley,FL,32428,30.8,-85.5
734,Chippewa Falls,WI,54729,44.9,-91.4
735,Choctaw,OK,73020,35.5,-97.3
736,Christiansburg,VA,24073,37.2,-80.4
737,Chubbuck,ID,83202,42.9,-112.5
738,Chula Vista,CA,91910,32.6,-117.0
739,Chula Vista,CA,91910,32.7,-117.1
740,Chula Vista,CA,91911,32.6,-117.1
741,Chula Vista,CA,91915,32.6,-117.0
742,Cibolo,TX,78108,29.6,-98.2
743,Cicero,IL,60804,41.8,-87.7
744,Cicero,NY,13039,43.2,-76.1
745,Cincinnati,OH,45227,39.1,-84.4
746,Cincinnati,OH,45238,39.1,-84.6
747,Cincinnati,OH,45239,39.2,-84.6
748,Cincinnati,OH,45240,39.3,-84.5
749,Cincinnati,OH,45241,39.2,-84.4
750,Cincinnati,OH,45245,39.1,-84.3
751,Cincinnati,OH,45251,39.3,-84.6
752,Cinnaminson,NJ,8077,40.0,-75.0
753,Circleville,OH,43113,39.6,-82.9
754,Citrus Heights,CA,95610,38.7,-121.3
755,Citrus Heights,CA,95621,38.7,-121.3
756,City Of Industry,CA,91745,34.0,-117.9
757,Clanton,AL,35045,32.8,-86.6
758,Claremont,NH,3743,43.4,-72.3
759,Claremore,OK,74017,36.3,-95.6
760,Clarion,PA,16214,41.2,-79.4
761,Clarksburg,WV,26301,39.3,-80.3
762,Clarksdale,MS,38614,34.2,-90.6
763,Clarkston,WA,99403,46.4,-117.0
764,Clarksville,AR,72830,35.4,-93.5
765,Clarksville,IN,47129,38.3,-85.8
766,Clarksville,TN,37040,36.6,-87.3
767,Clarksville,TN,37040,36.6,-87.3
768,Clarksville,TN,37042,36.5,-87.4
769,Clarksville,TN,37042,36.6,-87.4
770,Clarksville,TN,37042,36.6,-87.4
771,Clarksville,TN,37043,36.5,-87.3
772,Claypool,AZ,85532,33.4,-110.8
773,Clayton,GA,30525,34.9,-83.4
774,Clayton,NC,27520,35.7,-78.5
775,Clayton,OH,45315,39.9,-84.3
776,Clearfield,PA,16830,41.0,-78.4
777,Clearlake,CA,95422,38.9,-122.6
778,Clearwater,FL,33755,28.0,-82.8
779,Clearwater,FL,33765,28.0,-82.7
780,Clearwater,FL,33765,28.0,-82.7
781,Cleburne,TX,76033,32.3,-97.4
782,Clemmons,NC,27012,36.0,-80.4
783,Clemson,SC,29631,34.7,-82.8
784,Clermont,FL,34711,28.5,-81.7
785,Clermont,FL,34714,28.4,-81.7
786,Cleveland,GA,30528,34.6,-83.8
787,Cleveland,MS,38732,33.8,-90.7
788,Cleveland,OH,44109,41.5,-81.7
789,Cleveland,OH,44130,41.4,-81.8
790,Cleveland,OK,74020,36.3,-96.5
791,Cleveland,TN,37312,35.2,-84.8
792,Cleveland,TN,37323,35.1,-84.9
793,Cleveland,TX,77327,30.3,-95.1
794,Clewiston,FL,33440,26.8,-80.9
795,Clifton Park,NY,12065,42.8,-73.7
796,Clinton,AR,72031,35.6,-92.5
797,Clinton,IA,52732,41.8,-90.2
798,Clinton,IN,47842,39.7,-87.4
799,Clinton,MD,20735,38.8,-76.9
800,Clinton,MO,64735,38.4,-93.8
801,Clinton,MS,39056,32.3,-90.3
802,Clinton,NC,28328,35.0,-78.4
803,Clinton,NJ,8809,40.6,-74.9
804,Clinton,TN,37716,36.2,-84.1
805,Clinton,UT,84015,41.1,-112.1
806,Clinton Township,MI,48038,42.6,-82.9
807,Clio,MI,48420,43.2,-83.8
808,Cloquet,MN,55720,46.7,-92.5
809,Clovis,CA,93611,36.8,-119.7
810,Clovis,CA,93611,36.8,-119.7
811,Clovis,CA,93612,36.8,-119.7
812,Clovis,NM,88101,34.4,-103.2
813,Coachella,CA,92236,33.7,-116.2
814,Coal Township,PA,17866,40.8,-76.5
815,Cobleskill,NY,12043,42.7,-74.5
816,Cochran,GA,31014,32.4,-83.3
817,Cockeysville,MD,21030,39.5,-76.6
818,Cocoa,FL,32922,28.4,-80.8
819,Coconut Creek,FL,33073,26.3,-80.2
820,Cody,WY,82414,44.5,-109.1
821,Coffeyville,KS,67337,37.0,-95.6
822,Colby,KS,67701,39.4,-101.0
823,Coldwater,MI,49036,41.9,-85.0
824,College Park,GA,30349,33.6,-84.5
825,College Place,WA,99324,46.0,-118.4
826,College Station,TX,77845,30.6,-96.3
827,Colleyville,TX,76034,32.9,-97.2
828,Collierville,TN,38017,35.0,-89.7
829,Collinsville,IL,62234,38.7,-90.0
830,Collinsville,IL,62234,38.7,-90.0
831,Colonial Heights,VA,23834,37.2,-77.4
832,Colony,TX,75056,33.1,-96.9
833,Colorado Springs,CO,80905,38.8,-104.8
834,Colorado Springs,CO,80909,38.8,-104.8
835,Colorado Springs,CO,80909,38.9,-104.8
836,Colorado Springs,CO,80915,38.8,-104.7
837,Colorado Springs,CO,80915,38.9,-104.7
838,Colorado Springs,CO,80916,38.8,-104.8
839,Colorado Springs,CO,80918,38.9,-104.8
840,Colorado Springs,CO,80920,38.9,-104.7
841,Colorado Springs,CO,80920,38.9,-104.8
842,Colton,CA,92324,34.1,-117.3
843,Columbia,KY,42728,37.1,-85.3
844,Columbia,MD,21045,39.2,-76.8
845,Columbia,MO,65201,38.9,-92.3
846,Columbia,MO,65201,39.0,-92.3
847,Columbia,MO,65203,39.0,-92.4
848,Columbia,MS,39429,31.2,-89.8
849,Columbia,SC,29170,33.9,-81.2
850,Columbia,SC,29203,34.1,-81.0
851,Columbia,SC,29206,34.0,-81.0
852,Columbia,SC,29209,34.0,-80.9
853,Columbia,SC,29210,34.0,-81.1
854,Columbia,SC,29210,34.1,-81.1
855,Columbia,SC,29212,34.1,-81.2
856,Columbia,SC,29223,34.1,-80.9
857,Columbia,TN,38401,35.6,-87.1
858,Columbia City,IN,46725,41.2,-85.5
859,Columbus,GA,31903,32.4,-84.9
860,Columbus,GA,31904,32.5,-85.0
861,Columbus,GA,31907,32.5,-84.9
862,Columbus,GA,31909,32.5,-84.9
863,Columbus,GA,31909,32.5,-84.9
864,Columbus,GA,31909,32.5,-84.9
865,Columbus,GA,31909,32.6,-84.9
866,Columbus,IN,47201,39.2,-85.9
867,Columbus,IN,47201,39.2,-85.9
868,Columbus,MS,39705,33.5,-88.4
869,Columbus,NE,68601,41.4,-97.3
870,Columbus,OH,43207,39.9,-83.0
871,Columbus,OH,43219,40.1,-82.9
872,Columbus,OH,43220,40.1,-83.1
873,Columbus,OH,43228,39.9,-83.1
874,Columbus,OH,43228,40.0,-83.1
875,Columbus,TX,78934,29.7,-96.5
876,Colville,WA,99114,48.6,-117.9
877,Commack,NY,11725,40.8,-73.3
878,Commerce,GA,30529,34.2,-83.5
879,Commerce,MI,48390,42.6,-83.4
880,Commerce,TX,75428,33.2,-95.9
881,Commerce City,CO,80022,39.8,-104.9
882,Compton,CA,90221,33.9,-118.2
883,Comstock Park,MI,49321,43.0,-85.7
884,Concord,NC,28027,35.4,-80.7
885,Concord,NC,28027,35.4,-80.7
886,Concord,NC,28027,35.4,-80.6
887,Concord,NH,3301,43.2,-71.5
888,Concordia,KS,66901,39.6,-97.7
889,Connellsville,PA,15425,40.0,-79.6
890,Connersville,IN,47331,39.7,-85.1
891,Conover,NC,28613,35.7,-81.2
892,Conroe,TX,77304,30.3,-95.5
893,Converse,TX,78109,29.5,-98.3
894,Converse,TX,78109,29.5,-98.3
895,Conway,AR,72032,35.1,-92.4
896,Conway,AR,72034,35.1,-92.5
897,Conway,AR,72034,35.1,-92.5
898,Conway,SC,29526,33.8,-79.0
899,Conway,SC,29526,33.9,-79.1
900,Conyers,GA,30013,33.7,-84.0
901,Cookeville,TN,38501,36.1,-85.5
902,Coolidge,AZ,85128,33.0,-111.5
903,Coon Rapids,MN,55448,45.2,-93.4
904,Cooper City,FL,33330,26.1,-80.3
905,Coos Bay,OR,97420,43.4,-124.3
906,Copperas Cove,TX,76522,31.1,-97.9
907,Coral Springs,FL,33067,26.3,-80.2
908,Coral Springs,FL,33067,26.3,-80.3
909,Coral Springs,FL,33071,26.2,-80.3
910,Coral Springs,FL,33076,26.3,-80.3
911,Coralville,IA,52241,41.7,-91.6
912,Corbin,KY,40701,37.0,-84.1
913,Cordele,GA,31015,32.0,-83.8
914,Cordova,TN,38018,35.1,-89.8
915,Corinth,MS,38834,34.9,-88.5
916,Cornelia,GA,30531,34.5,-83.5
917,Cornelius,OR,97113,45.5,-123.1
918,Corona,CA,92879,33.9,-117.5
919,Corona,CA,92881,33.8,-117.5
920,Corona,CA,92882,33.9,-117.6
921,Corpus Christi,TX,78410,27.9,-97.6
922,Corpus Christi,TX,78411,27.7,-97.4
923,Corpus Christi,TX,78414,27.7,-97.4
924,Corpus Christi,TX,78416,27.7,-97.4
925,Corpus Christi,TX,78418,27.7,-97.3
926,Corry,PA,16407,41.9,-79.6
927,Corsicana,TX,75110,32.1,-96.5
928,Cortez,CO,81321,37.3,-108.6
929,Cortland,NY,13045,42.6,-76.2
930,Cortland,OH,44410,41.3,-80.8
931,Corvallis,OR,97330,44.6,-123.3
932,Corydon,IN,47112,38.2,-86.1
933,Coshocton,OH,43812,40.3,-81.9
934,Cottage Grove,MN,55016,44.8,-92.9
935,Cottage Grove,OR,97424,43.8,-123.0
936,Cottonwood,AZ,86326,34.7,-112.0
937,Council Bluffs,IA,51501,41.2,-95.8
938,Council Bluffs,IA,51501,41.3,-95.9
939,Country Club Hills,IL,60478,41.6,-87.7
940,Coventry,RI,2816,41.7,-71.6
941,Covina,CA,91722,34.1,-117.9
942,Covington,GA,30014,33.6,-83.8
943,Covington,GA,30016,33.6,-84.0
944,Covington,LA,70433,30.4,-90.1
945,Covington,LA,70433,30.5,-90.1
946,Covington,TN,38019,35.5,-89.7
947,Covington,VA,24426,37.8,-80.0
948,Covington,WA,98042,47.4,-122.1
949,Coweta,OK,74429,36.0,-95.7
950,Craig,CO,81625,40.5,-107.6
951,Cranberry,PA,16319,41.3,-79.7
952,Cranberry Township,PA,16066,40.7,-80.1
953,Cranston,RI,2921,41.8,-71.5
954,Crawfordsville,IN,47933,40.0,-86.9
955,Crawfordville,FL,32327,30.2,-84.4
956,Crescent City,CA,95531,41.8,-124.2
957,Creston,IA,50801,41.0,-94.4
958,Crestview,FL,32536,30.7,-86.6
959,Crestwood,IL,60445,41.6,-87.7
960,Crestwood,KY,40014,38.3,-85.5
961,Crete,NE,68333,40.6,-96.9
962,Crockett,TX,75835,31.3,-95.4
963,Cromwell,CT,6416,41.6,-72.7
964,Crookston,MN,56716,47.8,-96.6
965,Crosby,TX,77532,29.9,-95.1
966,Cross Lanes,WV,25313,38.4,-81.8
967,Cross Roads,TX,76227,33.2,-97.0
968,Crossett,AR,71635,33.1,-91.9
969,Crossville,TN,38555,36.0,-85.0
970,Crowley,LA,70526,30.2,-92.4
971,Crowley,TX,76036,32.6,-97.3
972,Crowley,TX,76036,32.6,-97.3
973,Crystal Lake,IL,60014,42.2,-88.3
974,Cuba,MO,65453,38.1,-91.4
975,Cuero,TX,77954,29.1,-97.3
976,Cullman,AL,35055,34.1,-86.8
977,Cullman,AL,35058,34.2,-86.9
978,Culpeper,VA,22701,38.5,-78.0
979,Cumming,GA,30028,34.3,-84.1
980,Cumming,GA,30041,34.1,-84.2
981,Cumming,GA,30041,34.2,-84.1
982,Cushing,OK,74023,36.0,-96.7
983,Cut Off,LA,70345,29.5,-90.3
984,Cynthiana,KY,41031,38.4,-84.3
985,Cypress,TX,77429,30.0,-95.7
986,Cypress,TX,77429,30.0,-95.6
987,Cypress,TX,77433,29.9,-95.7
988,Cypress,TX,77433,29.9,-95.7
989,Dade City,FL,33525,28.3,-82.2
990,Dahlonega,GA,30533,34.5,-84.0
991,Dallas,GA,30157,33.9,-84.7
992,Dallas,NC,28034,35.3,-81.2
993,Dallas,OR,97338,44.9,-123.3
994,Dallas,TX,75204,32.8,-96.8
995,Dallas,TX,75211,32.8,-96.9
996,Dallas,TX,75220,32.9,-96.9
997,Dallas,TX,75227,32.8,-96.7
998,Dallas,TX,75228,32.8,-96.7
999,Dallas,TX,75228,32.8,-96.7
1000,Dallas,TX,75231,32.9,-96.8
1001,Dallas,TX,75232,32.7,-96.8
1002,Dallas,TX,75237,32.6,-96.9
1003,Dallas,TX,75243,32.9,-96.7
1004,Dallas,TX,75243,32.9,-96.8
1005,Dallas,TX,75244,32.9,-96.8
1006,Dallas,TX,75248,33.0,-96.8
1007,Dallas,TX,75248,33.0,-96.8
1008,Dallas,TX,75249,32.6,-96.9
1009,Dallas,TX,75287,33.0,-96.9
1010,Dalton,GA,30720,34.8,-85.0
1011,Dalton,GA,30720,34.8,-85.0
1012,Dalton,GA,30721,34.8,-84.9
1013,Danbury,CT,6810,41.4,-73.4
1014,Dania Beach,FL,33004,26.0,-80.1
1015,Danvers,MA,1923,42.6,-71.0
1016,Danville,IL,61834,40.2,-87.6
1017,Danville,IN,46122,39.8,-86.5
1018,Danville,KY,40422,37.6,-84.8
1019,Danville,VA,24540,36.6,-79.4
1020,Danville,VA,24540,36.6,-79.4
1021,Daphne,AL,36526,30.6,-87.9
1022,Dardanelle,AR,72834,35.2,-93.2
1023,Darien,IL,60561,41.7,-88.0
1024,Darlington,SC,29532,34.3,-79.9
1025,Davenport,IA,52806,41.6,-90.6
1026,Davenport,IA,52807,41.6,-90.5
1027,Davie,FL,33024,26.0,-80.3
1028,Davie,FL,33328,26.1,-80.3
1029,Dawsonville,GA,30534,34.4,-84.0
1030,Dayton,OH,45414,39.8,-84.2
1031,Dayton,OH,45458,39.6,-84.2
1032,Dayton,OH,45459,39.6,-84.1
1033,Dayton,TN,37321,35.5,-85.0
1034,Daytona Beach,FL,32117,29.2,-81.1
1035,Daytona Beach,FL,32119,29.2,-81.0
1036,De Funiak Springs,FL,32433,30.7,-86.1
1037,De Pere,WI,54115,44.4,-88.1
1038,De Queen,AR,71832,34.0,-94.3
1039,De Soto,MO,63020,38.2,-90.6
1040,Dearborn,MI,48126,42.3,-83.2
1041,Debary,FL,32713,28.9,-81.3
1042,Decatur,AL,35601,34.6,-87.0
1043,Decatur,AL,35603,34.6,-87.0
1044,Decatur,GA,30032,33.8,-84.3
1045,Decatur,GA,30033,33.8,-84.3
1046,Decatur,IL,62521,39.8,-88.9
1047,Decatur,IL,62526,39.9,-89.0
1048,Decatur,IN,46733,40.8,-84.9
1049,Decatur,TX,76234,33.2,-97.6
1050,Decorah,IA,52101,43.3,-91.8
1051,Deerfield Beach,FL,33442,26.3,-80.1
1052,Defiance,OH,43512,41.3,-84.4
1053,Dekalb,IL,60115,41.9,-88.7
1054,Del Rio,TX,78840,29.4,-100.9
1055,Delafield,WI,53018,43.0,-88.4
1056,Deland,FL,32720,29.1,-81.3
1057,Deland,FL,32724,29.0,-81.3
1058,Delano,CA,92315,35.7,-119.2
1059,Delavan,WI,53115,42.6,-88.6
1060,Delaware,OH,43015,40.3,-83.1
1061,Delmont,PA,15626,40.4,-79.6
1062,Delray Beach,FL,33483,26.4,-80.1
1063,Delray Beach,FL,33484,26.4,-80.1
1064,Delta,CO,81416,38.7,-108.1
1065,Deltona,FL,32725,28.9,-81.2
1066,Deltona,FL,32738,28.9,-81.2
1067,Deming,NM,88030,32.3,-107.7
1068,Demopolis,AL,36732,32.5,-87.8
1069,Denham Springs,LA,70706,30.6,-91.0
1070,Denham Springs,LA,70726,30.4,-90.9
1071,Denham Springs,LA,70726,30.5,-91.0
1072,Denison,IA,51442,42.0,-95.4
1073,Denison,TX,75020,33.8,-96.6
1074,Denton,MD,21629,38.9,-75.8
1075,Denton,TX,76201,33.2,-97.2
1076,Denton,TX,76205,33.2,-97.1
1077,Denton,TX,76210,33.2,-97.1
1078,Denver,CO,80207,39.8,-104.9
1079,Denver,CO,80219,39.7,-105.0
1080,Denver,CO,80231,39.7,-104.9
1081,Denver,CO,80231,39.7,-104.9
1082,Denver,CO,80239,39.8,-104.8
1083,Denver,NC,28037,35.5,-81.0
1084,Deptford,NJ,8096,39.8,-75.1
1085,Derby,KS,67037,37.5,-97.2
1086,Derby,KS,67037,37.6,-97.3
1087,Derby,VT,5829,44.9,-72.2
1088,Deridder,LA,70634,30.9,-93.3
1089,Derry,NH,3038,42.9,-71.3
1090,Des Moines,IA,50320,41.5,-93.6
1091,Des Moines,IA,50324,41.6,-93.7
1092,Des Plaines,IL,60016,42.0,-87.9
1093,Desloge,MO,63601,37.9,-90.5
1094,Desoto,TX,75115,32.6,-96.9
1095,Desoto,TX,75115,32.6,-96.9
1096,Destin,FL,32541,30.4,-86.4
1097,Detroit Lakes,MN,56501,46.8,-95.9
1098,Devils Lake,ND,58301,48.1,-98.8
1099,Devine,TX,78016,29.1,-98.9
1100,Dexter,MO,63841,36.8,-90.0
1101,Diamond Bar,CA,91765,34.0,-117.8
1102,Diberville,MS,39540,30.4,-88.9
1103,Diberville,MS,39540,30.5,-88.9
1104,Dickinson,ND,58601,46.9,-102.8
1105,Dickson,TN,37055,36.1,-87.4
1106,Dickson City,PA,18519,41.5,-75.6
1107,Dillon,SC,29536,34.4,-79.4
1108,Dilworth,MN,56529,46.9,-96.7
1109,Dinuba,CA,93618,36.5,-119.4
1110,Dixon,CA,95620,38.5,-121.8
1111,Dixon,IL,61021,41.8,-89.5
1112,Dodge City,KS,67801,37.8,-100.0
1113,Dodgeville,WI,53533,43.0,-90.1
1114,Donaldsonville,LA,70346,30.1,-91.0
1115,Donna,TX,78537,26.2,-98.0
1116,Doral,FL,33126,25.8,-80.3
1117,Dothan,AL,36301,31.2,-85.4
1118,Dothan,AL,36303,31.3,-85.4
1119,Dothan,AL,36305,31.2,-85.5
1120,Douglas,AZ,85607,31.3,-109.6
1121,Douglas,GA,31533,31.5,-82.8
1122,Douglasville,GA,30134,33.7,-84.8
1123,Dover,DE,19901,39.2,-75.6
1124,Downey,CA,90242,33.9,-118.1
1125,Downey,CA,90242,33.9,-118.1
1126,Draper,UT,84020,40.5,-111.9
1127,Dry Ridge,KY,41035,38.7,-84.6
1128,Du Bois,PA,15801,41.1,-78.7
1129,Du Quoin,IL,62832,38.0,-89.2
1130,Duarte,CA,91010,34.1,-118.0
1131,Dublin,GA,31021,32.6,-83.0
1132,Dublin,OH,43016,40.1,-83.1
1133,Dublin,OH,43016,40.1,-83.1
1134,Dublin,VA,24084,37.1,-80.7
1135,Dubuque,IA,52003,42.5,-90.7
1136,Dulles,VA,20166,38.9,-77.5
1137,Duluth,GA,30096,34.0,-84.2
1138,Dumas,TX,79029,35.8,-102.0
1139,Dumfries,VA,22026,38.6,-77.3
1140,Duncan,OK,73533,34.5,-98.0
1141,Duncansville,PA,16635,40.4,-78.4
1142,Dundalk,MD,21222,39.3,-76.5
1143,Dunedin,FL,34698,28.0,-82.8
1144,Dunkirk,MD,20754,38.7,-76.7
1145,Dunlap,TN,37327,35.4,-85.4
1146,Dunnellon,FL,34432,29.1,-82.5
1147,Dunwoody,GA,30338,33.9,-84.3
1148,Dunwoody,GA,30360,33.9,-84.3
1149,Durango,CO,81303,37.2,-107.9
1150,Durant,OK,74701,34.0,-96.4
1151,Durham,NC,27704,36.0,-78.8
1152,Durham,NC,27707,36.0,-79.0
1153,Dyersburg,TN,38024,36.1,-89.4
1154,Eagan,MN,55123,44.8,-93.2
1155,Eagle Pass,TX,78852,28.7,-100.5
1156,Eagle Point,OR,97524,42.5,-122.8
1157,Eagle River,AK,99577,61.3,-149.5
1158,Easley,SC,29640,34.8,-82.5
1159,East Brunswick,NJ,8816,40.5,-74.4
1160,East Ellijay,GA,30540,34.7,-84.5
1161,East Greenville,PA,18041,40.4,-75.5
1162,East Liverpool,OH,43920,40.7,-80.6
1163,East Meadow,NY,11554,40.7,-73.5
1164,East Peoria,IL,61611,40.7,-89.6
1165,East Point,GA,30344,33.7,-84.4
1166,East Ridge,TN,37412,35.0,-85.2
1167,East Setauket,NY,11733,40.9,-73.1
1168,East Stroudsburg,PA,18301,41.0,-75.2
1169,East Syracuse,NY,13057,43.1,-76.1
1170,East Windsor,CT,6088,41.9,-72.6
1171,East Windsor,NJ,8520,40.3,-74.6
1172,Eastanollee,GA,30538,34.5,-83.3
1173,Eastlake,OH,44095,41.6,-81.4
1174,Eastland,TX,76448,32.4,-98.8
1175,Eastman,GA,31023,32.2,-83.2
1176,Easton,MD,21601,38.8,-76.1
1177,Easton,PA,18045,40.7,-75.3
1178,Eaton,OH,45320,39.8,-84.6
1179,Eatonton,GA,31024,33.3,-83.4
1180,Eau Claire,WI,54701,44.8,-91.4
1181,Ebensburg,PA,15931,40.5,-78.8
1182,Economy,PA,15005,40.7,-80.2
1183,Eddystone,PA,19022,39.9,-75.3
1184,Eden,NC,27288,36.5,-79.7
1185,Eden Prairie,MN,55344,44.9,-93.4
1186,Edgewood,NM,87015,35.1,-106.2
1187,Edinboro,PA,16412,41.9,-80.2
1188,Edinburg,TX,78539,26.3,-98.2
1189,Edinburg,TX,78539,26.3,-98.2
1190,Edinburg,TX,78542,26.3,-98.2
1191,Edison,NJ,8817,40.5,-74.4
1192,Edmond,OK,73003,35.7,-97.5
1193,Edmond,OK,73013,35.6,-97.5
1194,Edmond,OK,73034,35.6,-97.4
1195,Edmond,OK,73034,35.7,-97.5
1196,Effingham,IL,62401,39.1,-88.6
1197,Egg Hbr Township,NJ,8234,39.4,-74.6
1198,El Cajon,CA,92020,32.8,-117.0
1199,El Cajon,CA,92021,32.8,-116.9
1200,El Cajon,CA,92021,32.8,-116.9
1201,El Campo,TX,77437,29.2,-96.3
1202,El Centro,CA,92243,32.8,-115.6
1203,El Dorado,AR,71730,33.2,-92.7
1204,El Dorado,KS,67042,37.8,-96.9
1205,El Mirage,AZ,85335,33.6,-112.3
1206,El Paso,TX,79904,31.8,-106.4
1207,El Paso,TX,79904,31.9,-106.4
1208,El Paso,TX,79907,31.7,-106.3
1209,El Paso,TX,79907,31.7,-106.3
1210,El Paso,TX,79912,31.8,-106.6
1211,El Paso,TX,79912,31.9,-106.6
1212,El Paso,TX,79922,31.8,-106.6
1213,El Paso,TX,79924,31.9,-106.4
1214,El Paso,TX,79925,31.8,-106.4
1215,El Paso,TX,79932,31.9,-106.6
1216,El Paso,TX,79934,31.9,-106.4
1217,El Paso,TX,79935,31.8,-106.3
1218,El Paso,TX,79936,31.7,-106.3
1219,El Paso,TX,79936,31.8,-106.3
1220,El Paso,TX,79936,31.8,-106.3
1221,El Paso,TX,79938,31.8,-106.2
1222,El Paso,TX,79938,31.8,-106.3
1223,El Reno,OK,73036,35.5,-98.0
1224,Eldon,MO,65026,38.3,-92.6
1225,Elgin,IL,60123,42.0,-88.3
1226,Elgin,TX,78621,30.3,-97.4
1227,Elizabeth,CO,80107,39.4,-104.6
1228,Elizabeth City,NC,27909,36.3,-76.3
1229,Elizabethton,TN,37643,36.3,-82.2
1230,Elizabethtown,KY,42701,37.7,-85.9
1231,Elizabethtown,NC,28337,34.6,-78.6
1232,Elizabethville,PA,17023,40.6,-76.8
1233,Elk City,OK,73644,35.4,-99.4
1234,Elk Grove,CA,95757,38.4,-121.4
1235,Elk Grove,CA,95758,38.4,-121.4
1236,Elk Grove,CA,95758,38.4,-121.4
1237,Elk Grove Village,IL,60007,42.0,-88.0
1238,Elk River,MN,55330,45.3,-93.5
1239,Elkhart,IN,46514,41.7,-86.1
1240,Elkhart,IN,46514,41.7,-86.0
1241,Elkin,NC,28621,36.3,-80.8
1242,Elkins,WV,26241,38.9,-79.8
1243,Elko,NV,89801,40.8,-115.8
1244,Elkton,MD,21921,39.6,-75.8
1245,Ellenwood,GA,30294,33.6,-84.3
1246,Ellicott City,MD,21043,39.3,-76.8
1247,Ellsworth,ME,4605,44.5,-68.4
1248,Elsa,TX,78543,26.3,-98.0
1249,Elverson,PA,19520,40.2,-75.9
1250,Elyria,OH,44035,41.4,-82.1
1251,Emporia,KS,66801,38.4,-96.2
1252,Emporia,VA,23847,36.7,-77.5
1253,Encinitas,CA,92024,33.1,-117.3
1254,Englewood,CO,80110,39.7,-105.0
1255,Englewood,FL,34224,26.9,-82.3
1256,Enid,OK,73703,36.4,-97.9
1257,Enid,OK,73703,36.4,-97.9
1258,Ennis,TX,75119,32.3,-96.6
1259,Enterprise,AL,36330,31.3,-85.8
1260,Ephraim,UT,84627,39.4,-111.6
1261,Ephrata,PA,17522,40.2,-76.2
1262,Ephrata,WA,98823,47.3,-119.5
1263,Epping,NH,3042,43.0,-71.1
1264,Erie,PA,16504,42.1,-80.0
1265,Erie,PA,16506,42.1,-80.2
1266,Erie,PA,16509,42.1,-80.1
1267,Erwin,NC,28339,35.3,-78.6
1268,Escanaba,MI,49829,45.8,-87.1
1269,Escondido,CA,92027,33.1,-117.1
1270,Escondido,CA,92027,33.1,-117.1
1271,Espanola,NM,87532,36.0,-106.1
1272,Estero,FL,33928,26.5,-81.8
1273,Etters,PA,17319,40.1,-76.8
1274,Eufaula,AL,36027,31.8,-85.2
1275,Eugene,OR,97402,44.0,-123.2
1276,Eugene,OR,97408,44.1,-123.1
1277,Eunice,LA,70535,30.5,-92.4
1278,Eureka,CA,95501,40.8,-124.2
1279,Eureka,MO,63025,38.5,-90.7
1280,Evans,GA,30809,33.5,-82.1
1281,Evans Mills,NY,13637,44.0,-75.8
1282,Evanston,WY,82930,41.3,-111.0
1283,Evansville,IN,47710,38.0,-87.6
1284,Evansville,IN,47712,38.0,-87.6
1285,Evansville,IN,47714,38.0,-87.5
1286,Evansville,IN,47715,38.0,-87.5
1287,Everett,PA,15537,40.0,-78.4
1288,Everett,WA,98204,47.9,-122.3
1289,Everett,WA,98208,47.9,-122.2
1290,Evergreen,CO,80439,39.7,-105.3
1291,Evergreen Park,IL,60805,41.7,-87.7
1292,Excelsior Springs,MO,64024,39.3,-94.3
1293,Exton,PA,19341,40.0,-75.6
1294,Fairbanks,AK,99701,64.9,-147.7
1295,Fairbury,NE,68352,40.2,-97.2
1296,Fairfax,VA,22030,38.8,-77.3
1297,Fairfax,VA,22033,38.9,-77.4
1298,Fairfield,CA,94533,38.3,-122.0
1299,Fairfield,IA,52556,41.0,-92.0
1300,Fairfield,IL,62837,38.4,-88.4
1301,Fairhaven,MA,2719,41.6,-70.9
1302,Fairhope,AL,36532,30.5,-87.8
1303,Fairlawn,OH,44333,41.1,-81.6
1304,Fairlawn,VA,24141,37.2,-80.6
1305,Fairmont,MN,56031,43.7,-94.4
1306,Fairmont,WV,26554,39.4,-80.2
1307,Fairview,TN,37062,36.0,-87.1
1308,Fajardo,PR,738,18.3,-65.7
1309,Falcon,CO,80831,38.9,-104.6
1310,Fall River,MA,2721,41.7,-71.1
1311,Fallon,NV,89406,39.5,-118.8
1312,Fallston,MD,21047,39.5,-76.4
1313,Falmouth,ME,4105,43.7,-70.2
1314,Fargo,ND,58103,46.9,-96.9
1315,Fargo,ND,58104,46.8,-96.8
1316,Faribault,MN,55021,44.3,-93.3
1317,Farmers Branch,TX,75234,32.9,-96.9
1318,Farmerville,LA,71241,32.8,-92.4
1319,Farmingdale,NY,11735,40.7,-73.4
1320,Farmington,AR,72730,36.0,-94.3
1321,Farmington,ME,4938,44.6,-70.2
1322,Farmington,MO,63640,37.8,-90.4
1323,Farmington,NM,87401,36.7,-108.2
1324,Farmington,NM,87402,36.8,-108.2
1325,Farmville,VA,23901,37.3,-78.4
1326,Fayette,AL,35555,33.7,-87.8
1327,Fayetteville,AR,72701,36.1,-94.2
1328,Fayetteville,AR,72701,36.1,-94.2
1329,Fayetteville,AR,72703,36.1,-94.1
1330,Fayetteville,AR,72703,36.1,-94.2
1331,Fayetteville,AR,72704,36.1,-94.2
1332,Fayetteville,AR,72704,36.1,-94.2
1333,Fayetteville,GA,30214,33.5,-84.4
1334,Fayetteville,NC,28303,35.1,-79.0
1335,Fayetteville,NC,28304,35.0,-79.1
1336,Fayetteville,NC,28304,35.0,-79.0
1337,Fayetteville,NC,28306,35.0,-78.9
1338,Fayetteville,NC,28311,35.1,-78.9
1339,Fayetteville,NC,28311,35.1,-78.9
1340,Fayetteville,NC,28314,35.1,-79.1
1341,Fayetteville,TN,37334,35.1,-86.6
1342,Fayetteville,WV,25840,38.0,-81.1
1343,Federal Way,WA,98003,47.3,-122.3
1344,Federal Way,WA,98003,47.3,-122.3
1345,Fenton,MI,48430,42.8,-83.7
1346,Fenton,MO,63026,38.5,-90.4
1347,Fergus Falls,MN,56537,46.3,-96.1
1348,Fernandina Beach,FL,32034,30.6,-81.5
1349,Fernley,NV,89408,39.6,-119.2
1350,Festus,MO,63028,38.2,-90.4
1351,Findlay,OH,45840,41.1,-83.7
1352,Findlay,OH,45840,41.1,-83.6
1353,Fishers,IN,46037,39.9,-86.0
1354,Fishers,IN,46038,40.0,-86.0
1355,Fishkill,NY,12524,41.5,-73.9
1356,Fitzgerald,GA,31750,31.7,-83.2
1357,Flagstaff,AZ,86001,35.2,-111.7
1358,Flagstaff,AZ,86004,35.2,-111.6
1359,Flanders,NJ,7836,40.9,-74.7
1360,Flemington,NJ,8822,40.5,-74.9
1361,Flint,MI,48532,43.0,-83.8
1362,Flippin,AR,72634,36.3,-92.6
1363,Flora,IL,62839,38.7,-88.5
1364,Florence,AL,35630,34.8,-87.7
1365,Florence,AL,35630,34.8,-87.6
1366,Florence,AL,35633,34.8,-87.7
1367,Florence,KY,41042,39.0,-84.7
1368,Florence,SC,29501,34.2,-79.8
1369,Florence,SC,29501,34.2,-79.8
1370,Florence,SC,29505,34.2,-79.8
1371,Floresville,TX,78114,29.2,-98.2
1372,Florida City,FL,33034,25.5,-80.5
1373,Florissant,MO,63033,38.8,-90.3
1374,Flower Mound,TX,75022,33.0,-97.1
1375,Flowood,MS,39232,32.4,-90.0
1376,Foley,AL,36535,30.4,-87.7
1377,Folsom,CA,95630,38.7,-121.2
1378,Fond Du Lac,WI,54937,43.8,-88.5
1379,Fontana,CA,92335,34.1,-117.4
1380,Foothill Ranch,CA,92610,33.7,-117.7
1381,Fordyce,AR,71742,33.8,-92.4
1382,Forest,MS,39074,32.3,-89.5
1383,Forest,VA,24551,37.4,-79.3
1384,Forest City,NC,28043,35.3,-81.9
1385,Forest Lake,MN,55025,45.3,-93.0
1386,Forest Park,IL,60130,41.9,-87.8
1387,Forney,TX,75126,32.7,-96.4
1388,Forrest City,AR,72335,35.0,-90.8
1389,Forsyth,GA,31029,33.0,-83.9
1390,Fort Collins,CO,80524,40.6,-105.1
1391,Fort Collins,CO,80525,40.5,-105.1
1392,Fort Dodge,IA,50501,42.5,-94.2
1393,Fort Gratiot,MI,48059,43.0,-82.5
1394,Fort Lauderdale,FL,33312,26.1,-80.2
1395,Fort Mill,SC,29715,35.0,-80.9
1396,Fort Mohave,AZ,86426,35.0,-114.6
1397,Fort Morgan,CO,80701,40.3,-103.8
1398,Fort Myers,FL,33912,26.5,-81.9
1399,Fort Myers,FL,33919,26.6,-81.9
1400,Fort Myers,FL,33966,26.6,-81.8
1401,Fort Myers Beach,FL,33931,26.5,-81.9
1402,Fort Oglethorpe,GA,30742,34.9,-85.2
1403,Fort Oglethorpe,GA,30742,35.0,-85.2
1404,Fort Payne,AL,35968,34.4,-85.8
1405,Fort Pierce,FL,34947,27.4,-80.4
1406,Fort Scott,KS,66701,37.8,-94.7
1407,Fort Smith,AR,72901,35.3,-94.4
1408,Fort Smith,AR,72903,35.4,-94.3
1409,Fort Smith,AR,72903,35.4,-94.4
1410,Fort Smith,AR,72904,35.4,-94.4
1411,Fort Smith,AR,72908,35.3,-94.4
1412,Fort Stockton,TX,79735,30.9,-102.9
1413,Fort Walton Beach,FL,32547,30.4,-86.6
1414,Fort Wayne,IN,46804,41.1,-85.2
1415,Fort Wayne,IN,46816,41.0,-85.1
1416,Fort Wayne,IN,46818,41.2,-85.2
1417,Fort Wayne,IN,46825,41.1,-85.1
1418,Fort Wayne,IN,46835,41.1,-85.0
1419,Fort Worth,TX,76052,33.0,-97.4
1420,Fort Worth,TX,76105,32.7,-97.3
1421,Fort Worth,TX,76108,32.8,-97.5
1422,Fort Worth,TX,76110,32.7,-97.3
1423,Fort Worth,TX,76111,32.8,-97.3
1424,Fort Worth,TX,76114,32.8,-97.4
1425,Fort Worth,TX,76116,32.7,-97.4
1426,Fort Worth,TX,76120,32.8,-97.2
1427,Fort Worth,TX,76123,32.6,-97.4
1428,Fort Worth,TX,76132,32.7,-97.4
1429,Fort Worth,TX,76133,32.6,-97.4
1430,Fort Worth,TX,76137,32.9,-97.3
1431,Fort Worth,TX,76244,32.9,-97.3
1432,Fort Worth,TX,76244,32.9,-97.3
1433,Fountain,CO,80817,38.7,-104.7
1434,Fountain,CO,80906,38.8,-104.8
1435,Fowlerville,MI,48836,42.6,-84.1
1436,Framingham,MA,1701,42.3,-71.4
1437,Frankfort,IN,46041,40.3,-86.5
1438,Frankfort,KY,40601,38.2,-84.9
1439,Franklin,IN,46131,39.5,-86.1
1440,Franklin,KY,42134,36.7,-86.6
1441,Franklin,LA,70538,29.8,-91.5
1442,Franklin,NC,28734,35.2,-83.4
1443,Franklin,NJ,7416,41.1,-74.6
1444,Franklin,OH,45005,39.6,-84.3
1445,Franklin,TN,37067,35.9,-86.8
1446,Franklin,VA,23851,36.7,-77.0
1447,Franklin,WI,53132,42.9,-88.0
1448,Frederick,MD,21701,39.4,-77.4
1449,Frederick,MD,21704,39.4,-77.4
1450,Fredericksburg,TX,78624,30.3,-98.9
1451,Fredericksburg,VA,22401,38.3,-77.5
1452,Fredericksburg,VA,22405,38.3,-77.4
1453,Fredericksburg,VA,22406,38.4,-77.5
1454,Fredericksburg,VA,22407,38.2,-77.5
1455,Fredericktown,MO,63645,37.6,-90.3
1456,Fredonia,NY,14063,42.5,-79.3
1457,Freehold,NJ,7728,40.2,-74.3
1458,Freeport,IL,61032,42.3,-89.6
1459,Fremont,CA,94538,37.5,-122.0
1460,Fremont,CA,94539,37.5,-121.9
1461,Fremont,MI,49412,43.5,-86.0
1462,Fremont,NE,68025,41.5,-96.5
1463,Fremont,OH,43420,41.4,-83.1
1464,Fresno,CA,93650,36.8,-119.8
1465,Fresno,CA,93703,36.8,-119.8
1466,Fresno,CA,93710,36.8,-119.7
1467,Fresno,CA,93722,36.8,-119.9
1468,Fresno,CA,93726,36.8,-119.8
1469,Fresno,CA,93727,36.7,-119.7
1470,Fridley,MN,55432,45.1,-93.3
1471,Friendswood,TX,77546,29.6,-95.2
1472,Frisco,CO,80443,39.6,-106.1
1473,Frisco,TX,75033,33.2,-96.9
1474,Frisco,TX,75034,33.1,-96.9
1475,Frisco,TX,75034,33.1,-96.8
1476,Front Royal,VA,22630,39.0,-78.2
1477,Fruit Cove,FL,32259,30.1,-81.6
1478,Ft Wright,KY,41017,39.0,-84.5
1479,Fulton,KY,42041,36.5,-88.9
1480,Fulton,MO,65251,38.9,-91.9
1481,Fulton,MS,38843,34.2,-88.4
1482,Fulton,NY,13069,43.3,-76.4
1483,Fuquay Varina,NC,27526,35.6,-78.8
1484,Gadsden,AL,35903,34.0,-86.0
1485,Gaffney,SC,29341,35.1,-81.7
1486,Gainesville,FL,32608,29.6,-82.4
1487,Gainesville,FL,32641,29.7,-82.3
1488,Gainesville,FL,32653,29.7,-82.4
1489,Gainesville,GA,30501,34.3,-83.8
1490,Gainesville,GA,30504,34.3,-83.9
1491,Gainesville,GA,30504,34.3,-83.9
1492,Gainesville,TX,76240,33.6,-97.1
1493,Galax,VA,24333,36.7,-80.9
1494,Galena,IL,61036,42.4,-90.4
1495,Galesburg,IL,61401,41.0,-90.4
1496,Gallatin,TN,37066,36.4,-86.5
1497,Gallipolis,OH,45631,38.8,-82.2
1498,Gallup,NM,87301,35.5,-108.8
1499,Galt,CA,95632,38.3,-121.3
1500,Galveston,TX,77551,29.3,-94.8
1501,Garden City,KS,67846,38.0,-100.8
1502,Garden City,KS,67846,38.0,-100.9
1503,Garden City Beach,SC,29576,33.6,-79.0
1504,Garden Grove,CA,92840,33.8,-117.9
1505,Garden Grove,CA,92841,33.8,-118.0
1506,Gardendale,AL,35071,33.6,-86.8
1507,Gardner,KS,66030,38.8,-94.9
1508,Gardner,MA,1440,42.6,-72.0
1509,Gardnerville,NV,89410,38.9,-119.7
1510,Garfield,NJ,7026,40.9,-74.1
1511,Garland,TX,75040,32.9,-96.6
1512,Garland,TX,75040,32.9,-96.6
1513,Garland,TX,75040,33.0,-96.6
1514,Garland,TX,75041,32.9,-96.7
1515,Garland,TX,75043,32.8,-96.6
1516,Garland,TX,75043,32.9,-96.6
1517,Garner,NC,27529,35.6,-78.6
1518,Gastonia,NC,28052,35.3,-81.2
1519,Gastonia,NC,28054,35.2,-81.1
1520,Gastonia,NC,28056,35.3,-81.1
1521,Gatesville,TX,76528,31.4,-97.7
1522,Gaylord,MI,49735,45.0,-84.7
1523,Geneseo,IL,61254,41.4,-90.2
1524,Geneseo,NY,14454,42.8,-77.8
1525,Geneva,AL,36340,31.1,-85.9
1526,Geneva,NY,14456,42.9,-77.0
1527,Georgetown,DE,19947,38.7,-75.4
1528,Georgetown,KY,40324,38.2,-84.5
1529,Georgetown,KY,40324,38.3,-84.5
1530,Georgetown,SC,29440,33.4,-79.3
1531,Georgetown,TX,78628,30.6,-97.7
1532,Germantown,MD,20876,39.2,-77.3
1533,Germantown,WI,53022,43.2,-88.1
1534,Gettysburg,PA,17325,39.8,-77.2
1535,Gibsonia,PA,15044,40.6,-79.9
1536,Gibsonton,FL,33534,27.8,-82.4
1537,Giddings,TX,78942,30.2,-96.9
1538,Gilbert,AZ,85295,33.3,-111.7
1539,Gilbert,AZ,85295,33.3,-111.7
1540,Gilford,NH,3249,43.6,-71.4
1541,Gillette,WY,82718,44.3,-105.5
1542,Gilmer,TX,75644,32.7,-94.9
1543,Gilroy,CA,95020,37.0,-121.6
1544,Gladstone,MO,64119,39.2,-94.5
1545,Glasgow,KY,42141,37.0,-85.9
1546,Glen Allen,VA,23060,37.7,-77.6
1547,Glen Burnie,MD,21060,39.2,-76.6
1548,Glen Carbon,IL,62034,38.8,-90.0
1549,Glen Ellyn,IL,60137,41.8,-88.1
1550,Glendale,AZ,85301,33.6,-112.2
1551,Glendale,AZ,85302,33.6,-112.2
1552,Glendale,AZ,85302,33.6,-112.2
1553,Glendale,AZ,85303,33.5,-112.2
1554,Glendale,AZ,85305,33.5,-112.3
1555,Glendale,AZ,85308,33.6,-112.2
1556,Glendale,AZ,85308,33.7,-112.2
1557,Glendale,AZ,85308,33.7,-112.2
1558,Glendale,AZ,85310,33.7,-112.2
1559,Glendora,CA,91740,34.1,-117.8
1560,Glenmont,NY,12077,42.6,-73.8
1561,Glenolden,PA,19036,39.9,-75.3
1562,Glenpool,OK,74033,36.0,-96.0
1563,Glenville,NY,12302,42.8,-73.9
1564,Glenwood Springs,CO,81601,39.5,-107.3
1565,Gloucester,VA,23061,37.4,-76.5
1566,Gloversville,NY,12078,43.0,-74.3
1567,Goddard,KS,67052,37.7,-97.6
1568,Godfrey,IL,62035,39.0,-90.2
1569,Goldsboro,NC,27530,35.4,-78.1
1570,Goldsboro,NC,27534,35.3,-77.9
1571,Goldsboro,NC,27534,35.4,-77.9
1572,Goldsboro,NC,27534,35.4,-77.9
1573,Gonzales,LA,70737,30.2,-90.9
1574,Gonzales,TX,78629,29.5,-97.4
1575,Goodland,KS,67735,39.3,-101.7
1576,Goodyear,AZ,85338,33.5,-112.4
1577,Goodyear,AZ,85395,33.5,-112.4
1578,Goose Creek,SC,29445,33.0,-80.0
1579,Goose Creek,SC,29445,33.0,-80.0
1580,Goose Creek,SC,29445,33.0,-80.1
1581,Gordonsville,VA,22942,38.0,-78.2
1582,Gorham,NH,3581,44.4,-71.2
1583,Goshen,IN,46526,41.6,-85.8
1584,Goshen,IN,46526,41.6,-85.9
1585,Grafton,WV,26354,39.4,-80.0
1586,Graham,TX,76450,33.1,-98.6
1587,Granbury,TX,76048,32.4,-97.8
1588,Grand Blanc,MI,48439,42.9,-83.6
1589,Grand Forks,ND,58201,47.9,-97.1
1590,Grand Forks,ND,58203,47.9,-97.1
1591,Grand Haven,MI,49417,43.0,-86.2
1592,Grand Island,NE,68801,40.9,-98.3
1593,Grand Island,NE,68803,40.9,-98.4
1594,Grand Junction,CO,81501,39.1,-108.5
1595,Grand Junction,CO,81504,39.1,-108.5
1596,Grand Junction,CO,81505,39.1,-108.6
1597,Grand Prairie,TX,75052,32.7,-97.0
1598,Grand Prairie,TX,75052,32.7,-97.0
1599,Grand Rapids,MI,49546,42.9,-85.5
1600,Grand Rapids,MN,55744,47.2,-93.5
1601,Grandville,MI,49418,42.9,-85.8
1602,Granite Bay,CA,95746,38.7,-121.2
1603,Granite City,IL,62040,38.7,-90.1
1604,Granite Falls,NC,28630,35.8,-81.4
1605,Grants,NM,87020,35.1,-107.8
1606,Grants Pass,OR,97526,42.4,-123.3
1607,Grantsboro,NC,28529,35.1,-76.8
1608,Grapevine,TX,76051,32.9,-97.1
1609,Great Bend,KS,67530,38.4,-98.8
1610,Great Falls,MT,59404,47.5,-111.3
1611,Great Falls,MT,59405,47.5,-111.2
1612,Greece,NY,14616,43.2,-77.6
1613,Greece,NY,14626,43.2,-77.7
1614,Greeley,CO,80631,40.4,-104.7
1615,Greeley,CO,80634,40.4,-104.8
1616,Green Bay,WI,54303,44.5,-88.1
1617,Green Bay,WI,54311,44.5,-88.0
1618,Green Valley,AZ,85614,31.9,-111.0
1619,Greenacres,FL,33415,26.6,-80.1
1620,Greenacres,FL,33467,26.6,-80.1
1621,Greenbrier,AR,72058,35.2,-92.4
1622,Greencastle,IN,46135,39.6,-86.8
1623,Greendale,WI,53129,42.9,-88.0
1624,Greeneville,TN,37745,36.2,-82.8
1625,Greenfield,IN,46140,39.8,-85.8
1626,Greenfield,WI,53228,43.0,-88.0
1627,Greensboro,NC,27405,36.1,-79.8
1628,Greensboro,NC,27406,36.0,-79.8
1629,Greensboro,NC,27406,36.0,-79.8
1630,Greensboro,NC,27407,36.0,-79.8
1631,Greensboro,NC,27407,36.1,-79.9
1632,Greensboro,NC,27410,36.1,-79.9
1633,Greensboro,NC,27410,36.1,-79.9
1634,Greensburg,IN,47240,39.4,-85.5
1635,Greensburg,PA,15601,40.3,-79.6
1636,Greenville,AL,36037,31.8,-86.6
1637,Greenville,MI,48838,43.2,-85.3
1638,Greenville,MS,38701,33.4,-91.0
1639,Greenville,NC,27834,35.6,-77.4
1640,Greenville,NC,27834,35.6,-77.4
1641,Greenville,NC,27858,35.6,-77.4
1642,Greenville,NC,27858,35.6,-77.3
1643,Greenville,OH,45331,40.1,-84.6
1644,Greenville,PA,16125,41.4,-80.4
1645,Greenville,SC,29607,34.8,-82.3
1646,Greenville,SC,29611,34.8,-82.5
1647,Greenville,SC,29611,34.9,-82.5
1648,Greenville,SC,29615,34.9,-82.3
1649,Greenville,SC,29615,34.9,-82.4
1650,Greenville,SC,29617,34.9,-82.4
1651,Greenville,TX,75401,33.1,-96.1
1652,Greenville,TX,75402,33.1,-96.1
1653,Greenwood,AR,72936,35.2,-94.3
1654,Greenwood,IN,46143,39.6,-86.2
1655,Greenwood,IN,46143,39.6,-86.1
1656,Greenwood,MS,38930,33.5,-90.2
1657,Greenwood,SC,29646,34.2,-82.1
1658,Greenwood,SC,29649,34.2,-82.2
1659,Greer,SC,29650,34.9,-82.2
1660,Greer,SC,29651,34.9,-82.2
1661,Grenada,MS,38901,33.8,-89.8
1662,Gresham,OR,97030,45.5,-122.5
1663,Gresham,OR,97080,45.5,-122.4
1664,Gretna,LA,70053,29.9,-90.1
1665,Gretna,NE,68028,41.1,-96.2
1666,Griffin,GA,30223,33.3,-84.3
1667,Grimes,IA,50111,41.7,-93.8
1668,Grinnell,IA,50112,41.7,-92.7
1669,Groton,CT,6340,41.4,-72.1
1670,Grove,OK,74344,36.6,-94.8
1671,Grove City,OH,43123,39.9,-83.0
1672,Grove City,PA,16127,41.2,-80.1
1673,Grovetown,GA,30813,33.5,-82.2
1674,Grovetown,GA,30813,33.5,-82.2
1675,Grundy,VA,24614,37.3,-82.1
1676,Guayama,PR,784,18.0,-66.1
1677,Guilford,CT,6437,41.3,-72.7
1678,Gulf Breeze,FL,32561,30.4,-87.2
1679,Gulf Breeze,FL,32563,30.4,-87.1
1680,Gulf Shores,AL,36542,30.3,-87.7
1681,Gulfport,MS,39503,30.4,-89.1
1682,Gulfport,MS,39503,30.5,-89.1
1683,Gulfport,MS,39507,30.4,-89.0
1684,Gun Barrel City,TX,75156,32.3,-96.1
1685,Gunnison,CO,81230,38.6,-106.9
1686,Guntersville,AL,35976,34.3,-86.3
1687,Gurnee,IL,60031,42.4,-88.0
1688,Guthrie,OK,73044,35.9,-97.4
1689,Guymon,OK,73942,36.7,-101.5
1690,Hackettstown,NJ,7840,40.8,-74.8
1691,Hadley,MA,1035,42.4,-72.6
1692,Hagerstown,MD,21740,39.7,-77.7
1693,Haines City,FL,33844,28.1,-81.6
1694,Haleyville,AL,35565,34.2,-87.6
1695,Halifax,MA,2338,42.0,-70.8
1696,Hallandale Beach,FL,33009,26.0,-80.1
1697,Hallettsville,TX,77964,29.5,-96.9
1698,Hamburg,NY,14075,42.7,-78.9
1699,Hamburg,PA,19526,40.6,-76.0
1700,Hamden,CT,6514,41.4,-72.9
1701,Hamilton,AL,35570,34.1,-88.0
1702,Hamilton,NJ,8619,40.2,-74.7
1703,Hamilton,NJ,8691,40.2,-74.6
1704,Hamilton,OH,45011,39.4,-84.5
1705,Hamilton,OH,45013,39.4,-84.6
1706,Hammond,IN,46320,41.7,-87.5
1707,Hammond,IN,46324,41.6,-87.5
1708,Hammond,LA,70401,30.5,-90.5
1709,Hammonton,NJ,8037,39.6,-74.8
1710,Hampstead,MD,21074,39.6,-76.9
1711,Hampstead,NC,28443,34.4,-77.6
1712,Hampton,VA,23666,37.0,-76.4
1713,Hampton,VA,23666,37.0,-76.4
1714,Hanford,CA,93230,36.3,-119.7
1715,Hannibal,MO,63401,39.7,-91.4
1716,Hanover,MA,2339,42.1,-70.8
1717,Hanover,MD,21076,39.2,-76.7
1718,Hanover,PA,17331,39.8,-77.0
1719,Hanover,PA,17331,39.8,-77.0
1720,Hanson,KY,42413,37.3,-87.5
1721,Happy Valley,OR,97086,45.5,-122.6
1722,Harahan,LA,70123,29.9,-90.2
1723,Harborcreek,PA,16421,42.2,-80.0
1724,Hardeeville,SC,29927,32.3,-81.0
1725,Hardinsburg,KY,40143,37.8,-86.4
1726,Harker Heights,TX,76548,31.1,-97.7
1727,Harker Heights,TX,76548,31.1,-97.7
1728,Harlan,KY,40831,36.8,-83.3
1729,Harleysville,PA,19438,40.3,-75.4
1730,Harlingen,TX,78552,26.2,-97.7
1731,Harrisburg,IL,62946,37.7,-88.5
1732,Harrisburg,PA,17111,40.3,-76.8
1733,Harrison,AR,72601,36.3,-93.1
1734,Harrisonburg,VA,22801,38.4,-78.9
1735,Harrisonburg,VA,22801,38.4,-78.9
1736,Harrisonville,MO,64701,38.7,-94.4
1737,Harrisville,UT,84404,41.3,-112.0
1738,Harrodsburg,KY,40330,37.7,-84.8
1739,Hartford,CT,6106,41.7,-72.7
1740,Hartford,WI,53027,43.3,-88.4
1741,Hartselle,AL,35640,34.5,-86.9
1742,Hartsville,SC,29550,34.4,-80.1
1743,Hartwell,GA,30643,34.3,-82.9
1744,Harvard,IL,60033,42.4,-88.6
1745,Harvey,LA,70058,29.9,-90.0
1746,Harvey,LA,70058,29.9,-90.1
1747,Hastings,MI,49058,42.6,-85.3
1748,Hastings,MN,55033,44.7,-92.9
1749,Hastings,NE,68901,40.6,-98.4
1750,Hatfield,PA,19440,40.3,-75.3
1751,Hatillo,PR,659,18.5,-66.8
1752,Hattiesburg,MS,39402,31.3,-89.3
1753,Hattiesburg,MS,39402,31.3,-89.4
1754,Havelock,NC,28532,34.9,-76.9
1755,Havre,MT,59501,48.6,-109.7
1756,Hawthorne,CA,90250,33.9,-118.4
1757,Hayden,ID,83835,47.7,-116.8
1758,Haymarket,VA,20169,38.8,-77.6
1759,Hays,KS,67601,38.9,-99.3
1760,Hayward,WI,54843,46.0,-91.5
1761,Hazard,KY,41701,37.3,-83.2
1762,Hazel Green,AL,35750,34.9,-86.6
1763,Hazle Township,PA,18202,41.0,-76.0
1764,Hazlehurst,GA,31539,31.9,-82.6
1765,Hazlehurst,MS,39083,31.9,-90.4
1766,Heath,OH,43056,40.0,-82.5
1767,Heber City,UT,84032,40.5,-111.4
1768,Heber Spgs,AR,72543,35.5,-92.0
1769,Helena,AL,35080,33.3,-86.9
1770,Helena,MT,59601,46.6,-112.0
1771,Helotes,TX,78023,29.6,-98.7
1772,Hemet,CA,92543,33.7,-117.0
1773,Hemet,CA,92545,33.7,-117.0
1774,Hempstead,TX,77445,30.1,-96.1
1775,Henderson,KY,42420,37.9,-87.6
1776,Henderson,NC,27536,36.3,-78.4
1777,Henderson,NV,89014,36.1,-115.0
1778,Henderson,NV,89015,36.0,-115.0
1779,Henderson,NV,89074,36.0,-115.0
1780,Henderson,TX,75654,32.1,-94.8
1781,Hendersonville,NC,28792,35.3,-82.4
1782,Hendersonville,TN,37075,36.3,-86.6
1783,Henrico,VA,23223,37.5,-77.4
1784,Henryetta,OK,74437,35.4,-96.0
1785,Hephzibah,GA,30815,33.4,-82.1
1786,Hereford,TX,79045,34.8,-102.4
1787,Herkimer,NY,13350,43.0,-75.0
1788,Hermantown,MN,55811,46.8,-92.2
1789,Hermiston,OR,97838,45.9,-119.3
1790,Hermitage,PA,16148,41.2,-80.5
1791,Hermitage,TN,37076,36.2,-86.6
1792,Hernando,MS,38632,34.8,-90.0
1793,Herriman,UT,84096,40.5,-112.0
1794,Herrin,IL,62948,37.8,-89.0
1795,Hesperia,CA,92345,34.4,-117.4
1796,Hewitt,TX,76643,31.5,-97.2
1797,Hialeah,FL,33012,25.9,-80.3
1798,Hialeah,FL,33015,25.9,-80.3
1799,Hialeah,FL,33016,25.9,-80.3
1800,Hialeah Gardens,FL,33018,25.9,-80.4
1801,Hiawatha,KS,66434,39.8,-95.6
1802,Hibbing,MN,55746,47.4,-93.0
1803,Hickory,NC,28601,35.8,-81.3
1804,Hickory,NC,28602,35.7,-81.3
1805,Hickory,NC,28602,35.7,-81.3
1806,Hickory Creek,TX,75065,33.1,-97.0
1807,Hidalgo,TX,78557,26.1,-98.2
1808,Higginsville,MO,64037,39.1,-93.7
1809,High Point,NC,27263,35.9,-80.0
1810,High Point,NC,27265,36.0,-80.0
1811,High Point,NC,27265,36.0,-80.0
1812,High Ridge,MO,63049,38.5,-90.5
1813,Highland,CA,92346,34.1,-117.2
1814,Highland,IL,62249,38.8,-89.7
1815,Highland Village,TX,75077,33.1,-97.1
1816,Highlands Ranch,CO,80130,39.6,-104.9
1817,Hillsboro,OH,45133,39.2,-83.6
1818,Hillsboro,OR,97006,45.5,-122.9
1819,Hillsboro,TX,76645,32.0,-97.1
1820,Hillsborough,NC,27278,36.1,-79.1
1821,Hilo,HI,96720,19.7,-155.1
1822,Hilton Head Island,SC,29926,32.2,-80.7
1823,Hinesville,GA,31313,31.8,-81.6
1824,Hinesville,GA,31313,31.8,-81.6
1825,Hinesville,GA,31313,31.9,-81.6
1826,Hinsdale,NH,3451,42.8,-72.5
1827,Hiram,GA,30141,33.9,-84.8
1828,Hixson,TN,37343,35.2,-85.2
1829,Hixson,TN,37343,35.2,-85.2
1830,Hobart,OK,73651,35.0,-99.1
1831,Hobbs,NM,88240,32.7,-103.2
1832,Hodgkins,IL,60525,41.8,-87.9
1833,Hohenwald,TN,38462,35.6,-87.5
1834,Holdenville,OK,74848,35.1,-96.4
1835,Holland,MI,49424,42.8,-86.1
1836,Holland,OH,43528,41.6,-83.7
1837,Holly Springs,GA,30115,34.2,-84.5
1838,Holly Springs,MS,38635,34.7,-89.5
1839,Holly Springs,NC,27540,35.6,-78.8
1840,Hollywood,FL,33023,26.0,-80.2
1841,Holton,KS,66436,39.5,-95.8
1842,Homestead,FL,33033,25.5,-80.5
1843,Homestead,FL,33033,25.5,-80.4
1844,Homewood,AL,35209,33.4,-86.8
1845,Homewood,IL,60430,41.5,-87.6
1846,Homosassa,FL,34446,28.8,-82.5
1847,Hondo,TX,78861,29.3,-99.1
1848,Honesdale,PA,18431,41.6,-75.2
1849,Honolulu,HI,96813,21.3,-157.9
1850,Honolulu,HI,96814,21.3,-157.8
1851,Hood River,OR,97031,45.7,-121.5
1852,Hooksett,NH,3106,43.0,-71.5
1853,Hoover,AL,35216,33.4,-86.8
1854,Hoover,AL,35244,33.4,-86.8
1855,Hope,AR,71801,33.7,-93.6
1856,Hope Mills,NC,28348,35.0,-79.0
1857,Hope Mills,NC,28348,35.0,-78.9
1858,Hopkinsville,KY,42240,36.8,-87.5
1859,Hopkinsville,KY,42240,36.9,-87.5
1860,Horizon City,TX,79928,31.7,-106.2
1861,Horn Lake,MS,38637,35.0,-90.0
1862,Horn Lake,MS,38637,35.0,-90.1
1863,Hornell,NY,14843,42.3,-77.7
1864,Horseheads,NY,14845,42.2,-76.9
1865,Hot Springs,AR,71901,34.5,-93.0
1866,Hot Springs,AR,71913,34.5,-93.1
1867,Hot Springs,AR,71913,34.5,-93.1
1868,Hot Springs,AR,71913,34.5,-93.1
1869,Hot Springs Village,AR,71909,34.6,-93.1
1870,Houghton,MI,49931,47.1,-88.6
1871,Houghton Lake,MI,48629,44.3,-84.7
1872,Houlton,ME,4730,46.1,-67.8
1873,Houma,LA,70360,29.6,-90.8
1874,Houma,LA,70363,29.6,-90.7
1875,Houma,LA,70364,29.6,-90.7
1876,Houston,MO,65483,37.3,-92.0
1877,Houston,MS,38851,33.9,-89.0
1878,Houston,TX,77007,29.8,-95.4
1879,Houston,TX,77015,29.8,-95.2
1880,Houston,TX,77015,29.8,-95.2
1881,Houston,TX,77022,29.8,-95.4
1882,Houston,TX,77023,29.7,-95.3
1883,Houston,TX,77037,29.9,-95.4
1884,Houston,TX,77040,29.9,-95.5
1885,Houston,TX,77043,29.8,-95.6
1886,Houston,TX,77055,29.8,-95.5
1887,Houston,TX,77063,29.7,-95.5
1888,Houston,TX,77065,29.9,-95.6
1889,Houston,TX,77068,30.0,-95.5
1890,Houston,TX,77071,29.7,-95.5
1891,Houston,TX,77072,29.7,-95.6
1892,Houston,TX,77075,29.6,-95.2
1893,Houston,TX,77077,29.7,-95.6
1894,Houston,TX,77081,29.7,-95.5
1895,Houston,TX,77082,29.7,-95.6
1896,Houston,TX,77084,29.8,-95.6
1897,Houston,TX,77086,29.9,-95.5
1898,Houston,TX,77095,29.9,-95.7
1899,Houston,TX,77096,29.7,-95.5
1900,Houston,TX,77096,29.7,-95.5
1901,Houston,TX,77099,29.7,-95.6
1902,Howell,MI,48843,42.6,-83.9
1903,Howell,NJ,7731,40.1,-74.2
1904,Huber Heights,OH,45424,39.9,-84.1
1905,Hudson,FL,34667,28.3,-82.7
1906,Hudson,MA,1749,42.4,-71.6
1907,Hudson,NC,28638,35.9,-81.5
1908,Hudson,NH,3051,42.7,-71.4
1909,Hudson,NY,12534,42.3,-73.8
1910,Hudson,WI,54016,45.0,-92.7
1911,Hudson Oaks,TX,76087,32.8,-97.7
1912,Hueytown,AL,35023,33.5,-87.0
1913,Hugo,OK,74743,34.0,-95.5
1914,Humacao,PR,791,18.1,-65.8
1915,Humble,TX,77338,30.0,-95.3
1916,Humble,TX,77346,30.0,-95.2
1917,Humble,TX,77346,30.0,-95.2
1918,Humble,TX,77396,29.9,-95.3
1919,Humboldt,TN,38343,35.8,-88.9
1920,Huntersville,NC,28078,35.4,-80.8
1921,Huntingdon,PA,16652,40.5,-78.0
1922,Huntingdon,TN,38344,36.0,-88.4
1923,Huntington,IN,46750,40.9,-85.5
1924,Huntington,WV,25705,38.4,-82.4
1925,Huntington Beach,CA,92646,33.7,-118.0
1926,Huntington Beach,CA,92648,33.7,-118.0
1927,Huntley,IL,60142,42.2,-88.4
1928,Huntsville,AL,35801,34.7,-86.6
1929,Huntsville,AL,35802,34.6,-86.5
1930,Huntsville,AL,35803,34.6,-86.6
1931,Huntsville,AL,35805,34.7,-86.6
1932,Huntsville,AL,35806,34.7,-86.7
1933,Huntsville,AL,35810,34.8,-86.6
1934,Huntsville,AL,35810,34.8,-86.6
1935,Huntsville,AL,35811,34.8,-86.5
1936,Huntsville,AR,72740,36.1,-93.7
1937,Huntsville,TX,77340,30.7,-95.6
1938,Huron,SD,57350,44.3,-98.2
1939,Hurricane,UT,84737,37.2,-113.4
1940,Hurricane,WV,25526,38.4,-82.0
1941,Hurst,TX,76053,32.8,-97.2
1942,Hurst,TX,76054,32.8,-97.2
1943,Hutchinson,KS,67501,38.1,-97.9
1944,Hutchinson,MN,55350,44.9,-94.4
1945,Idabel,OK,74745,33.9,-94.8
1946,Idaho Falls,ID,83402,43.5,-112.1
1947,Independence,IA,50644,42.5,-91.9
1948,Independence,KS,67301,37.2,-95.7
1949,Independence,MO,64055,39.0,-94.4
1950,Independence,MO,64055,39.1,-94.4
1951,Indian Land,SC,29707,35.0,-80.8
1952,Indian Trail,NC,28079,35.1,-80.6
1953,Indiana,PA,15701,40.6,-79.2
1954,Indianapolis,IN,46203,39.7,-86.1
1955,Indianapolis,IN,46221,39.7,-86.3
1956,Indianapolis,IN,46224,39.8,-86.3
1957,Indianapolis,IN,46226,39.8,-86.0
1958,Indianapolis,IN,46226,39.9,-86.1
1959,Indianapolis,IN,46227,39.7,-86.1
1960,Indianapolis,IN,46227,39.7,-86.1
1961,Indianapolis,IN,46228,39.9,-86.2
1962,Indianapolis,IN,46229,39.8,-86.0
1963,Indianapolis,IN,46236,39.9,-86.0
1964,Indianapolis,IN,46240,39.9,-86.1
1965,Indianapolis,IN,46254,39.8,-86.2
1966,Indianapolis,IN,46268,39.9,-86.2
1967,Indianola,IA,50125,41.4,-93.6
1968,Indianola,MS,38751,33.5,-90.7
1969,Indio,CA,92203,33.7,-116.2
1970,Inver Grove Heights,MN,55076,44.8,-93.0
1971,Inverness,FL,34453,28.9,-82.4
1972,Iola,KS,66749,37.9,-95.4
1973,Ionia,MI,48846,42.9,-85.1
1974,Iowa City,IA,52246,41.6,-91.6
1975,Iowa Falls,IA,50126,42.5,-93.3
1976,Irmo,SC,29063,34.1,-81.2
1977,Iron Mountain,MI,49801,45.8,-88.0
1978,Ironwood,MI,49938,46.5,-90.1
1979,Irvine,CA,92606,33.7,-117.8
1980,Irvine,CA,92618,33.7,-117.7
1981,Irving,TX,75062,32.8,-97.0
1982,Irving,TX,75063,32.9,-97.0
1983,Isabela,PR,662,18.5,-67.0
1984,Island City,OR,97850,45.3,-118.1
1985,Islandia,NY,11749,40.8,-73.2
1986,Ithaca,NY,14850,42.4,-76.5
1987,Iuka,MS,38852,34.8,-88.2
1988,Jacksboro,TN,37757,36.3,-84.2
1989,Jackson,AL,36545,31.6,-87.9
1990,Jackson,CA,95642,38.4,-120.8
1991,Jackson,KY,41339,37.6,-83.4
1992,Jackson,MI,49202,42.2,-84.4
1993,Jackson,MO,63755,37.4,-89.6
1994,Jackson,MS,39204,32.3,-90.3
1995,Jackson,OH,45640,39.0,-82.6
1996,Jackson,TN,38301,35.6,-88.8
1997,Jackson,TN,38305,35.7,-88.9
1998,Jacksonville,AL,36265,33.8,-85.8
1999,Jacksonville,AR,72076,34.9,-92.1
2000,Jacksonville,FL,32205,30.3,-81.8
2001,Jacksonville,FL,32207,30.3,-81.6
2002,Jacksonville,FL,32210,30.3,-81.8
2003,Jacksonville,FL,32210,30.3,-81.8
2004,Jacksonville,FL,32216,30.3,-81.6
2005,Jacksonville,FL,32218,30.5,-81.7
2006,Jacksonville,FL,32218,30.5,-81.6
2007,Jacksonville,FL,32223,30.2,-81.6
2008,Jacksonville,FL,32224,30.3,-81.5
2009,Jacksonville,FL,32224,30.3,-81.5
2010,Jacksonville,FL,32225,30.3,-81.5
2011,Jacksonville,FL,32225,30.3,-81.5
2012,Jacksonville,FL,32244,30.2,-81.8
2013,Jacksonville,FL,32257,30.2,-81.6
2014,Jacksonville,FL,32258,30.2,-81.6
2015,Jacksonville,FL,32277,30.4,-81.6
2016,Jacksonville,IL,62650,39.7,-90.3
2017,Jacksonville,NC,28540,34.8,-77.5
2018,Jacksonville,NC,28546,34.8,-77.4
2019,Jacksonville,NC,28546,34.8,-77.4
2020,Jacksonville,TX,75766,32.0,-95.3
2021,Jamestown,ND,58401,46.9,-98.7
2022,Jamestown,TN,38556,36.4,-84.9
2023,Janesville,WI,53546,42.7,-89.0
2024,Jasper,AL,35501,33.8,-87.3
2025,Jasper,GA,30143,34.5,-84.5
2026,Jasper,IN,47546,38.4,-86.9
2027,Jasper,TX,75951,30.9,-94.0
2028,Jay,OK,74346,36.4,-94.8
2029,Jefferson,WI,53549,43.0,-88.8
2030,Jefferson City,MO,65101,38.5,-92.1
2031,Jefferson City,MO,65109,38.6,-92.2
2032,Jefferson City,TN,37760,36.1,-83.5
2033,Jeffersontown,KY,40299,38.2,-85.6
2034,Jena,LA,71342,31.7,-92.1
2035,Jenks,OK,74037,36.0,-96.0
2036,Jennings,LA,70546,30.2,-92.7
2037,Jerome,ID,83338,42.7,-114.5
2038,Jerseyville,IL,62052,39.1,-90.3
2039,Jesup,GA,31545,31.6,-81.9
2040,Johnsburg,IL,60050,42.4,-88.3
2041,Johnson City,NY,13790,42.1,-75.9
2042,Johnson City,TN,37604,36.3,-82.4
2043,Johnson City,TN,37604,36.4,-82.4
2044,Johnstown,PA,15904,40.3,-78.8
2045,Joliet,IL,60435,41.5,-88.1
2046,Jonesboro,AR,72401,35.8,-90.7
2047,Jonesboro,AR,72401,35.8,-90.7
2048,Jonesboro,AR,72404,35.8,-90.7
2049,Jonesboro,AR,72404,35.8,-90.7
2050,Jonesboro,LA,71251,32.2,-92.7
2051,Jonesville,MI,49250,42.0,-84.7
2052,Jonesville,VA,24263,36.7,-83.1
2053,Joplin,MO,64801,37.1,-94.5
2054,Joplin,MO,64801,37.1,-94.5
2055,Joplin,MO,64801,37.1,-94.5
2056,Joplin,MO,64804,37.1,-94.5
2057,Joplin,MO,64804,37.1,-94.5
2058,Junction City,KS,66441,39.0,-96.9
2059,Junction City,KS,66441,39.0,-96.8
2060,Jupiter,FL,33458,26.9,-80.1
2061,Jurupa Valley,CA,92509,34.0,-117.5
2062,Kahului,HI,96732,20.9,-156.5
2063,Kailua Kona,HI,96740,19.6,-156.0
2064,Kalamazoo,MI,49009,42.3,-85.7
2065,Kalamazoo,MI,49048,42.3,-85.5
2066,Kalispell,MT,59901,48.2,-114.3
2067,Kankakee,IL,60901,41.1,-87.9
2068,Kannapolis,NC,28083,35.5,-80.6
2069,Kansas City,KS,66106,39.1,-94.7
2070,Kansas City,KS,66109,39.1,-94.8
2071,Kansas City,MO,64119,39.2,-94.5
2072,Kansas City,MO,64133,39.0,-94.4
2073,Kansas City,MO,64145,38.9,-94.6
2074,Kansas City,MO,64154,39.3,-94.7
2075,Kansas City,MO,64158,39.2,-94.5
2076,Kapolei,HI,96707,21.3,-158.1
2077,Katy,TX,77449,29.8,-95.7
2078,Katy,TX,77449,29.8,-95.8
2079,Katy,TX,77449,29.9,-95.7
2080,Katy,TX,77450,29.8,-95.7
2081,Katy,TX,77494,29.7,-95.8
2082,Katy,TX,77494,29.8,-95.8
2083,Kaufman,TX,75142,32.6,-96.3
2084,Kearney,NE,68847,40.7,-99.1
2085,Kearny,NJ,7032,40.7,-74.1
2086,Keene,NH,3431,42.9,-72.3
2087,Keller,TX,76248,32.9,-97.2
2088,Kemah,TX,77565,29.5,-95.0
2089,Kenai,AK,99611,60.6,-151.2
2090,Kendallville,IN,46755,41.4,-85.2
2091,Kenedy,TX,78119,28.8,-97.9
2092,Kenner,LA,70065,30.0,-90.2
2093,Kenner,LA,70065,30.0,-90.3
2094,Kennesaw,GA,30152,34.0,-84.7
2095,Kennett,MO,63857,36.2,-90.0
2096,Kennett Square,PA,19348,39.9,-75.7
2097,Kennewick,WA,99337,46.2,-119.2
2098,Kenosha,WI,53144,42.6,-87.9
2099,Kent,OH,44240,41.1,-81.4
2100,Kenton,OH,43326,40.7,-83.6
2101,Keokuk,IA,52632,40.4,-91.4
2102,Kerman,CA,93630,36.7,-120.0
2103,Kernersville,NC,27284,36.1,-80.1
2104,Kernersville,NC,27284,36.1,-80.1
2105,Kerrville,TX,78028,30.1,-99.2
2106,Ketchikan,AK,99901,55.4,-131.7
2107,Kewanee,IL,61443,41.2,-89.9
2108,Keyser,WV,26726,39.4,-79.0
2109,Kilgore,TX,75662,32.4,-94.9
2110,Killeen,TX,76542,31.1,-97.7
2111,Killeen,TX,76542,31.1,-97.7
2112,Killeen,TX,76549,31.1,-97.8
2113,Killeen,TX,76549,31.1,-97.8
2114,Kilmarnock,VA,22482,37.7,-76.4
2115,Kimball,TN,37347,35.0,-85.7
2116,King,NC,27021,36.3,-80.4
2117,King George,VA,22485,38.4,-77.1
2118,King Of Prussia,PA,19406,40.1,-75.4
2119,Kingfisher,OK,73750,35.8,-97.9
2120,Kingman,AZ,86409,35.2,-114.0
2121,Kings Mountain,NC,28086,35.2,-81.4
2122,Kingsport,TN,37660,36.6,-82.6
2123,Kingsport,TN,37660,36.6,-82.6
2124,Kingsport,TN,37664,36.5,-82.5
2125,Kingston,NY,12401,42.0,-74.0
2126,Kingsville,TX,78363,27.5,-97.9
2127,Kingwood,TX,77339,30.1,-95.2
2128,Kingwood,WV,26537,39.5,-79.7
2129,Kinston,NC,28504,35.3,-77.6
2130,Kirksville,MO,63501,40.2,-92.6
2131,Kirkwood,MO,63122,38.6,-90.4
2132,Kissimmee,FL,34741,28.3,-81.4
2133,Kissimmee,FL,34743,28.3,-81.3
2134,Kissimmee,FL,34744,28.3,-81.4
2135,Kissimmee,FL,34746,28.3,-81.5
2136,Kissimmee,FL,34746,28.3,-81.5
2137,Kissimmee,FL,34747,28.3,-81.6
2138,Kissimmee,FL,34759,28.1,-81.4
2139,Kittanning,PA,16201,40.8,-79.5
2140,Kitty Hawk,NC,27949,36.1,-75.7
2141,Klamath Falls,OR,97603,42.2,-121.8
2142,Knightdale,NC,27545,35.8,-78.5
2143,Knoxville,IA,50138,41.3,-93.1
2144,Knoxville,TN,37912,36.0,-84.0
2145,Knoxville,TN,37919,36.0,-83.9
2146,Knoxville,TN,37920,35.9,-83.8
2147,Knoxville,TN,37921,36.0,-84.0
2148,Knoxville,TN,37923,35.9,-84.1
2149,Knoxville,TN,37924,36.0,-83.9
2150,Knoxville,TN,37934,35.9,-84.1
2151,Knoxville,TN,37938,36.1,-83.9
2152,Kodiak,AK,99615,57.8,-152.4
2153,Kokomo,IN,46901,40.5,-86.1
2154,Kosciusko,MS,39090,33.1,-89.6
2155,Kyle,TX,78640,30.0,-97.9
2156,La Crosse,WI,54601,43.8,-91.2
2157,La Fayette,GA,30728,34.7,-85.3
2158,La Grange,KY,40031,38.4,-85.4
2159,La Grange,TX,78945,29.9,-96.9
2160,La Habra,CA,90631,33.9,-118.0
2161,La Habra,CA,90631,33.9,-117.9
2162,La Junta,CO,81050,38.0,-103.6
2163,La Marque,TX,77568,29.4,-95.0
2164,La Mesa,CA,91942,32.8,-117.0
2165,La Mesa,CA,91942,32.8,-117.0
2166,La Mirada,CA,90638,33.9,-118.0
2167,La Palma,CA,90623,33.8,-118.0
2168,La Place,LA,70068,30.1,-90.5
2169,La Plata,MD,20646,38.6,-77.0
2170,La Porte,IN,46350,41.6,-86.7
2171,La Porte,TX,77571,29.7,-95.1
2172,La Puente,CA,91744,34.0,-117.9
2173,La Quinta,CA,92253,33.7,-116.3
2174,La Vergne,TN,37086,36.0,-86.5
2175,La Vista,NE,68128,41.2,-96.1
2176,Labelle,FL,33935,26.7,-81.5
2177,Lacey,WA,98503,47.0,-122.8
2178,Lacey,WA,98516,47.1,-122.8
2179,Ladson,SC,29456,33.0,-80.1
2180,Ladysmith,WI,54848,45.5,-91.1
2181,Lafayette,CO,80026,40.0,-105.1
2182,Lafayette,IN,47905,40.4,-86.8
2183,Lafayette,IN,47909,40.4,-86.9
2184,Lafayette,LA,70501,30.2,-92.0
2185,Lafayette,LA,70506,30.2,-92.1
2186,Lafayette,LA,70508,30.2,-92.0
2187,Lafayette,TN,37083,36.5,-86.0
2188,Lagrange,GA,30240,33.1,-85.0
2189,Lagrange,GA,30241,33.0,-85.0
2190,Laguna Niguel,CA,92677,33.6,-117.7
2191,Lake Charles,LA,70601,30.2,-93.2
2192,Lake Charles,LA,70601,30.3,-93.2
2193,Lake Charles,LA,70605,30.2,-93.2
2194,Lake Charles,LA,70607,30.2,-93.2
2195,Lake Charles,LA,70611,30.3,-93.2
2196,Lake City,FL,32055,30.2,-82.7
2197,Lake City,SC,29560,33.9,-79.8
2198,Lake Elsinore,CA,92532,33.7,-117.3
2199,Lake Geneva,WI,53147,42.6,-88.4
2200,Lake Havasu City,AZ,86404,34.6,-114.4
2201,Lake Jackson,TX,77566,29.0,-95.5
2202,Lake Mary,FL,32746,28.8,-81.3
2203,Lake Park,FL,33403,26.8,-80.1
2204,Lake Saint Louis,MO,63367,38.8,-90.8
2205,Lake Wales,FL,33898,27.9,-81.6
2206,Lake Worth,FL,33449,26.6,-80.2
2207,Lake Worth,FL,33463,26.6,-80.1
2208,Lake Worth,FL,33467,26.6,-80.1
2209,Lake Worth,TX,76135,32.8,-97.4
2210,Lake Wylie,SC,29710,35.1,-81.1
2211,Lake Zurich,IL,60047,42.2,-88.1
2212,Lakeland,FL,33803,28.0,-82.0
2213,Lakeland,FL,33809,28.1,-82.0
2214,Lakeside,CO,80212,39.8,-105.1
2215,Lakeville,MN,55044,44.7,-93.3
2216,Lakewood,CA,90712,33.8,-118.2
2217,Lakewood,CO,80214,39.7,-105.1
2218,Lakewood,CO,80226,39.7,-105.1
2219,Lakewood,NY,14750,42.1,-79.3
2220,Lakewood,WA,98499,47.2,-122.5
2221,Lamar,CO,81052,38.1,-102.6
2222,Lamar,MO,64759,37.5,-94.3
2223,Lampasas,TX,76550,31.1,-98.2
2224,Lancaster,CA,93535,34.7,-118.1
2225,Lancaster,CA,93536,34.7,-118.2
2226,Lancaster,NY,14043,42.9,-78.7
2227,Lancaster,OH,43130,39.7,-82.6
2228,Lancaster,PA,17601,40.1,-76.3
2229,Lancaster,PA,17602,40.0,-76.2
2230,Lancaster,SC,29720,34.7,-80.8
2231,Lancaster,TX,75146,32.6,-96.8
2232,Lancaster,TX,75146,32.6,-96.8
2233,Landover Hills,MD,20784,38.9,-76.9
2234,Lanoka Harbor,NJ,8734,39.9,-74.2
2235,Lansing,IL,60438,41.6,-87.6
2236,Lansing,MI,48912,42.8,-84.5
2237,Lansing,MI,48917,42.7,-84.7
2238,Lapeer,MI,48446,43.1,-83.3
2239,Laramie,WY,82070,41.3,-105.5
2240,Laredo,TX,78041,27.6,-99.5
2241,Laredo,TX,78043,27.5,-99.5
2242,Laredo,TX,78045,27.6,-99.5
2243,Laredo,TX,78046,27.5,-99.5
2244,Largo,FL,33760,27.9,-82.7
2245,Largo,FL,33770,27.9,-82.8
2246,Largo,FL,33771,27.9,-82.8
2247,Largo,FL,33774,27.9,-82.8
2248,Las Cruces,NM,88001,32.3,-106.7
2249,Las Cruces,NM,88001,32.3,-106.7
2250,Las Cruces,NM,88005,32.3,-106.8
2251,Las Cruces,NM,88011,32.4,-106.7
2252,Las Vegas,NM,87701,35.6,-105.2
2253,Las Vegas,NV,89102,36.2,-115.2
2254,Las Vegas,NV,89103,36.1,-115.2
2255,Las Vegas,NV,89104,36.2,-115.1
2256,Las Vegas,NV,89108,36.2,-115.2
2257,Las Vegas,NV,89108,36.2,-115.2
2258,Las Vegas,NV,89110,36.2,-115.1
2259,Las Vegas,NV,89113,36.1,-115.2
2260,Las Vegas,NV,89119,36.1,-115.1
2261,Las Vegas,NV,89121,36.1,-115.1
2262,Las Vegas,NV,89122,36.1,-115.1
2263,Las Vegas,NV,89123,36.0,-115.1
2264,Las Vegas,NV,89123,36.1,-115.1
2265,Las Vegas,NV,89129,36.2,-115.3
2266,Las Vegas,NV,89130,36.2,-115.2
2267,Las Vegas,NV,89131,36.3,-115.2
2268,Las Vegas,NV,89146,36.2,-115.2
2269,Las Vegas,NV,89148,36.1,-115.3
2270,Las Vegas,NV,89149,36.3,-115.3
2271,Las Vegas,NV,89156,36.2,-115.0
2272,Las Vegas,NV,89178,36.0,-115.2
2273,Las Vegas,NV,89183,36.0,-115.2
2274,Latham,NY,12110,42.7,-73.8
2275,Latrobe,PA,15650,40.3,-79.4
2276,Lauderdale Lakes,FL,33313,26.2,-80.2
2277,Laurel,MD,20724,39.1,-76.8
2278,Laurel,MS,39440,31.7,-89.1
2279,Laurel,MT,59044,45.7,-108.8
2280,Laurens,SC,29360,34.5,-82.0
2281,Laurinburg,NC,28352,34.8,-79.5
2282,Lavale,MD,21502,39.6,-78.8
2283,Lawrence,KS,66046,38.9,-95.3
2284,Lawrence,KS,66049,39.0,-95.3
2285,Lawrenceburg,KY,40342,38.0,-84.9
2286,Lawrenceburg,TN,38464,35.3,-87.3
2287,Lawrenceville,GA,30044,33.9,-84.1
2288,Lawrenceville,GA,30044,33.9,-84.0
2289,Lawrenceville,GA,30046,34.0,-84.0
2290,Lawrenceville,IL,62439,38.7,-87.7
2291,Lawton,OK,73505,34.6,-98.4
2292,Lawton,OK,73505,34.6,-98.4
2293,Lawton,OK,73505,34.6,-98.5
2294,Layton,UT,84040,41.1,-111.9
2295,Layton,UT,84041,41.1,-112.0
2296,Le Mars,IA,51031,42.8,-96.2
2297,League City,TX,77573,29.5,-95.1
2298,League City,TX,77573,29.5,-95.1
2299,Leavenworth,KS,66048,39.3,-94.9
2300,Lebanon,IN,46052,40.1,-86.5
2301,Lebanon,KY,40033,37.6,-85.3
2302,Lebanon,MO,65536,37.7,-92.6
2303,Lebanon,OH,45036,39.5,-84.2
2304,Lebanon,OR,97355,44.5,-122.9
2305,Lebanon,PA,17046,40.3,-76.4
2306,Lebanon,TN,37087,36.2,-86.3
2307,Lebanon,VA,24266,36.9,-82.0
2308,Lecanto,FL,34461,28.9,-82.5
2309,Ledgewood,NJ,7852,40.9,-74.7
2310,Leeds,AL,35094,33.6,-86.5
2311,Lees Summit,MO,64082,38.9,-94.4
2312,Lees Summit,MO,64086,38.9,-94.4
2313,Leesburg,FL,34748,28.8,-81.9
2314,Leesburg,VA,20176,39.1,-77.5
2315,Leesville,LA,71446,31.1,-93.3
2316,Leesville,SC,29070,33.9,-81.5
2317,Lehigh Acres,FL,33971,26.6,-81.7
2318,Lehighton,PA,18235,40.8,-75.7
2319,Leicester,MA,1524,42.3,-71.9
2320,Leitchfield,KY,42754,37.5,-86.3
2321,Leland,NC,28451,34.2,-78.0
2322,Lenoir,NC,28645,35.9,-81.5
2323,Lenoir City,TN,37771,35.8,-84.3
2324,Leominster,MA,1453,42.5,-71.7
2325,Levelland,TX,79336,33.6,-102.4
2326,Levittown,NY,11756,40.7,-73.5
2327,Levittown,PA,19055,40.1,-74.8
2328,Lewis Center,OH,43035,40.2,-83.0
2329,Lewisburg,PA,17837,41.0,-76.9
2330,Lewisburg,TN,37091,35.5,-86.8
2331,Lewisburg,WV,24901,37.8,-80.4
2332,Lewistown,PA,17044,40.6,-77.6
2333,Lewisville,TX,75067,33.0,-97.0
2334,Lewisville,TX,75067,33.0,-97.0
2335,Lewisville,TX,75077,33.1,-97.0
2336,Lexington,KY,40503,38.0,-84.5
2337,Lexington,KY,40509,38.0,-84.4
2338,Lexington,KY,40511,38.1,-84.5
2339,Lexington,KY,40513,38.0,-84.6
2340,Lexington,KY,40515,38.0,-84.5
2341,Lexington,NC,27292,35.8,-80.3
2342,Lexington,NC,27295,35.8,-80.3
2343,Lexington,NE,68850,40.7,-99.7
2344,Lexington,SC,29072,34.0,-81.2
2345,Lexington,SC,29073,33.9,-81.2
2346,Lexington,TN,38351,35.7,-88.4
2347,Lexington,VA,24450,37.8,-79.4
2348,Liberal,KS,67901,37.0,-100.9
2349,Liberal,KS,67901,37.1,-100.9
2350,Liberty,TX,77575,30.1,-94.8
2351,Lihue,HI,96766,22.0,-159.4
2352,Lilburn,GA,30047,33.9,-84.1
2353,Lima,OH,45804,40.7,-84.1
2354,Lima,OH,45805,40.8,-84.2
2355,Lincoln,CA,95648,38.9,-121.3
2356,Lincoln,IL,62656,40.2,-89.4
2357,Lincoln,ME,4457,45.4,-68.5
2358,Lincoln,NE,68507,40.8,-96.6
2359,Lincoln,NE,68512,40.7,-96.7
2360,Lincoln,NE,68521,40.9,-96.7
2361,Lincoln,NE,68526,40.7,-96.6
2362,Lincolnton,NC,28092,35.5,-81.2
2363,Lindale,TX,75771,32.5,-95.4
2364,Linden,NJ,7036,40.6,-74.2
2365,Lindon,UT,84042,40.3,-111.7
2366,Lindsay,OK,73052,34.8,-97.6
2367,Linton,IN,47441,39.0,-87.1
2368,Lisbon,CT,6351,41.6,-72.0
2369,Litchfield,IL,62056,39.2,-89.7
2370,Litchfield,MN,55355,45.1,-94.5
2371,Lithia Springs,GA,30122,33.8,-84.6
2372,Lithonia,GA,30038,33.7,-84.1
2373,Lithonia,GA,30038,33.7,-84.2
2374,Little Egg Harbor,NJ,8087,39.6,-74.4
2375,Little Falls,MN,56345,46.0,-94.3
2376,Little Rock,AR,72205,34.7,-92.4
2377,Little Rock,AR,72209,34.7,-92.4
2378,Little Rock,AR,72211,34.7,-92.4
2379,Little Rock,AR,72223,34.8,-92.5
2380,Littleton,CO,80123,39.6,-105.1
2381,Littleton,CO,80127,39.6,-105.2
2382,Littleton,NH,3561,44.3,-71.8
2383,Live Oak,FL,32060,30.3,-83.0
2384,Livermore,CA,94551,37.7,-121.8
2385,Liverpool,NY,13090,43.2,-76.2
2386,Livingston,TX,77351,30.7,-95.0
2387,Livonia,MI,48150,42.4,-83.3
2388,Livonia,MI,48152,42.4,-83.3
2389,Lockhart,TX,78644,29.9,-97.7
2390,Lockport,IL,60441,41.6,-88.0
2391,Lockport,NY,14094,43.1,-78.7
2392,Locust,NC,28097,35.3,-80.5
2393,Locust Grove,GA,30248,33.4,-84.1
2394,Locust Grove,OK,74352,36.2,-95.2
2395,Locust Grove,VA,22508,38.4,-77.8
2396,Lodi,CA,95242,38.1,-121.3
2397,Logan,OH,43138,39.5,-82.4
2398,Logan,UT,84321,41.7,-111.8
2399,Logan,WV,25601,37.9,-82.0
2400,Logansport,IN,46947,40.8,-86.3
2401,Loganville,GA,30052,33.8,-83.9
2402,Loma Linda,CA,92354,34.0,-117.2
2403,Lompoc,CA,93436,34.7,-120.5
2404,London,KY,40741,37.1,-84.1
2405,London,OH,43140,39.9,-83.4
2406,Long Beach,CA,90805,33.9,-118.1
2407,Long Beach,CA,90808,33.8,-118.1
2408,Longmont,CO,80504,40.2,-105.0
2409,Longmont,CO,80504,40.2,-105.1
2410,Longview,TX,75604,32.5,-94.8
2411,Longview,TX,75604,32.6,-94.8
2412,Longview,TX,75605,32.5,-94.7
2413,Longview,WA,98632,46.1,-122.9
2414,Longview,WA,98632,46.2,-123.0
2415,Lonoke,AR,72086,34.8,-91.9
2416,Lorain,OH,44053,41.4,-82.2
2417,Los Banos,CA,93635,37.1,-120.9
2418,Los Fresnos,TX,78566,26.1,-97.5
2419,Los Lunas,NM,87031,34.8,-106.8
2420,Louisa,KY,41230,38.1,-82.6
2421,Louisburg,NC,27549,36.1,-78.3
2422,Louisville,KY,40207,38.3,-85.6
2423,Louisville,KY,40214,38.1,-85.8
2424,Louisville,KY,40216,38.2,-85.8
2425,Louisville,KY,40216,38.2,-85.9
2426,Louisville,KY,40218,38.2,-85.7
2427,Louisville,KY,40219,38.1,-85.7
2428,Louisville,KY,40229,38.1,-85.7
2429,Louisville,KY,40241,38.3,-85.5
2430,Louisville,KY,40272,38.1,-85.9
2431,Louisville,KY,40291,38.1,-85.6
2432,Louisville,MS,39339,33.1,-89.1
2433,Lovejoy,GA,30250,33.4,-84.3
2434,Loveland,CO,80537,40.4,-105.0
2435,Loveland,CO,80538,40.5,-105.1
2436,Lowville,NY,13367,43.8,-75.5
2437,Lubbock,TX,79415,33.6,-101.9
2438,Lubbock,TX,79416,33.6,-101.9
2439,Lubbock,TX,79423,33.5,-101.9
2440,Lubbock,TX,79423,33.5,-101.9
2441,Lubbock,TX,79423,33.5,-101.9
2442,Lubbock,TX,79424,33.5,-102.0
2443,Lucas,TX,75002,33.1,-96.6
2444,Lucedale,MS,39452,30.9,-88.6
2445,Ludington,MI,49431,44.0,-86.4
2446,Lufkin,TX,75904,31.3,-94.7
2447,Lumberton,NC,28358,34.6,-79.0
2448,Lumberton,NC,28358,34.7,-79.0
2449,Lumberton,NJ,8048,40.0,-74.8
2450,Lumberton,TX,77657,30.3,-94.2
2451,Lunenburg,MA,1462,42.6,-71.8
2452,Luray,VA,22835,38.7,-78.5
2453,Lutz,FL,33549,28.2,-82.5
2454,Lynchburg,VA,24501,37.4,-79.2
2455,Lynchburg,VA,24502,37.3,-79.3
2456,Lynchburg,VA,24502,37.4,-79.2
2457,Lynn,MA,1905,42.4,-71.0
2458,Lynn Haven,FL,32444,30.2,-85.6
2459,Lynnwood,WA,98037,47.8,-122.3
2460,Lynnwood,WA,98087,47.8,-122.3
2461,Macclenny,FL,32063,30.3,-82.1
2462,Macedon,NY,14502,43.1,-77.4
2463,Macedonia,OH,44056,41.3,-81.5
2464,Macomb,IL,61455,40.5,-90.6
2465,Macon,GA,31206,32.8,-83.7
2466,Macon,GA,31210,32.9,-83.8
2467,Macon,GA,31211,32.9,-83.6
2468,Macon,MO,63552,39.8,-92.5
2469,Madera,CA,93637,37.0,-120.1
2470,Madill,OK,73446,34.1,-96.8
2471,Madison,AL,35757,34.8,-86.8
2472,Madison,AL,35758,34.7,-86.7
2473,Madison,AL,35758,34.8,-86.8
2474,Madison,AL,35758,34.8,-86.7
2475,Madison,GA,30650,33.6,-83.5
2476,Madison,IN,47250,38.8,-85.4
2477,Madison,MS,39110,32.5,-90.1
2478,Madison,OH,44057,41.8,-81.1
2479,Madison,TN,37115,36.3,-86.7
2480,Madison,TN,37115,36.3,-86.7
2481,Madison,WI,53714,43.1,-89.3
2482,Madison,WI,53719,43.1,-89.5
2483,Madison Heights,VA,24572,37.5,-79.1
2484,Madisonville,TN,37354,35.5,-84.4
2485,Madisonville,TX,77864,31.0,-95.9
2486,Magee,MS,39111,31.9,-89.7
2487,Magna,UT,84044,40.7,-112.1
2488,Magnolia,AR,71753,33.3,-93.2
2489,Malden,MO,63863,36.6,-90.0
2490,Malone,NY,12953,44.8,-74.3
2491,Malvern,AR,72104,34.4,-92.8
2492,Manahawkin,NJ,8050,39.7,-74.3
2493,Manassas,VA,20109,38.8,-77.5
2494,Manassas,VA,20110,38.8,-77.4
2495,Manati,PR,674,18.4,-66.5
2496,Manchester,CT,6042,41.8,-72.5
2497,Manchester,IA,52057,42.5,-91.5
2498,Manchester,KY,40962,37.1,-83.8
2499,Manchester,MO,63011,38.6,-90.5
2500,Manchester,NH,3103,43.0,-71.4
2501,Manchester,TN,37355,35.5,-86.0
2502,Mandan,ND,58554,46.8,-100.9
2503,Mandeville,LA,70448,30.4,-90.1
2504,Manhattan,KS,66502,39.2,-96.6
2505,Manitowoc,WI,54220,44.1,-87.7
2506,Mankato,MN,56001,44.2,-94.0
2507,Manning,SC,29102,33.7,-80.2
2508,Manor,TX,78653,30.3,-97.5
2509,Mansfield,LA,71052,32.1,-93.7
2510,Mansfield,OH,44903,40.7,-82.5
2511,Mansfield,PA,16933,41.8,-77.1
2512,Mansfield,TX,76063,32.6,-97.1
2513,Mansfield,TX,76063,32.6,-97.1
2514,Manteca,CA,95337,37.8,-121.2
2515,Manville,NJ,8835,40.5,-74.6
2516,Many,LA,71449,31.6,-93.5
2517,Maple Grove,MN,55311,45.1,-93.5
2518,Maplewood,MO,63143,38.6,-90.3
2519,Maquoketa,IA,52060,42.0,-90.7
2520,Marana,AZ,85741,32.3,-111.0
2521,Marble Falls,TX,78654,30.6,-98.3
2522,Margate,FL,33063,26.2,-80.2
2523,Marianna,FL,32448,30.7,-85.2
2524,Maricopa,AZ,85138,33.0,-112.0
2525,Marietta,GA,30008,33.9,-84.6
2526,Marietta,GA,30060,33.9,-84.5
2527,Marietta,GA,30060,33.9,-84.5
2528,Marietta,GA,30062,34.0,-84.5
2529,Marietta,GA,30062,34.0,-84.4
2530,Marietta,GA,30064,33.9,-84.6
2531,Marietta,GA,30066,34.0,-84.6
2532,Marietta,OH,45750,39.4,-81.4
2533,Marina,CA,93933,36.7,-121.8
2534,Marinette,WI,54143,45.1,-87.7
2535,Marion,AR,72364,35.2,-90.2
2536,Marion,IA,52302,42.0,-91.6
2537,Marion,IL,62959,37.7,-89.0
2538,Marion,IN,46953,40.5,-85.7
2539,Marion,NC,28752,35.6,-82.0
2540,Marion,OH,43302,40.6,-83.1
2541,Marion,VA,24354,36.8,-81.5
2542,Marksville,LA,71350,31.1,-92.1
2543,Marlin,TX,76661,31.3,-96.9
2544,Marlton,NJ,8053,39.9,-74.9
2545,Marquette,MI,49855,46.5,-87.5
2546,Marrero,LA,70072,29.9,-90.1
2547,Marshall,IL,62441,39.4,-87.7
2548,Marshall,MN,56258,44.4,-95.8
2549,Marshall,MO,65340,39.1,-93.2
2550,Marshall,TX,75670,32.6,-94.4
2551,Marshalltown,IA,50158,42.0,-92.9
2552,Marshfield,MO,65706,37.3,-92.9
2553,Marshfield,WI,54449,44.7,-90.2
2554,Martin,TN,38237,36.4,-88.9
2555,Martinez,CA,94553,38.0,-122.1
2556,Martinez,GA,30907,33.6,-82.1
2557,Martinsburg,WV,25401,39.5,-78.0
2558,Martinsburg,WV,25404,39.5,-77.9
2559,Martinsville,IN,46151,39.4,-86.4
2560,Martinsville,VA,24112,36.7,-79.9
2561,Marysville,CA,95901,39.1,-121.6
2562,Marysville,KS,66508,39.8,-96.6
2563,Marysville,OH,43040,40.2,-83.3
2564,Marysville,WA,98270,48.1,-122.1
2565,Marysville,WA,98271,48.1,-122.2
2566,Maryville,MO,64468,40.3,-94.9
2567,Maryville,TN,37801,35.7,-84.0
2568,Mason,OH,45040,39.3,-84.3
2569,Mason,WV,25260,39.0,-82.0
2570,Mason City,IA,50401,43.1,-93.3
2571,Massena,NY,13662,44.9,-74.9
2572,Massillon,OH,44646,40.8,-81.5
2573,Mattoon,IL,61938,39.5,-88.3
2574,Mayaguez,PR,680,18.2,-67.1
2575,Mayfield,KY,42066,36.7,-88.6
2576,Mayfield Heights,OH,44124,41.5,-81.4
2577,Mayodan,NC,27027,36.4,-79.9
2578,Mays Landing,NJ,8330,39.5,-74.7
2579,Maysville,KY,41056,38.6,-83.8
2580,Mcalester,OK,74501,34.9,-95.7
2581,Mcallen,TX,78501,26.2,-98.2
2582,Mcallen,TX,78503,26.2,-98.2
2583,Mcallen,TX,78504,26.2,-98.2
2584,Mcallen,TX,78504,26.3,-98.2
2585,Mccomb,MS,39648,31.3,-90.5
2586,Mccook,NE,69001,40.2,-100.7
2587,Mcdonough,GA,30253,33.4,-84.2
2588,Mcgehee,AR,71654,33.6,-91.4
2589,Mckinney,TX,75069,33.2,-96.6
2590,Mckinney,TX,75070,33.2,-96.7
2591,Mckinney,TX,75071,33.2,-96.7
2592,Mckinney,TX,75071,33.2,-96.7
2593,Mcminnville,OR,97128,45.2,-123.2
2594,Mcminnville,TN,37110,35.7,-85.8
2595,Mcpherson,KS,67460,38.4,-97.6
2596,Meadville,PA,16335,41.6,-80.2
2597,Mebane,NC,27302,36.1,-79.3
2598,Mechanicsburg,PA,17050,40.2,-77.0
2599,Mechanicsville,VA,23111,37.6,-77.4
2600,Medford,OR,97501,42.3,-122.9
2601,Medford,OR,97504,42.4,-122.9
2602,Medford,WI,54451,45.2,-90.3
2603,Medina,OH,44256,41.2,-81.9
2604,Melbourne,FL,32901,28.1,-80.6
2605,Melbourne,FL,32935,28.1,-80.7
2606,Melbourne,FL,32935,28.2,-80.7
2607,Melbourne,FL,32937,28.1,-80.6
2608,Melbourne,FL,32940,28.2,-80.7
2609,Memphis,TN,38115,35.1,-89.9
2610,Memphis,TN,38116,35.0,-90.0
2611,Memphis,TN,38125,35.0,-89.8
2612,Memphis,TN,38125,35.0,-89.8
2613,Memphis,TN,38128,35.2,-89.9
2614,Memphis,TN,38133,35.2,-89.8
2615,Mena,AR,71953,34.6,-94.2
2616,Menomonie,WI,54751,44.9,-91.9
2617,Mentor,OH,44060,41.7,-81.3
2618,Meraux,LA,70075,29.9,-89.9
2619,Merced,CA,95348,37.3,-120.5
2620,Meridian,ID,83642,43.6,-116.4
2621,Meridian,ID,83642,43.6,-116.3
2622,Meridian,ID,83646,43.7,-116.4
2623,Meridian,MS,39301,32.4,-88.7
2624,Meridian,MS,39301,32.4,-88.7
2625,Meridian,MS,39307,32.4,-88.7
2626,Merrill,WI,54452,45.2,-89.6
2627,Merrillville,IN,46410,41.5,-87.3
2628,Merritt Island,FL,32952,28.4,-80.7
2629,Mesa,AZ,85201,33.4,-111.9
2630,Mesa,AZ,85203,33.5,-111.8
2631,Mesa,AZ,85204,33.4,-111.8
2632,Mesa,AZ,85204,33.4,-111.8
2633,Mesa,AZ,85205,33.4,-111.7
2634,Mesa,AZ,85206,33.4,-111.7
2635,Mesa,AZ,85206,33.4,-111.7
2636,Mesa,AZ,85209,33.4,-111.6
2637,Mesa,AZ,85210,33.4,-111.8
2638,Mesa,AZ,85212,33.4,-111.7
2639,Mesa,AZ,85213,33.4,-111.8
2640,Mesa,AZ,85215,33.4,-111.7
2641,Mesquite,NV,89027,36.8,-114.1
2642,Mesquite,TX,75149,32.8,-96.6
2643,Mesquite,TX,75149,32.8,-96.6
2644,Mesquite,TX,75150,32.8,-96.6
2645,Metairie,LA,70003,30.0,-90.2
2646,Methuen,MA,1844,42.7,-71.2
2647,Mexia,TX,76667,31.7,-96.5
2648,Mexico,ME,4257,44.5,-70.5
2649,Mexico,MO,65265,39.1,-91.9
2650,Miami,FL,33032,25.5,-80.4
2651,Miami,FL,33144,25.8,-80.3
2652,Miami,FL,33147,25.8,-80.3
2653,Miami,FL,33189,25.6,-80.4
2654,Miami,FL,33196,25.7,-80.4
2655,Miami,OK,74354,36.9,-94.9
2656,Miami Gardens,FL,33055,25.9,-80.3
2657,Miami Gardens,FL,33056,26.0,-80.2
2658,Miami Gardens,FL,33169,25.9,-80.2
2659,Michigan City,IN,46360,41.7,-86.9
2660,Middle Island,NY,11953,40.9,-72.9
2661,Middleburg,FL,32068,30.1,-81.8
2662,Middleburg,FL,32068,30.1,-81.8
2663,Middlefield,OH,44062,41.5,-81.1
2664,Middlesboro,KY,40965,36.6,-83.7
2665,Middletown,DE,19709,39.4,-75.7
2666,Middletown,KY,40243,38.2,-85.5
2667,Middletown,NY,10940,41.5,-74.4
2668,Middletown,OH,45044,39.5,-84.3
2669,Midland,MI,48642,43.7,-84.2
2670,Midland,TX,79701,32.0,-102.1
2671,Midland,TX,79707,32.0,-102.1
2672,Midlothian,TX,76065,32.5,-97.0
2673,Midlothian,VA,23112,37.4,-77.6
2674,Midlothian,VA,23113,37.5,-77.6
2675,Midvale,UT,84047,40.6,-111.9
2676,Midwest City,OK,73110,35.5,-97.4
2677,Milan,TN,38358,35.9,-88.7
2678,Miles City,MT,59301,46.4,-105.8
2679,Milford,CT,6460,41.2,-73.0
2680,Milford,DE,19963,38.9,-75.4
2681,Milford,OH,45150,39.2,-84.3
2682,Milford,PA,18337,41.3,-74.7
2683,Mililani,HI,96789,21.5,-158.0
2684,Mill Hall,PA,17751,41.1,-77.5
2685,Millbrook,AL,36054,32.5,-86.4
2686,Millcreek,UT,84106,40.7,-111.8
2687,Milledgeville,GA,31061,33.1,-83.3
2688,Millersburg,OH,44654,40.5,-81.9
2689,Millington,TN,38053,35.4,-89.9
2690,Millville,NJ,8332,39.4,-75.0
2691,Milpitas,CA,95035,37.4,-121.9
2692,Milton,FL,32571,30.6,-87.1
2693,Milwaukee,WI,53212,43.1,-87.9
2694,Milwaukee,WI,53214,43.0,-88.0
2695,Milwaukee,WI,53215,43.0,-88.0
2696,Milwaukee,WI,53225,43.1,-88.0
2697,Milwaukie,OR,97267,45.4,-122.6
2698,Minden,LA,71055,32.6,-93.3
2699,Mineola,TX,75773,32.7,-95.5
2700,Mineral Wells,TX,76067,32.8,-98.1
2701,Minocqua,WI,54548,45.9,-89.7
2702,Minot,ND,58701,48.2,-101.3
2703,Miramar,FL,33025,26.0,-80.3
2704,Mishawaka,IN,46545,41.7,-86.2
2705,Mission,TX,78572,26.2,-98.3
2706,Mission,TX,78572,26.2,-98.3
2707,Missoula,MT,59804,46.8,-114.0
2708,Missoula,MT,59808,46.9,-114.0
2709,Missouri City,TX,77459,29.5,-95.5
2710,Missouri City,TX,77459,29.6,-95.6
2711,Mitchell,SD,57301,43.7,-98.0
2712,Moberly,MO,65270,39.4,-92.4
2713,Mobile,AL,36606,30.7,-88.1
2714,Mobile,AL,36606,30.7,-88.1
2715,Mobile,AL,36608,30.7,-88.2
2716,Mobile,AL,36609,30.6,-88.2
2717,Mobile,AL,36609,30.6,-88.2
2718,Mobile,AL,36618,30.7,-88.2
2719,Mobile,AL,36619,30.6,-88.2
2720,Mobile,AL,36695,30.6,-88.2
2721,Mobile,AL,36695,30.7,-88.2
2722,Mocksville,NC,27028,35.9,-80.6
2723,Modesto,CA,95350,37.7,-121.0
2724,Modesto,CA,95355,37.7,-121.0
2725,Modesto,CA,95356,37.7,-121.0
2726,Mohegan Lake,NY,10547,41.3,-73.9
2727,Moline,IL,61265,41.5,-90.5
2728,Monaca,PA,15061,40.7,-80.3
2729,Moncks Corner,SC,29461,33.2,-80.0
2730,Monett,MO,65708,36.9,-93.9
2731,Monona,WI,53713,43.0,-89.4
2732,Monroe,GA,30655,33.8,-83.7
2733,Monroe,LA,71201,32.5,-92.1
2734,Monroe,LA,71201,32.5,-92.1
2735,Monroe,LA,71203,32.5,-92.1
2736,Monroe,MI,48162,42.0,-83.4
2737,Monroe,NC,28110,35.0,-80.6
2738,Monroe,NY,10950,41.3,-74.1
2739,Monroe,WA,98272,47.9,-122.0
2740,Monroe,WI,53566,42.6,-89.7
2741,Monroeville,AL,36460,31.5,-87.3
2742,Montevideo,MN,56265,45.0,-95.7
2743,Montgomery,AL,36107,32.4,-86.3
2744,Montgomery,AL,36109,32.4,-86.3
2745,Montgomery,AL,36116,32.3,-86.2
2746,Montgomery,AL,36116,32.3,-86.2
2747,Montgomery,AL,36117,32.4,-86.1
2748,Montgomery,AL,36117,32.4,-86.2
2749,Montgomery,IL,60538,41.7,-88.4
2750,Montgomery,TX,77356,30.4,-95.7
2751,Monticello,AR,71655,33.6,-91.8
2752,Monticello,IN,47960,40.7,-86.8
2753,Monticello,KY,42633,36.9,-84.8
2754,Monticello,MN,55362,45.3,-93.8
2755,Monticello,NY,12701,41.7,-74.7
2756,Montoursville,PA,17754,41.3,-76.9
2757,Montrose,CO,81401,38.4,-107.9
2758,Monument,CO,80132,39.1,-104.9
2759,Moon Township,PA,15108,40.5,-80.2
2760,Moore,OK,73160,35.3,-97.5
2761,Moore,OK,73160,35.3,-97.5
2762,Moorefield,WV,26836,39.1,-79.0
2763,Mooresville,NC,28115,35.6,-80.8
2764,Mooresville,NC,28117,35.6,-80.9
2765,Moraine,OH,45439,39.7,-84.2
2766,Morehead,KY,40351,38.2,-83.5
2767,Morehead City,NC,28557,34.7,-76.8
2768,Moreno Valley,CA,92555,33.9,-117.2
2769,Morgan City,LA,70380,29.7,-91.3
2770,Morgan City,LA,70380,29.7,-91.2
2771,Morgan Hill,CA,95037,37.1,-121.7
2772,Morganfield,KY,42437,37.7,-87.9
2773,Morganton,NC,28655,35.7,-81.7
2774,Morganton,NC,28655,35.8,-81.7
2775,Morgantown,WV,26501,39.6,-80.0
2776,Morgantown,WV,26508,39.6,-80.0
2777,Morrilton,AR,72110,35.2,-92.7
2778,Morris,IL,60450,41.4,-88.4
2779,Morristown,TN,37813,36.2,-83.3
2780,Morristown,TN,37814,36.2,-83.4
2781,Morristown,TN,37814,36.2,-83.3
2782,Morristown,TN,37814,36.2,-83.3
2783,Morrisville,NC,27560,35.8,-78.8
2784,Morrisville,NC,27560,35.9,-78.8
2785,Morrow,GA,30260,33.6,-84.3
2786,Morton,IL,61550,40.6,-89.5
2787,Moscow,ID,83843,46.7,-117.0
2788,Moses Lake,WA,98837,47.1,-119.3
2789,Moulton,AL,35650,34.5,-87.3
2790,Moultrie,GA,31788,31.2,-83.8
2791,Moundsville,WV,26041,39.9,-80.7
2792,Mount Airy,MD,21771,39.4,-77.2
2793,Mount Airy,NC,27030,36.5,-80.6
2794,Mount Dora,FL,32757,28.8,-81.7
2795,Mount Juliet,TN,37122,36.2,-86.5
2796,Mount Olive,NC,28365,35.2,-78.1
2797,Mount Pleasant,IA,52641,41.0,-91.5
2798,Mount Pleasant,MI,48858,43.6,-84.8
2799,Mount Pleasant,PA,15666,40.1,-79.5
2800,Mount Pleasant,SC,29466,32.9,-79.8
2801,Mount Pleasant,TX,75455,33.1,-95.0
2802,Mount Pleasant,WI,53406,42.7,-87.8
2803,Mount Pocono,PA,18344,41.1,-75.4
2804,Mount Prospect,IL,60056,42.1,-87.9
2805,Mount Sterling,KY,40353,38.1,-84.0
2806,Mount Vernon,IL,62864,38.3,-89.0
2807,Mount Vernon,MO,65712,37.1,-93.8
2808,Mount Vernon,OH,43050,40.4,-82.4
2809,Mount Vernon,WA,98273,48.4,-122.3
2810,Mountain Grove,MO,65711,37.2,-92.3
2811,Mountain Home,AR,72653,36.4,-92.3
2812,Mountain Home,ID,83647,43.1,-115.7
2813,Mountain Iron,MN,55768,47.5,-92.6
2814,Mountain View,AR,72560,35.9,-92.1
2815,Mountain View,CA,94040,37.4,-122.1
2816,Mountain View,MO,65548,37.0,-91.7
2817,Mukwonago,WI,53149,42.9,-88.3
2818,Mulberry,FL,33860,27.9,-82.0
2819,Mullins,SC,29574,34.2,-79.3
2820,Muncie,IN,47302,40.2,-85.4
2821,Muncie,IN,47304,40.2,-85.4
2822,Murfreesboro,TN,37127,35.8,-86.4
2823,Murfreesboro,TN,37128,35.8,-86.4
2824,Murfreesboro,TN,37128,35.9,-86.5
2825,Murfreesboro,TN,37129,35.9,-86.4
2826,Murfreesboro,TN,37129,35.9,-86.4
2827,Murfreesboro,TN,37130,35.8,-86.3
2828,Murphy,NC,28906,35.1,-84.0
2829,Murphy,TX,75094,33.0,-96.6
2830,Murphysboro,IL,62966,37.8,-89.3
2831,Murray,KY,42071,36.6,-88.3
2832,Murray,UT,84117,40.6,-111.8
2833,Murrells Inlet,SC,29576,33.6,-79.0
2834,Murrieta,CA,92562,33.6,-117.2
2835,Muscatine,IA,52761,41.5,-91.0
2836,Muscle Shoals,AL,35661,34.7,-87.7
2837,Muskego,WI,53150,42.9,-88.1
2838,Muskegon,MI,49441,43.2,-86.3
2839,Muskegon,MI,49444,43.2,-86.2
2840,Muskogee,OK,74401,35.8,-95.4
2841,Mustang,OK,73064,35.4,-97.7
2842,Myrtle Beach,SC,29572,33.8,-78.8
2843,Myrtle Beach,SC,29575,33.6,-79.0
2844,Myrtle Beach,SC,29577,33.7,-78.9
2845,Myrtle Beach,SC,29577,33.7,-79.0
2846,Myrtle Beach,SC,29577,33.7,-78.9
2847,Myrtle Beach,SC,29577,33.7,-78.9
2848,Nacogdoches,TX,75961,31.6,-94.6
2849,Nacogdoches,TX,75965,31.7,-94.7
2850,Nampa,ID,83651,43.6,-116.6
2851,Nampa,ID,83686,43.5,-116.6
2852,Nampa,ID,83687,43.6,-116.5
2853,Napa,CA,94558,38.3,-122.3
2854,Napanoch,NY,12458,41.7,-74.4
2855,Naperville,IL,60564,41.7,-88.2
2856,Naples,FL,34105,26.2,-81.8
2857,Naples,FL,34109,26.3,-81.7
2858,Naples,FL,34110,26.3,-81.8
2859,Naples,FL,34112,26.1,-81.8
2860,Naples,FL,34114,26.1,-81.7
2861,Naples,FL,34114,26.1,-81.7
2862,Napoleon,OH,43545,41.4,-84.1
2863,Nashville,AR,71852,33.9,-93.9
2864,Nashville,NC,27856,36.0,-77.9
2865,Nashville,TN,37204,36.1,-86.8
2866,Nashville,TN,37207,36.2,-86.8
2867,Nashville,TN,37209,36.1,-86.9
2868,Nashville,TN,37211,36.0,-86.7
2869,Nashville,TN,37211,36.0,-86.7
2870,Nashville,TN,37211,36.1,-86.7
2871,Natchez,MS,39120,31.6,-91.4
2872,Natchitoches,LA,71457,31.8,-93.1
2873,National City,CA,91950,32.7,-117.1
2874,Natrona Heights,PA,15065,40.6,-79.7
2875,Naugatuck,CT,6770,41.5,-73.0
2876,Navarre,FL,32566,30.4,-86.9
2877,Navarre,FL,32566,30.4,-86.8
2878,Navasota,TX,77868,30.4,-96.1
2879,Nebraska City,NE,68410,40.7,-95.9
2880,Neenah,WI,54956,44.2,-88.5
2881,Neosho,MO,64850,36.8,-94.4
2882,Neptune,NJ,7753,40.2,-74.1
2883,Nevada,MO,64772,37.8,-94.3
2884,New Albany,IN,47150,38.3,-85.8
2885,New Albany,MS,38652,34.5,-89.0
2886,New Berlin,WI,53151,43.0,-88.1
2887,New Bern,NC,28562,35.1,-77.1
2888,New Bern,NC,28563,35.1,-77.1
2889,New Boston,OH,45662,38.8,-82.9
2890,New Boston,TX,75570,33.5,-94.4
2891,New Braunfels,TX,78130,29.7,-98.1
2892,New Caney,TX,77357,30.2,-95.2
2893,New Castle,DE,19720,39.7,-75.6
2894,New Castle,IN,47362,39.9,-85.4
2895,New Castle,PA,16101,41.0,-80.4
2896,New Hartford,NY,13413,43.1,-75.3
2897,New Haven,CT,6513,41.3,-72.9
2898,New Hudson,MI,48165,42.5,-83.6
2899,New Iberia,LA,70560,30.0,-91.8
2900,New Iberia,LA,70563,30.0,-91.8
2901,New Lenox,IL,60451,41.5,-88.0
2902,New London,WI,54961,44.4,-88.7
2903,New Martinsville,WV,26155,39.7,-80.9
2904,New Milford,CT,6776,41.6,-73.4
2905,New Orleans,LA,70114,29.9,-90.0
2906,New Orleans,LA,70126,30.0,-90.0
2907,New Orleans,LA,70128,30.0,-90.0
2908,New Orleans,LA,70130,29.9,-90.1
2909,New Philadelphia,OH,44663,40.5,-81.5
2910,New Port Richey,FL,34654,28.3,-82.7
2911,New Port Richey,FL,34655,28.2,-82.7
2912,New Richmond,WI,54017,45.1,-92.5
2913,New Roads,LA,70760,30.7,-91.5
2914,New Smyrna Beach,FL,32168,29.0,-81.0
2915,New Tazewell,TN,37825,36.4,-83.6
2916,New Ulm,MN,56073,44.3,-94.5
2917,Newark,NY,14513,43.1,-77.1
2918,Newark,OH,43055,40.1,-82.4
2919,Newberry,SC,29108,34.3,-81.6
2920,Newburgh,IN,47630,38.0,-87.4
2921,Newburgh,NY,12550,41.5,-74.1
2922,Newcastle,OK,73065,35.3,-97.6
2923,Newington,CT,6111,41.7,-72.7
2924,Newington,NH,3801,43.1,-70.8
2925,Newnan,GA,30265,33.4,-84.7
2926,Newport,AR,72112,35.6,-91.3
2927,Newport,NC,28570,34.8,-76.9
2928,Newport,OR,97365,44.7,-124.1
2929,Newport,RI,2840,41.5,-71.3
2930,Newport,TN,37821,35.9,-83.2
2931,Newport News,VA,23601,37.1,-76.5
2932,Newport News,VA,23602,37.1,-76.5
2933,Newport News,VA,23605,37.0,-76.4
2934,Newton,IA,50208,41.7,-93.0
2935,Newton,KS,67114,38.0,-97.3
2936,Newton,MS,39345,32.3,-89.1
2937,Newton,NC,28658,35.7,-81.2
2938,Newton,NJ,7860,41.1,-74.7
2939,Niagara Falls,NY,14304,43.1,-79.0
2940,Niceville,FL,32578,30.5,-86.5
2941,Nicholasville,KY,40356,37.9,-84.6
2942,Niles,IL,60714,42.0,-87.8
2943,Niles,IL,60714,42.1,-87.8
2944,Niles,MI,49120,41.8,-86.2
2945,Nixa,MO,65714,37.1,-93.3
2946,Noblesville,IN,46060,40.0,-86.0
2947,Nogales,AZ,85621,31.4,-110.9
2948,Norcross,GA,30093,33.9,-84.2
2949,Norfolk,NE,68701,42.0,-97.4
2950,Norfolk,VA,23502,36.9,-76.2
2951,Norfolk,VA,23502,36.9,-76.2
2952,Norfolk,VA,23505,36.9,-76.3
2953,Norfolk,VA,23518,36.9,-76.2
2954,Normal,IL,61761,40.5,-88.9
2955,Norman,OK,73069,35.2,-97.5
2956,Norman,OK,73069,35.2,-97.5
2957,Norman,OK,73071,35.2,-97.4
2958,Norman,OK,73071,35.2,-97.4
2959,Norman,OK,73071,35.2,-97.4
2960,Norristown,PA,19401,40.1,-75.3
2961,Norristown,PA,19403,40.1,-75.4
2962,North Adams,MA,1247,42.7,-73.1
2963,North Attleboro,MA,2760,41.9,-71.4
2964,North Augusta,SC,29841,33.5,-82.0
2965,North Augusta,SC,29860,33.6,-81.9
2966,North Bergen,NJ,7047,40.8,-74.0
2967,North Brunswick,NJ,8902,40.5,-74.5
2968,North Canton,OH,44720,40.9,-81.4
2969,North Charleston,SC,29406,32.9,-80.0
2970,North Charleston,SC,29418,32.9,-80.0
2971,North Chesterfield,VA,23234,37.4,-77.5
2972,North Chesterfield,VA,23234,37.4,-77.5
2973,North Conway,NH,3860,44.0,-71.1
2974,North Dartmouth,MA,2747,41.6,-71.0
2975,North East,MD,21901,39.6,-76.0
2976,North Fort Myers,FL,33903,26.7,-81.9
2977,North Highlands,CA,95660,38.6,-121.4
2978,North Huntingdon,PA,15642,40.3,-79.7
2979,North Kingstown,RI,2852,41.6,-71.5
2980,North Las Vegas,NV,89031,36.3,-115.2
2981,North Las Vegas,NV,89032,36.2,-115.2
2982,North Las Vegas,NV,89032,36.2,-115.2
2983,North Las Vegas,NV,89081,36.3,-115.1
2984,North Lauderdale,FL,33068,26.2,-80.2
2985,North Little Rock,AR,72113,34.8,-92.4
2986,North Little Rock,AR,72117,34.8,-92.2
2987,North Logan,UT,84341,41.8,-111.8
2988,North Miami Beach,FL,33162,25.9,-80.2
2989,North Myrtle Beach,SC,29582,33.8,-78.7
2990,North Olmsted,OH,44070,41.4,-81.9
2991,North Oxford,MA,1537,42.2,-71.9
2992,North Platte,NE,69101,41.1,-100.8
2993,North Port,FL,34287,27.0,-82.2
2994,North Port,FL,34287,27.1,-82.2
2995,North Reading,MA,1864,42.6,-71.1
2996,North Richland Hills,TX,76180,32.8,-97.2
2997,North Richland Hills,TX,76182,32.9,-97.2
2998,North Smithfield,RI,2896,42.0,-71.5
2999,North Tonawanda,NY,14120,43.1,-78.8
3000,North Vernon,IN,47265,39.0,-85.6
3001,North Versailles,PA,15137,40.4,-79.8
3002,North Windham,CT,6256,41.7,-72.2
3003,Northampton,MA,1060,42.3,-72.6
3004,Northborough,MA,1532,42.3,-71.7
3005,Northglenn,CO,80233,39.9,-105.0
3006,Northlake,IL,60164,41.9,-87.9
3007,Northport,AL,35476,33.2,-87.6
3008,Northport,AL,35476,33.2,-87.6
3009,Norton,VA,24273,37.0,-82.6
3010,Norwalk,CA,90650,33.9,-118.1
3011,Norwalk,CT,6851,41.2,-73.4
3012,Norwalk,CT,6854,41.1,-73.4
3013,Norwalk,OH,44857,41.3,-82.6
3014,Norwich,CT,6360,41.5,-72.1
3015,Norwich,NY,13815,42.5,-75.5
3016,Nottingham,MD,21236,39.4,-76.5
3017,Novi,MI,48375,42.5,-83.5
3018,O Fallon,IL,62269,38.6,-90.0
3019,O Fallon,MO,63366,38.8,-90.7
3020,Oak Grove,KY,42262,36.7,-87.4
3021,Oak Grove,LA,71263,32.9,-91.4
3022,Oak Grove,MO,64075,39.0,-94.1
3023,Oak Harbor,WA,98277,48.3,-122.7
3024,Oak Park Heights,MN,55082,45.0,-92.8
3025,Oak Ridge,TN,37830,36.0,-84.3
3026,Oakdale,LA,71463,30.8,-92.7
3027,Oakland,MD,21550,39.4,-79.4
3028,Oakland,TN,38060,35.2,-89.5
3029,Oakwood,GA,30566,34.2,-83.9
3030,Oberlin,OH,44074,41.3,-82.2
3031,Ocala,FL,34470,29.2,-82.1
3032,Ocala,FL,34471,29.2,-82.2
3033,Ocala,FL,34472,29.1,-82.0
3034,Ocala,FL,34476,29.1,-82.3
3035,Ocala,FL,34481,29.1,-82.3
3036,Ocean Springs,MS,39564,30.4,-88.8
3037,Ocean Springs,MS,39564,30.4,-88.8
3038,Oceanside,CA,92054,33.2,-117.3
3039,Oceanside,CA,92054,33.2,-117.4
3040,Oceanside,CA,92056,33.2,-117.3
3041,Oceanside,CA,92057,33.2,-117.3
3042,Ocoee,FL,34761,28.5,-81.5
3043,Odessa,TX,79762,31.9,-102.3
3044,Odessa,TX,79763,31.9,-102.4
3045,Ogallala,NE,69153,41.1,-101.7
3046,Ogden,UT,84401,41.2,-112.0
3047,Ogdensburg,NY,13669,44.7,-75.5
3048,Okeechobee,FL,34974,27.2,-80.8
3049,Okemos,MI,48864,42.7,-84.4
3050,Oklahoma City,OK,73107,35.5,-97.6
3051,Oklahoma City,OK,73109,35.4,-97.5
3052,Oklahoma City,OK,73115,35.4,-97.4
3053,Oklahoma City,OK,73118,35.5,-97.5
3054,Oklahoma City,OK,73119,35.4,-97.5
3055,Oklahoma City,OK,73127,35.5,-97.6
3056,Oklahoma City,OK,73132,35.6,-97.7
3057,Oklahoma City,OK,73134,35.6,-97.5
3058,Oklahoma City,OK,73135,35.4,-97.4
3059,Oklahoma City,OK,73139,35.4,-97.5
3060,Oklahoma City,OK,73141,35.5,-97.4
3061,Oklahoma City,OK,73149,35.4,-97.5
3062,Oklahoma City,OK,73159,35.4,-97.6
3063,Oklahoma City,OK,73162,35.6,-97.6
3064,Oklahoma City,OK,73170,35.3,-97.5
3065,Oklahoma City,OK,73170,35.3,-97.6
3066,Okmulgee,OK,74447,35.6,-96.0
3067,Olathe,KS,66061,38.9,-94.8
3068,Olathe,KS,66062,38.9,-94.8
3069,Olathe,KS,66062,38.9,-94.8
3070,Old Bridge,NJ,8857,40.4,-74.3
3071,Old Bridge,NJ,8857,40.4,-74.3
3072,Old Saybrook,CT,6475,41.3,-72.4
3073,Oldsmar,FL,34677,28.0,-82.7
3074,Olean,NY,14760,42.1,-78.5
3075,Olive Branch,MS,38654,35.0,-89.8
3076,Olney,IL,62450,38.7,-88.1
3077,Olympia Fields,IL,60461,41.5,-87.7
3078,Omaha,NE,68104,41.3,-96.0
3079,Omaha,NE,68116,41.3,-96.2
3080,Omaha,NE,68117,41.2,-96.0
3081,Omaha,NE,68124,41.2,-96.0
3082,Omaha,NE,68130,41.2,-96.2
3083,Omaha,NE,68131,41.3,-96.0
3084,Omaha,NE,68134,41.3,-96.1
3085,Omaha,NE,68134,41.3,-96.1
3086,Omaha,NE,68135,41.2,-96.2
3087,Omaha,NE,68137,41.2,-96.1
3088,Omaha,NE,68164,41.3,-96.1
3089,Omak,WA,98841,48.4,-119.5
3090,Onalaska,WI,54650,43.9,-91.2
3091,Oneida,NY,13421,43.1,-75.7
3092,Oneida,TN,37841,36.5,-84.5
3093,Oneonta,AL,35121,34.0,-86.4
3094,Oneonta,NY,13820,42.4,-75.0
3095,Onley,VA,23418,37.7,-75.7
3096,Ontario,CA,91762,34.1,-117.7
3097,Ontario,OH,44906,40.8,-82.6
3098,Ontario,OR,97914,44.0,-116.9
3099,Ooltewah,TN,37363,35.1,-85.1
3100,Opelika,AL,36801,32.6,-85.4
3101,Opelousas,LA,70570,30.5,-92.1
3102,Opelousas,LA,70570,30.5,-92.1
3103,Orange,CA,92865,33.8,-117.8
3104,Orange,MA,1364,42.6,-72.3
3105,Orange Beach,AL,36561,30.3,-87.6
3106,Orange City,FL,32763,28.9,-81.3
3107,Orange Park,FL,32003,30.1,-81.7
3108,Orange Park,FL,32065,30.1,-81.8
3109,Orangeburg,SC,29115,33.5,-80.9
3110,Orangeburg,SC,29118,33.5,-80.9
3111,Orangevale,CA,95662,38.7,-121.2
3112,Oregon,OH,43616,41.6,-83.5
3113,Orem,UT,84058,40.3,-111.7
3114,Orland Hills,IL,60487,41.6,-87.8
3115,Orlando,FL,32805,28.5,-81.4
3116,Orlando,FL,32806,28.5,-81.4
3117,Orlando,FL,32807,28.6,-81.3
3118,Orlando,FL,32808,28.6,-81.4
3119,Orlando,FL,32810,28.6,-81.4
3120,Orlando,FL,32810,28.6,-81.5
3121,Orlando,FL,32811,28.5,-81.5
3122,Orlando,FL,32817,28.6,-81.2
3123,Orlando,FL,32818,28.5,-81.5
3124,Orlando,FL,32819,28.4,-81.5
3125,Orlando,FL,32819,28.4,-81.4
3126,Orlando,FL,32822,28.5,-81.3
3127,Orlando,FL,32822,28.5,-81.3
3128,Orlando,FL,32822,28.5,-81.3
3129,Orlando,FL,32825,28.5,-81.3
3130,Orlando,FL,32825,28.5,-81.3
3131,Orlando,FL,32828,28.5,-81.2
3132,Orlando,FL,32828,28.5,-81.1
3133,Orlando,FL,32832,28.4,-81.2
3134,Orlando,FL,32835,28.5,-81.5
3135,Orlando,FL,32837,28.4,-81.4
3136,Orlando,FL,32837,28.4,-81.4
3137,Orlando,FL,32837,28.4,-81.4
3138,Orlando,FL,32839,28.5,-81.4
3139,Ormond Beach,FL,32174,29.3,-81.1
3140,Oro Valley,AZ,85704,32.4,-111.0
3141,Oro Valley,AZ,85755,32.4,-110.9
3142,Oroville,CA,95965,39.5,-121.6
3143,Osage Beach,MO,65065,38.1,-92.6
3144,Osceola,AR,72370,35.7,-90.0
3145,Osceola,IA,50213,41.0,-93.8
3146,Oshkosh,WI,54904,44.0,-88.6
3147,Oskaloosa,IA,52577,41.3,-92.7
3148,Osprey,FL,34229,27.2,-82.5
3149,Oswego,IL,60543,41.7,-88.3
3150,Oswego,NY,13126,43.5,-76.5
3151,Othello,WA,99344,46.8,-119.1
3152,Ottawa,IL,61350,41.4,-88.8
3153,Ottawa,KS,66067,38.6,-95.3
3154,Ottawa,OH,45875,41.0,-84.0
3155,Ottumwa,IA,52501,41.0,-92.5
3156,Overland Park,KS,66204,39.0,-94.7
3157,Overland Park,KS,66210,38.9,-94.7
3158,Overland Park,KS,66212,38.9,-94.7
3159,Overland Park,KS,66212,39.0,-94.7
3160,Overland Park,KS,66223,38.8,-94.7
3161,Oviedo,FL,32765,28.6,-81.2
3162,Oviedo,FL,32765,28.6,-81.3
3163,Owasso,OK,74055,36.3,-95.8
3164,Owasso,OK,74055,36.3,-95.8
3165,Owasso,OK,74055,36.3,-95.8
3166,Owatonna,MN,55060,44.1,-93.2
3167,Owens Cross Roads,AL,35763,34.7,-86.5
3168,Owensboro,KY,42301,37.7,-87.1
3169,Owensboro,KY,42303,37.8,-87.1
3170,Owensville,MO,65066,38.4,-91.5
3171,Owings Mills,MD,21117,39.4,-76.8
3172,Owosso,MI,48867,43.0,-84.1
3173,Oxford,AL,36203,33.6,-85.8
3174,Oxford,ME,4270,44.2,-70.5
3175,Oxford,MS,38655,34.4,-89.6
3176,Oxford,NC,27565,36.3,-78.6
3177,Oxford,OH,45056,39.5,-84.8
3178,Oxford,PA,19363,39.8,-76.0
3179,Oxnard,CA,93033,34.2,-119.2
3180,Oxnard,CA,93036,34.2,-119.2
3181,Oxnard,CA,93036,34.2,-119.2
3182,Ozark,AL,36360,31.4,-85.7
3183,Ozark,AR,72949,35.5,-93.8
3184,Ozark,MO,65721,37.0,-93.2
3185,Paducah,KY,42001,37.1,-88.7
3186,Paducah,KY,42003,37.1,-88.6
3187,Page,AZ,86040,36.9,-111.5
3188,Pagosa Springs,CO,81147,37.3,-107.1
3189,Pahrump,NV,89048,36.2,-116.0
3190,Painted Post,NY,14870,42.2,-77.1
3191,Paintsville,KY,41240,37.8,-82.8
3192,Palatine,IL,60074,42.1,-88.0
3193,Palatka,FL,32177,29.6,-81.7
3194,Palestine,TX,75801,31.7,-95.6
3195,Palm Bay,FL,32907,28.0,-80.6
3196,Palm Coast,FL,32164,29.5,-81.2
3197,Palm Desert,CA,92211,33.8,-116.4
3198,Palm Desert,CA,92260,33.7,-116.4
3199,Palm Harbor,FL,34684,28.1,-82.7
3200,Palm Harbor,FL,34685,28.1,-82.7
3201,Palm Springs,CA,92264,33.8,-116.5
3202,Palm Springs,FL,33461,26.6,-80.1
3203,Palm Springs Village,FL,33406,26.7,-80.1
3204,Palmdale,CA,93551,34.6,-118.1
3205,Palmdale,CA,93551,34.6,-118.2
3206,Palmdale,CA,93552,34.6,-118.0
3207,Palmetto,FL,34221,27.5,-82.6
3208,Palmhurst,TX,78573,26.3,-98.3
3209,Palmyra,ME,4965,44.8,-69.3
3210,Palmyra,PA,17078,40.3,-76.6
3211,Pampa,TX,79065,35.6,-101.0
3212,Panama City,FL,32405,30.2,-85.7
3213,Panama City Beach,FL,32407,30.2,-85.8
3214,Panama City Beach,FL,32413,30.2,-85.9
3215,Panorama City,CA,91402,34.2,-118.4
3216,Panorama City,CA,91402,34.2,-118.4
3217,Pantego,TX,76013,32.7,-97.2
3218,Paola,KS,66071,38.6,-94.9
3219,Paoli,IN,47454,38.6,-86.5
3220,Papillion,NE,68133,41.2,-96.0
3221,Paragould,AR,72450,36.0,-90.5
3222,Paragould,AR,72450,36.1,-90.5
3223,Paramount,CA,90723,33.9,-118.1
3224,Paris,AR,72855,35.3,-93.7
3225,Paris,IL,61944,39.6,-87.7
3226,Paris,KY,40361,38.2,-84.3
3227,Paris,TN,38242,36.3,-88.3
3228,Paris,TX,75462,33.7,-95.5
3229,Park City,UT,84098,40.7,-111.5
3230,Park Rapids,MN,56470,46.9,-95.0
3231,Parker,AZ,85344,34.2,-114.3
3232,Parker,CO,80134,39.5,-104.8
3233,Parkersburg,WV,26101,39.2,-81.5
3234,Parkesburg,PA,19365,40.0,-75.9
3235,Parma,OH,44129,41.4,-81.7
3236,Parsons,KS,67357,37.4,-95.3
3237,Pasadena,FL,33707,27.8,-82.7
3238,Pasadena,MD,21122,39.1,-76.6
3239,Pasadena,TX,77505,29.6,-95.2
3240,Pasadena,TX,77506,29.7,-95.2
3241,Pascagoula,MS,39581,30.4,-88.5
3242,Pasco,WA,99301,46.3,-119.2
3243,Paso Robles,CA,93446,35.6,-120.7
3244,Pass Christian,MS,39571,30.3,-89.2
3245,Patterson,CA,95363,37.5,-121.1
3246,Pauls Valley,OK,73075,34.7,-97.2
3247,Paw Paw,MI,49079,42.2,-85.9
3248,Payson,AZ,85541,34.2,-111.3
3249,Payson,UT,84651,40.0,-111.8
3250,Pea Ridge,AR,72751,36.4,-94.1
3251,Peachtree City,GA,30269,33.4,-84.6
3252,Pearisburg,VA,24134,37.3,-80.7
3253,Pearl,MS,39208,32.3,-90.0
3254,Pearl City,HI,96782,21.4,-158.0
3255,Pearland,TX,77581,29.5,-95.2
3256,Pearland,TX,77581,29.6,-95.3
3257,Pearland,TX,77584,29.6,-95.4
3258,Pearland,TX,77584,29.6,-95.4
3259,Pearsall,TX,78061,28.9,-99.1
3260,Pecos,TX,79772,31.4,-103.5
3261,Pekin,IL,61554,40.5,-89.6
3262,Pelham,AL,35124,33.3,-86.8
3263,Pell City,AL,35125,33.6,-86.3
3264,Pella,IA,50219,41.4,-92.9
3265,Pembroke,NC,28372,34.7,-79.2
3266,Pembroke Pines,FL,33027,26.0,-80.3
3267,Pembroke Pines,FL,33029,26.0,-80.4
3268,Pendleton,OR,97801,45.7,-118.8
3269,Penitas,TX,78576,26.2,-98.4
3270,Pennsville,NJ,8070,39.6,-75.5
3271,Pensacola,FL,32504,30.5,-87.2
3272,Pensacola,FL,32506,30.4,-87.4
3273,Pensacola,FL,32506,30.4,-87.3
3274,Pensacola,FL,32507,30.4,-87.3
3275,Pensacola,FL,32514,30.5,-87.2
3276,Pensacola,FL,32526,30.5,-87.3
3277,Pensacola,FL,32534,30.5,-87.3
3278,Pensacola,FL,32534,30.5,-87.3
3279,Peoria,AZ,85345,33.6,-112.2
3280,Peoria,AZ,85381,33.6,-112.2
3281,Peoria,AZ,85382,33.7,-112.3
3282,Peoria,IL,61604,40.7,-89.6
3283,Peoria,IL,61615,40.8,-89.6
3284,Perris,CA,92571,33.8,-117.2
3285,Perry,FL,32348,30.1,-83.6
3286,Perry,GA,31069,32.5,-83.7
3287,Perry,UT,84302,41.5,-112.0
3288,Perrysburg,OH,43551,41.6,-83.6
3289,Perryville,MO,63775,37.7,-89.9
3290,Peru,IL,61354,41.4,-89.1
3291,Petal,MS,39465,31.4,-89.2
3292,Petersburg,VA,23805,37.2,-77.4
3293,Petoskey,MI,49770,45.4,-85.0
3294,Pewaukee,WI,53072,43.1,-88.2
3295,Pflugerville,TX,78660,30.5,-97.6
3296,Phenix City,AL,36867,32.5,-85.0
3297,Phenix City,AL,36870,32.5,-85.1
3298,Philadelphia,MS,39350,32.8,-89.1
3299,Philadelphia,PA,19114,40.1,-75.0
3300,Philadelphia,PA,19124,40.0,-75.1
3301,Philadelphia,PA,19137,40.0,-75.1
3302,Philadelphia,PA,19148,39.9,-75.1
3303,Philadelphia,PA,19154,40.1,-75.0
3304,Phillipsburg,NJ,8865,40.7,-75.1
3305,Phoenix,AZ,85015,33.5,-112.1
3306,Phoenix,AZ,85017,33.5,-112.1
3307,Phoenix,AZ,85018,33.5,-112.0
3308,Phoenix,AZ,85020,33.6,-112.1
3309,Phoenix,AZ,85023,33.6,-112.1
3310,Phoenix,AZ,85031,33.5,-112.2
3311,Phoenix,AZ,85032,33.6,-112.0
3312,Phoenix,AZ,85032,33.6,-112.0
3313,Phoenix,AZ,85035,33.5,-112.2
3314,Phoenix,AZ,85041,33.4,-112.1
3315,Phoenix,AZ,85042,33.4,-112.0
3316,Phoenix,AZ,85043,33.4,-112.2
3317,Phoenix,AZ,85051,33.6,-112.1
3318,Phoenix,AZ,85085,33.7,-112.1
3319,Picayune,MS,39466,30.5,-89.7
3320,Pickens,SC,29671,34.9,-82.7
3321,Pico Rivera,CA,90660,34.0,-118.1
3322,Pierre,SD,57501,44.4,-100.3
3323,Pikeville,KY,41501,37.5,-82.5
3324,Pine Bluff,AR,71603,34.2,-92.0
3325,Pine City,MN,55063,45.8,-93.0
3326,Pinellas Park,FL,33781,27.8,-82.7
3327,Pinellas Park,FL,33781,27.8,-82.7
3328,Pinellas Park,FL,33781,27.8,-82.7
3329,Pineville,LA,71360,31.3,-92.4
3330,Pineville,LA,71360,31.4,-92.4
3331,Pineville,MO,64856,36.5,-94.3
3332,Piqua,OH,45356,40.2,-84.2
3333,Piscataway,NJ,8854,40.6,-74.4
3334,Pisgah Forest,NC,28768,35.3,-82.7
3335,Pittsburg,CA,94565,38.0,-121.9
3336,Pittsburg,KS,66762,37.4,-94.7
3337,Pittsburg,KS,66762,37.4,-94.7
3338,Pittsburgh,PA,15238,40.5,-79.9
3339,Pittsburgh,PA,15275,40.4,-80.2
3340,Pittsfield,IL,62363,39.6,-90.8
3341,Pittsfield,MA,1201,42.5,-73.2
3342,Pittston,PA,18640,41.3,-75.8
3343,Placerville,CA,95667,38.7,-120.8
3344,Plainfield,IL,60585,41.7,-88.2
3345,Plainfield,IN,46168,39.7,-86.4
3346,Plainfield,IN,46168,39.7,-86.4
3347,Plainview,TX,79072,34.2,-101.8
3348,Plainwell,MI,49080,42.4,-85.7
3349,Plaistow,NH,3865,42.8,-71.1
3350,Plano,IL,60545,41.7,-88.6
3351,Plano,TX,75023,33.1,-96.8
3352,Plano,TX,75023,33.1,-96.7
3353,Plano,TX,75024,33.1,-96.8
3354,Plano,TX,75024,33.1,-96.8
3355,Plano,TX,75025,33.1,-96.7
3356,Plano,TX,75074,33.0,-96.7
3357,Plano,TX,75075,33.0,-96.8
3358,Plano,TX,75075,33.0,-96.7
3359,Plano,TX,75093,33.0,-96.8
3360,Plano,TX,75093,33.0,-96.8
3361,Plant City,FL,33566,28.0,-82.1
3362,Plantation,FL,33322,26.1,-80.3
3363,Plaquemine,LA,70764,30.3,-91.3
3364,Platteville,WI,53818,42.7,-90.4
3365,Plattsburgh,NY,12901,44.7,-73.5
3366,Pleasant Grove,UT,84062,40.4,-111.8
3367,Pleasanton,CA,94566,37.7,-121.9
3368,Pleasanton,CA,94588,37.7,-121.9
3369,Pleasanton,TX,78064,28.9,-98.5
3370,Plover,WI,54467,44.5,-89.5
3371,Plymouth,IN,46563,41.4,-86.3
3372,Plymouth,MA,2360,42.0,-70.7
3373,Plymouth,NH,3264,43.8,-71.7
3374,Plymouth,WI,53073,43.8,-87.9
3375,Pocahontas,AR,72455,36.2,-91.0
3376,Pocomoke City,MD,21851,38.1,-75.6
3377,Poland,OH,44514,41.0,-80.6
3378,Polson,MT,59860,47.7,-114.1
3379,Pomona,CA,91766,34.0,-117.8
3380,Pomona,CA,91767,34.1,-117.7
3381,Pompano Beach,FL,33062,26.2,-80.1
3382,Pompano Beach,FL,33064,26.3,-80.1
3383,Pompano Beach,FL,33069,26.2,-80.2
3384,Ponca City,OK,74601,36.7,-97.1
3385,Ponce,PR,728,18.1,-66.6
3386,Ponce,PR,780,18.0,-66.6
3387,Ponchatoula,LA,70454,30.4,-90.5
3388,Ponderay,ID,83852,48.3,-116.5
3389,Pontiac,IL,61764,40.9,-88.7
3390,Pontotoc,MS,38863,34.3,-89.0
3391,Pooler,GA,31322,32.1,-81.2
3392,Poplar Bluff,MO,63901,36.8,-90.4
3393,Poplar Bluff,MO,63901,36.8,-90.4
3394,Port Allen,LA,70767,30.4,-91.2
3395,Port Angeles,WA,98362,48.1,-123.4
3396,Port Arthur,TX,77640,29.9,-94.0
3397,Port Arthur,TX,77642,29.9,-93.9
3398,Port Charlotte,FL,33948,27.0,-82.1
3399,Port Charlotte,FL,33948,27.0,-82.1
3400,Port Charlotte,FL,33983,27.0,-82.0
3401,Port Clinton,OH,43452,41.5,-82.9
3402,Port Isabel,TX,78578,26.1,-97.2
3403,Port Lavaca,TX,77979,28.6,-96.6
3404,Port Orange,FL,32127,29.1,-81.0
3405,Port Orange,FL,32129,29.1,-81.0
3406,Port Orchard,WA,98366,47.5,-122.6
3407,Port Richey,FL,34668,28.3,-82.7
3408,Port St Lucie,FL,34952,27.3,-80.3
3409,Port St Lucie,FL,34953,27.3,-80.4
3410,Port St Lucie,FL,34986,27.3,-80.4
3411,Port St Lucie,FL,34986,27.3,-80.4
3412,Port St. Lucie,FL,34953,27.3,-80.4
3413,Portage,IN,46368,41.5,-87.2
3414,Portage,MI,49024,42.2,-85.6
3415,Portage,WI,53901,43.6,-89.5
3416,Portales,NM,88130,34.2,-103.3
3417,Porter,TX,77365,30.1,-95.2
3418,Porter Ranch,CA,91326,34.3,-118.6
3419,Porterville,CA,93257,36.1,-119.0
3420,Portland,IN,47371,40.4,-85.0
3421,Portland,OR,97217,45.6,-122.7
3422,Portland,OR,97266,45.5,-122.6
3423,Portland,TX,78374,27.9,-97.3
3424,Portsmouth,NH,3801,43.0,-70.8
3425,Portsmouth,VA,23707,36.8,-76.3
3426,Post Falls,ID,83854,47.7,-117.0
3427,Post Falls,ID,83854,47.7,-116.9
3428,Poteau,OK,74953,35.1,-94.6
3429,Potosi,MO,63664,37.9,-90.8
3430,Potsdam,NY,13676,44.7,-75.0
3431,Pottstown,PA,19464,40.3,-75.7
3432,Poulsbo,WA,98370,47.8,-122.7
3433,Pounding Mill,VA,24637,37.1,-81.7
3434,Poway,CA,92064,33.0,-117.0
3435,Powhatan,VA,23139,37.5,-77.8
3436,Prairie Du Chien,WI,53821,43.0,-91.1
3437,Prairieville,LA,70769,30.3,-91.0
3438,Prairieville,LA,70769,30.3,-90.9
3439,Prairieville,LA,70769,30.3,-91.0
3440,Pratt,KS,67124,37.6,-98.7
3441,Prattville,AL,36066,32.5,-86.4
3442,Prescott,AZ,86301,34.6,-112.4
3443,Prescott,AZ,86305,34.6,-112.5
3444,Prescott Valley,AZ,86314,34.6,-112.3
3445,Presque Isle,ME,4769,46.7,-68.0
3446,Prestonsburg,KY,41653,37.7,-82.8
3447,Price,UT,84501,39.6,-110.8
3448,Prince Frederick,MD,20678,38.5,-76.6
3449,Princeton,IL,61356,41.4,-89.5
3450,Princeton,IN,47670,38.3,-87.6
3451,Princeton,IN,47670,38.4,-87.6
3452,Princeton,KY,42445,37.1,-87.9
3453,Princeton,MN,55371,45.6,-93.6
3454,Princeton,NJ,8540,40.3,-74.7
3455,Princeton,TX,75407,33.2,-96.5
3456,Princeton,WV,24739,37.4,-81.0
3457,Providence,RI,2904,41.8,-71.4
3458,Provo,UT,84604,40.3,-111.7
3459,Pryor,OK,74361,36.3,-95.3
3460,Pueblo,CO,81005,38.2,-104.6
3461,Pueblo,CO,81005,38.2,-104.7
3462,Pueblo,CO,81008,38.3,-104.6
3463,Pueblo West,CO,81007,38.3,-104.7
3464,Pulaski,TN,38478,35.2,-87.1
3465,Pullman,WA,99163,46.7,-117.2
3466,Punta Gorda,FL,33950,26.9,-82.0
3467,Punxsutawney,PA,15767,40.9,-79.0
3468,Purcell,OK,73080,35.0,-97.4
3469,Putnam,CT,6260,41.9,-71.9
3470,Puyallup,WA,98374,47.2,-122.3
3471,Puyallup,WA,98375,47.1,-122.3
3472,Quakertown,PA,18951,40.4,-75.4
3473,Queen Creek,AZ,85142,33.3,-111.6
3474,Queensbury,NY,12804,43.3,-73.6
3475,Queensbury,NY,12804,43.3,-73.7
3476,Quincy,FL,32351,30.6,-84.6
3477,Quincy,IL,62305,39.9,-91.3
3478,Quincy,MA,2169,42.2,-71.0
3479,Quincy,WV,25015,38.2,-81.5
3480,Quinlan,TX,75474,32.9,-96.1
3481,Raceland,LA,70394,29.7,-90.6
3482,Radcliff,KY,40160,37.8,-85.9
3483,Radcliff,KY,40160,37.8,-85.9
3484,Raeford,NC,28376,35.0,-79.2
3485,Raleigh,NC,27603,35.7,-78.7
3486,Raleigh,NC,27609,35.8,-78.6
3487,Raleigh,NC,27610,35.8,-78.6
3488,Raleigh,NC,27612,35.9,-78.7
3489,Raleigh,NC,27616,35.9,-78.6
3490,Raleigh,NC,27617,35.9,-78.8
3491,Rancho Cordova,CA,95670,38.6,-121.3
3492,Rancho Cucamonga,CA,91739,34.1,-117.5
3493,Rancho Santa Margarita,CA,92688,33.6,-117.6
3494,Randallstown,MD,21133,39.4,-76.8
3495,Randleman,NC,27317,35.8,-79.8
3496,Rantoul,IL,61866,40.3,-88.2
3497,Rapid City,SD,57701,44.0,-103.2
3498,Rapid City,SD,57701,44.1,-103.2
3499,Ravenna,OH,44266,41.2,-81.3
3500,Rawlins,WY,82301,41.8,-107.2
3501,Raymore,MO,64083,38.8,-94.5
3502,Raynham,MA,2767,41.9,-71.0
3503,Raynham,MA,2767,41.9,-71.1
3504,Raytown,MO,64138,39.0,-94.5
3505,Rayville,LA,71269,32.5,-91.8
3506,Reading,PA,19606,40.3,-75.8
3507,Red Bluff,CA,96080,40.2,-122.2
3508,Red Oak,TX,75154,32.5,-96.8
3509,Red Wing,MN,55066,44.6,-92.6
3510,Redding,CA,96003,40.6,-122.3
3511,Redlands,CA,92373,34.1,-117.2
3512,Redmond,OR,97756,44.3,-121.2
3513,Redwood Falls,MN,56283,44.5,-95.1
3514,Rehoboth Beach,DE,19971,38.7,-75.1
3515,Reidsville,NC,27320,36.4,-79.7
3516,Reno,NV,89502,39.5,-119.8
3517,Reno,NV,89506,39.6,-119.9
3518,Reno,NV,89509,39.5,-119.8
3519,Reno,NV,89521,39.4,-119.8
3520,Reno,NV,89523,39.5,-119.9
3521,Rensselaer,IN,47978,40.9,-87.2
3522,Rensselaer,NY,12144,42.6,-73.7
3523,Renton,WA,98057,47.5,-122.2
3524,Republic,MO,65738,37.1,-93.5
3525,Rexburg,ID,83440,43.8,-111.8
3526,Reynoldsburg,OH,43068,39.9,-82.8
3527,Rhinelander,WI,54501,45.6,-89.4
3528,Rialto,CA,92376,34.1,-117.4
3529,Rialto,CA,92376,34.1,-117.4
3530,Rice Lake,WI,54868,45.5,-91.8
3531,Richardson,TX,75081,32.9,-96.7
3532,Richfield,UT,84701,38.7,-112.1
3533,Richland,MS,39218,32.2,-90.2
3534,Richland,WA,99352,46.3,-119.3
3535,Richland Center,WI,53581,43.3,-90.3
3536,Richland Hills,TX,76118,32.8,-97.2
3537,Richlands,NC,28574,34.9,-77.6
3538,Richmond,CA,94806,38.0,-122.3
3539,Richmond,IN,47374,39.8,-84.9
3540,Richmond,KY,40475,37.7,-84.3
3541,Richmond,MO,64085,39.3,-94.0
3542,Richmond,TX,77406,29.7,-95.8
3543,Richmond,TX,77469,29.6,-95.8
3544,Richmond,VA,23225,37.5,-77.5
3545,Richmond,VA,23227,37.6,-77.5
3546,Richmond,VA,23227,37.6,-77.5
3547,Richmond,VA,23229,37.6,-77.6
3548,Richmond,VA,23230,37.6,-77.5
3549,Richmond,VA,23284,37.6,-77.5
3550,Ridgecrest,CA,93555,35.6,-117.7
3551,Ridgeland,MS,39157,32.4,-90.1
3552,Rifle,CO,81650,39.5,-107.8
3553,Rincon,GA,31326,32.3,-81.2
3554,Rindge,NH,3461,42.7,-72.0
3555,Rio Grande,NJ,8242,39.0,-74.9
3556,Rio Grande City,TX,78582,26.4,-98.8
3557,Rio Rancho,NM,87124,35.2,-106.7
3558,Rio Rancho,NM,87124,35.2,-106.7
3559,Ripley,MS,38663,34.7,-89.0
3560,Ripley,TN,38063,35.8,-89.5
3561,Ripley,WV,25271,38.8,-81.7
3562,Riverdale,GA,30274,33.6,-84.4
3563,Riverdale,NJ,7457,41.0,-74.3
3564,Riverdale,UT,84405,41.2,-112.0
3565,Riverhead,NY,11901,40.9,-72.7
3566,Riverside,CA,92503,33.9,-117.5
3567,Riverside,CA,92507,33.9,-117.3
3568,Riverton,UT,84065,40.5,-112.0
3569,Riverton,UT,84065,40.5,-111.9
3570,Riverton,WY,82501,43.0,-108.4
3571,Riverview,FL,33578,27.8,-82.3
3572,Riverview,FL,33578,27.9,-82.3
3573,Roanoke,AL,36274,33.2,-85.4
3574,Roanoke,TX,76262,33.0,-97.2
3575,Roanoke,VA,24012,37.3,-80.0
3576,Roanoke,VA,24012,37.3,-79.9
3577,Roanoke,VA,24013,37.3,-79.9
3578,Roanoke,VA,24014,37.2,-80.0
3579,Roanoke,VA,24019,37.3,-79.9
3580,Roanoke Rapids,NC,27870,36.4,-77.6
3581,Robertsdale,AL,36567,30.5,-87.7
3582,Robinson,IL,62454,39.0,-87.7
3583,Rochelle,IL,61068,41.9,-89.1
3584,Rochester,IN,46975,41.1,-86.2
3585,Rochester,MN,55901,44.1,-92.5
3586,Rochester,MN,55904,44.0,-92.5
3587,Rochester,NH,3867,43.3,-71.0
3588,Rochester,NY,14621,43.2,-77.6
3589,Rochester,NY,14623,43.1,-77.6
3590,Rochester,NY,14624,43.1,-77.7
3591,Rochester Hills,MI,48309,42.6,-83.2
3592,Rock Falls,IL,61071,41.8,-89.7
3593,Rock Hill,SC,29730,34.9,-81.0
3594,Rock Hill,SC,29730,35.0,-81.0
3595,Rock Hill,SC,29732,35.0,-81.1
3596,Rock Springs,WY,82901,41.6,-109.3
3597,Rockaway,NJ,7866,40.9,-74.6
3598,Rockdale,TX,76567,30.6,-97.0
3599,Rockford,IL,61101,42.3,-89.1
3600,Rockford,IL,61108,42.3,-89.0
3601,Rockford,IL,61114,42.3,-89.0
3602,Rockingham,NC,28379,34.9,-79.7
3603,Rockingham,VA,22801,38.4,-78.9
3604,Rocklin,CA,95677,38.8,-121.2
3605,Rocklin,CA,95677,38.8,-121.2
3606,Rockmart,GA,30153,34.0,-85.0
3607,Rockport,TX,78382,28.0,-97.0
3608,Rockwall,TX,75087,32.9,-96.5
3609,Rockwall,TX,75087,32.9,-96.5
3610,Rockwood,TN,37854,35.9,-84.7
3611,Rocky Hill,CT,6067,41.7,-72.7
3612,Rocky Mount,NC,27804,36.0,-77.8
3613,Rocky Mount,VA,24151,37.0,-79.9
3614,Roeland Park,KS,66205,39.0,-94.6
3615,Rogers,AR,72756,36.3,-94.1
3616,Rogers,AR,72756,36.3,-94.1
3617,Rogers,AR,72756,36.3,-94.1
3618,Rogers,AR,72758,36.3,-94.2
3619,Rogers,AR,72758,36.3,-94.2
3620,Rogers,AR,72758,36.3,-94.2
3621,Rogers,AR,72758,36.3,-94.2
3622,Rogersville,TN,37857,36.4,-83.0
3623,Rohnert Park,CA,94928,38.4,-122.7
3624,Rohnert Park,CA,94928,38.4,-122.7
3625,Rolla,MO,65401,37.9,-91.8
3626,Rolling Meadows,IL,60008,42.1,-88.0
3627,Rome,GA,30161,34.2,-85.1
3628,Rome,GA,30165,34.3,-85.2
3629,Rome,NY,13440,43.2,-75.5
3630,Romeoville,IL,60446,41.6,-88.1
3631,Roscoe,IL,61073,42.5,-89.0
3632,Roseburg,OR,97471,43.2,-123.4
3633,Rosemead,CA,91770,34.1,-118.1
3634,Roseville,CA,95661,38.7,-121.3
3635,Roseville,CA,95678,38.8,-121.3
3636,Roseville,MI,48066,42.5,-82.9
3637,Roseville,MN,55113,45.0,-93.2
3638,Roswell,GA,30076,34.0,-84.3
3639,Roswell,NM,88201,33.5,-104.5
3640,Round Lake Beach,IL,60073,42.4,-88.1
3641,Round Rock,TX,78664,30.5,-97.7
3642,Round Rock,TX,78665,30.5,-97.6
3643,Rowlett,TX,75088,32.9,-96.6
3644,Rowlett,TX,75088,32.9,-96.5
3645,Roxboro,NC,27573,36.4,-79.0
3646,Royse City,TX,75189,33.0,-96.3
3647,Ruckersville,VA,22968,38.2,-78.4
3648,Ruidoso Downs,NM,88346,33.3,-105.6
3649,Russellville,AL,35653,34.5,-87.7
3650,Russellville,AR,72801,35.3,-93.2
3651,Russellville,AR,72802,35.3,-93.1
3652,Russellville,KY,42276,36.8,-86.9
3653,Ruston,LA,71270,32.5,-92.6
3654,Ruston,LA,71270,32.5,-92.6
3655,Rutland,VT,5701,43.6,-73.0
3656,Sachse,TX,75048,33.0,-96.6
3657,Sachse,TX,75048,33.0,-96.6
3658,Sacramento,CA,95821,38.6,-121.4
3659,Sacramento,CA,95823,38.5,-121.5
3660,Sacramento,CA,95823,38.5,-121.4
3661,Sacramento,CA,95829,38.5,-121.4
3662,Sacramento,CA,95832,38.5,-121.5
3663,Sacramento,CA,95834,38.6,-121.5
3664,Sacramento,CA,95842,38.7,-121.3
3665,Saddle Brook,NJ,7663,40.9,-74.1
3666,Safford,AZ,85546,32.8,-109.7
3667,Saginaw,MI,48604,43.5,-84.0
3668,Saginaw,MI,48638,43.4,-84.0
3669,Saginaw,TX,76179,32.9,-97.4
3670,Saint Albans,VT,5478,44.8,-73.1
3671,Saint Charles,IL,60174,41.9,-88.3
3672,Saint Charles,MO,63303,38.8,-90.5
3673,Saint Clair,PA,17970,40.7,-76.2
3674,Saint Clairsville,OH,43950,40.1,-80.9
3675,Saint Cloud,FL,34769,28.3,-81.3
3676,Saint Cloud,FL,34772,28.2,-81.3
3677,Saint Croix Falls,WI,54024,45.4,-92.6
3678,Saint Helens,OR,97051,45.8,-122.8
3679,Saint Johns,MI,48879,43.0,-84.5
3680,Saint Joseph,MO,64503,39.7,-94.8
3681,Saint Joseph,MO,64506,39.8,-94.8
3682,Saint Louis,MO,63125,38.5,-90.3
3683,Saint Louis,MO,63136,38.8,-90.3
3684,Saint Marys,GA,31558,30.8,-81.6
3685,Saint Marys,PA,15857,41.4,-78.6
3686,Saint Paul,MN,55104,45.0,-93.2
3687,Saint Paul,MN,55118,44.9,-93.1
3688,Saint Peters,MO,63304,38.7,-90.6
3689,Saint Robert,MO,65584,37.8,-92.2
3690,Salem,IL,62881,38.6,-89.0
3691,Salem,IN,47167,38.6,-86.1
3692,Salem,MA,1970,42.5,-70.9
3693,Salem,MO,65560,37.6,-91.5
3694,Salem,NH,3079,42.8,-71.2
3695,Salem,OH,44460,40.9,-80.8
3696,Salem,OR,97302,44.9,-123.0
3697,Salem,OR,97305,45.0,-123.0
3698,Salem,OR,97306,44.9,-123.0
3699,Salem,VA,24153,37.3,-80.1
3700,Salida,CO,81201,38.5,-106.0
3701,Salina,KS,67401,38.8,-97.6
3702,Salinas,CA,93906,36.7,-121.7
3703,Salinas,CA,93907,36.7,-121.7
3704,Saline,MI,48176,42.2,-83.7
3705,Saline,MI,48176,42.2,-83.7
3706,Salisbury,MD,21801,38.4,-75.6
3707,Salisbury,MD,21826,38.3,-75.6
3708,Salisbury,NC,28144,35.7,-80.5
3709,Sallisaw,OK,74955,35.5,-94.8
3710,Salt Lake City,UT,84109,40.7,-111.8
3711,Salt Lake City,UT,84115,40.7,-111.9
3712,Salt Lake City,UT,84117,40.7,-111.9
3713,San Angelo,TX,76901,31.5,-100.5
3714,San Angelo,TX,76903,31.4,-100.4
3715,San Angelo,TX,76903,31.5,-100.5
3716,San Angelo,TX,76904,31.4,-100.5
3717,San Angelo,TX,76904,31.4,-100.5
3718,San Antonio,TX,78209,29.5,-98.4
3719,San Antonio,TX,78211,29.3,-98.6
3720,San Antonio,TX,78213,29.5,-98.5
3721,San Antonio,TX,78214,29.4,-98.5
3722,San Antonio,TX,78216,29.5,-98.5
3723,San Antonio,TX,78217,29.6,-98.4
3724,San Antonio,TX,78218,29.5,-98.4
3725,San Antonio,TX,78220,29.4,-98.4
3726,San Antonio,TX,78223,29.3,-98.4
3727,San Antonio,TX,78228,29.5,-98.6
3728,San Antonio,TX,78229,29.5,-98.6
3729,San Antonio,TX,78231,29.6,-98.5
3730,San Antonio,TX,78232,29.6,-98.5
3731,San Antonio,TX,78242,29.4,-98.6
3732,San Antonio,TX,78244,29.5,-98.4
3733,San Antonio,TX,78245,29.4,-98.7
3734,San Antonio,TX,78245,29.4,-98.6
3735,San Antonio,TX,78247,29.6,-98.4
3736,San Antonio,TX,78249,29.6,-98.6
3737,San Antonio,TX,78249,29.6,-98.6
3738,San Antonio,TX,78250,29.5,-98.7
3739,San Antonio,TX,78250,29.5,-98.6
3740,San Antonio,TX,78251,29.5,-98.7
3741,San Antonio,TX,78251,29.5,-98.7
3742,San Antonio,TX,78253,29.4,-98.7
3743,San Antonio,TX,78254,29.5,-98.7
3744,San Antonio,TX,78254,29.5,-98.7
3745,San Antonio,TX,78257,29.7,-98.6
3746,San Antonio,TX,78264,29.3,-98.5
3747,San Benito,TX,78586,26.1,-97.6
3748,San Bernardino,CA,92407,34.2,-117.3
3749,San Clemente,CA,92673,33.5,-117.6
3750,San Diego,CA,92102,32.7,-117.1
3751,San Diego,CA,92111,32.8,-117.2
3752,San Diego,CA,92115,32.7,-117.1
3753,San Diego,CA,92123,32.8,-117.1
3754,San Diego,CA,92154,32.6,-117.0
3755,San Diego,CA,92154,32.6,-117.1
3756,San Jacinto,CA,92583,33.8,-117.0
3757,San Jose,CA,95112,37.3,-121.9
3758,San Jose,CA,95118,37.3,-121.9
3759,San Jose,CA,95122,37.3,-121.9
3760,San Jose,CA,95129,37.3,-122.0
3761,San Jose,CA,95129,37.3,-122.0
3762,San Jose,CA,95135,37.3,-121.8
3763,San Juan,PR,907,18.4,-66.1
3764,San Leandro,CA,94577,37.7,-122.2
3765,San Leandro,CA,94579,37.7,-122.1
3766,San Luis,AZ,85349,32.5,-114.8
3767,San Marcos,CA,92069,33.1,-117.1
3768,San Marcos,TX,78666,29.9,-97.9
3769,San Ramon,CA,94583,37.7,-121.9
3770,San Tan Valley,AZ,85143,33.2,-111.6
3771,Sand Springs,OK,74063,36.1,-96.1
3772,Sandersville,GA,31082,33.0,-82.8
3773,Sandusky,MI,48471,43.4,-82.9
3774,Sandusky,OH,44870,41.4,-82.7
3775,Sandy,UT,84094,40.6,-111.9
3776,Sanford,FL,32771,28.8,-81.3
3777,Sanford,FL,32773,28.8,-81.3
3778,Sanford,ME,4073,43.4,-70.7
3779,Sanford,NC,27332,35.4,-79.1
3780,Sanger,CA,93657,36.7,-119.6
3781,Santa Ana,CA,92704,33.7,-117.9
3782,Santa Clara,CA,95054,37.4,-122.0
3783,Santa Clarita,CA,91350,34.4,-118.5
3784,Santa Clarita,CA,91355,34.4,-118.6
3785,Santa Fe,NM,87507,35.6,-106.0
3786,Santa Fe,NM,87507,35.7,-106.0
3787,Santa Fe Springs,CA,90670,33.9,-118.0
3788,Santa Isabel,PR,757,18.0,-66.4
3789,Santa Maria,CA,93454,34.9,-120.4
3790,Santa Maria,CA,93455,34.9,-120.4
3791,Santa Maria,CA,93458,34.9,-120.5
3792,Santa Rosa Beach,FL,32459,30.4,-86.3
3793,Santee,CA,92071,32.8,-117.0
3794,Sapulpa,OK,74066,36.0,-96.1
3795,Saraland,AL,36571,30.8,-88.1
3796,Sarasota,FL,34233,27.3,-82.5
3797,Sarasota,FL,34233,27.3,-82.5
3798,Sarasota,FL,34234,27.4,-82.6
3799,Sarasota,FL,34239,27.3,-82.5
3800,Sarasota,FL,34243,27.4,-82.5
3801,Saratoga Springs,NY,12866,43.1,-73.7
3802,Saratoga Springs,UT,84045,40.4,-111.9
3803,Sartell,MN,56377,45.6,-94.2
3804,Saugus,MA,1906,42.5,-71.0
3805,Sauk Centre,MN,56378,45.7,-94.9
3806,Saukville,WI,53080,43.4,-87.9
3807,Sault Sainte Marie,MI,49783,46.5,-84.4
3808,Savannah,GA,31406,32.0,-81.1
3809,Savannah,GA,31408,32.1,-81.2
3810,Savannah,GA,31410,32.0,-81.0
3811,Savannah,GA,31419,32.0,-81.2
3812,Savannah,GA,31419,32.0,-81.1
3813,Savannah,GA,31419,32.0,-81.3
3814,Savannah,TN,38372,35.2,-88.2
3815,Savoy,IL,61874,40.0,-88.3
3816,Sayre,PA,18840,42.0,-76.5
3817,Scarborough,ME,4074,43.6,-70.3
3818,Schenectady,NY,12303,42.8,-73.9
3819,Schererville,IN,46375,41.5,-87.5
3820,Schertz,TX,78154,29.6,-98.3
3821,Scottsbluff,NE,69361,41.9,-103.7
3822,Scottsboro,AL,35768,34.7,-86.0
3823,Scottsburg,IN,47170,38.7,-85.8
3824,Scottsdale,AZ,85251,33.5,-111.9
3825,Scottsdale,AZ,85260,33.6,-111.9
3826,Seabrook,NH,3874,42.9,-70.9
3827,Seaford,DE,19973,38.7,-75.6
3828,Seagoville,TX,75159,32.6,-96.5
3829,Sealy,TX,77474,29.8,-96.2
3830,Searcy,AR,72143,35.2,-91.8
3831,Searcy,AR,72143,35.2,-91.7
3832,Sebastian,FL,32958,27.8,-80.5
3833,Sebring,FL,33870,27.5,-81.5
3834,Secaucus,NJ,7094,40.8,-74.0
3835,Sedalia,MO,65301,38.7,-93.3
3836,Seekonk,MA,2771,41.8,-71.3
3837,Seffner,FL,33584,28.0,-82.3
3838,Seguin,TX,78155,29.6,-97.9
3839,Selinsgrove,PA,17870,40.8,-76.8
3840,Selma,AL,36703,32.4,-87.0
3841,Selma,CA,93662,36.6,-119.6
3842,Selmer,TN,38375,35.1,-88.6
3843,Seminole,OK,74868,35.2,-96.7
3844,Seminole,TX,79360,32.7,-102.7
3845,Semmes,AL,36575,30.8,-88.2
3846,Senatobia,MS,38668,34.6,-90.0
3847,Seneca,SC,29678,34.7,-83.0
3848,Sequim,WA,98382,48.1,-123.1
3849,Severn,MD,21144,39.1,-76.6
3850,Sevierville,TN,37862,35.8,-83.6
3851,Sevierville,TN,37862,35.9,-83.5
3852,Seward,NE,68434,40.9,-97.1
3853,Seymour,IN,47274,39.0,-85.9
3854,Shakopee,MN,55379,44.8,-93.4
3855,Shallotte,NC,28470,34.0,-78.4
3856,Shawano,WI,54166,44.8,-88.6
3857,Shawnee,KS,66203,39.0,-94.7
3858,Shawnee,KS,66217,39.0,-94.8
3859,Shawnee,KS,66226,39.0,-94.8
3860,Shawnee,OK,74804,35.4,-96.9
3861,Sheboygan,WI,53081,43.7,-87.8
3862,Sheboygan,WI,53083,43.8,-87.8
3863,Shelby,NC,28152,35.3,-81.5
3864,Shelby Township,MI,48315,42.7,-83.0
3865,Shelbyville,IL,62565,39.4,-88.8
3866,Shelbyville,IN,46176,39.5,-85.7
3867,Shelbyville,KY,40065,38.2,-85.3
3868,Shelbyville,TN,37160,35.5,-86.5
3869,Shelton,CT,6484,41.3,-73.1
3870,Shelton,WA,98584,47.2,-123.1
3871,Shenandoah,IA,51601,40.8,-95.4
3872,Shepherdsville,KY,40165,38.0,-85.7
3873,Sheridan,AR,72150,34.3,-92.4
3874,Sheridan,WY,82801,44.8,-106.9
3875,Sherman,TX,75092,33.7,-96.6
3876,Sherman,TX,75092,33.7,-96.6
3877,Sherwood,AR,72120,34.8,-92.2
3878,Sherwood,AR,72120,34.8,-92.2
3879,Sherwood,OR,97140,45.4,-122.8
3880,Shippensburg,PA,17257,40.1,-77.5
3881,Shorewood,IL,60431,41.5,-88.2
3882,Show Low,AZ,85901,34.2,-110.0
3883,Shreveport,LA,71105,32.4,-93.7
3884,Shreveport,LA,71105,32.5,-93.7
3885,Shreveport,LA,71106,32.4,-93.8
3886,Shreveport,LA,71107,32.6,-93.8
3887,Shreveport,LA,71118,32.4,-93.8
3888,Shreveport,LA,71129,32.4,-93.9
3889,Shrewsbury,MO,63119,38.6,-90.3
3890,Shrewsbury,PA,17361,39.8,-76.7
3891,Sidney,NE,69162,41.1,-102.9
3892,Sidney,OH,45365,40.3,-84.2
3893,Sierra Vista,AZ,85635,31.6,-110.3
3894,Sikeston,MO,63801,36.9,-89.6
3895,Siler City,NC,27344,35.7,-79.4
3896,Siloam Springs,AR,72761,36.2,-94.6
3897,Siloam Springs,AR,72761,36.2,-94.5
3898,Silsbee,TX,77656,30.3,-94.1
3899,Silver City,NM,88061,32.8,-108.2
3900,Silvis,IL,61282,41.5,-90.4
3901,Simi Valley,CA,93063,34.3,-118.7
3902,Simi Valley,CA,93065,34.3,-118.8
3903,Simpsonville,SC,29680,34.7,-82.3
3904,Simpsonville,SC,29680,34.7,-82.3
3905,Simpsonville,SC,29681,34.8,-82.3
3906,Sioux Center,IA,51250,43.1,-96.2
3907,Sioux City,IA,51106,42.4,-96.4
3908,Sioux City,IA,51108,42.5,-96.4
3909,Sioux Falls,SD,57106,43.5,-96.8
3910,Sioux Falls,SD,57107,43.6,-96.8
3911,Sioux Falls,SD,57108,43.5,-96.7
3912,Sioux Falls,SD,57110,43.5,-96.7
3913,Skiatook,OK,74070,36.4,-96.0
3914,Skokie,IL,60076,42.0,-87.7
3915,Skowhegan,ME,4976,44.8,-69.7
3916,Slidell,LA,70458,30.3,-89.8
3917,Slidell,LA,70458,30.3,-89.8
3918,Slidell,LA,70460,30.3,-89.8
3919,Slidell,LA,70461,30.3,-89.7
3920,Smelterville,ID,83868,47.5,-116.2
3921,Smithfield,NC,27577,35.5,-78.3
3922,Smithville,TN,37166,36.0,-85.8
3923,Smyrna,TN,37167,36.0,-86.5
3924,Snellville,GA,30039,33.8,-84.0
3925,Snellville,GA,30078,33.9,-84.0
3926,Snellville,GA,30078,33.9,-84.0
3927,Snyder,TX,79549,32.7,-100.9
3928,Socorro,NM,87801,34.1,-106.9
3929,Socorro,TX,79927,31.7,-106.3
3930,Soddy Daisy,TN,37379,35.2,-85.2
3931,Somerdale,NJ,8083,39.9,-75.0
3932,Somerset,KY,42501,37.1,-84.6
3933,Somerset,PA,15501,40.1,-79.1
3934,Somersworth,NH,3878,43.2,-70.9
3935,Sonora,CA,95370,38.0,-120.4
3936,South Bend,IN,46614,41.6,-86.3
3937,South Bend,IN,46628,41.7,-86.3
3938,South Boston,VA,24592,36.7,-78.9
3939,South Charleston,WV,25309,38.3,-81.7
3940,South Euclid,OH,44121,41.5,-81.5
3941,South Gate,CA,90280,34.0,-118.2
3942,South Haven,MI,49090,42.4,-86.2
3943,South Hill,VA,23970,36.7,-78.1
3944,South Jordan,UT,84095,40.5,-111.9
3945,South Jordan,UT,84095,40.6,-112.0
3946,South Milwaukee,WI,53172,42.9,-87.9
3947,South Ogden,UT,84405,41.2,-111.9
3948,South Point,OH,45680,38.4,-82.5
3949,South Sioux City,NE,68776,42.5,-96.4
3950,South Williamson,KY,41503,37.7,-82.3
3951,Southaven,MS,38671,35.0,-90.0
3952,Southgate,MI,48195,42.2,-83.2
3953,Southington,CT,6489,41.6,-72.9
3954,Southport,NC,28461,33.9,-78.0
3955,Spanaway,WA,98387,47.1,-122.4
3956,Spanish Fork,UT,84660,40.1,-111.6
3957,Spanish Fork,UT,84660,40.1,-111.6
3958,Sparks,NV,89436,39.6,-119.7
3959,Sparta,IL,62286,38.1,-89.7
3960,Sparta,TN,38583,35.9,-85.5
3961,Sparta,WI,54656,43.9,-90.8
3962,Spartanburg,SC,29301,34.9,-82.0
3963,Spartanburg,SC,29302,34.9,-81.9
3964,Spartanburg,SC,29307,35.0,-81.9
3965,Spearfish,SD,57783,44.5,-103.8
3966,Spencer,IA,51301,43.1,-95.2
3967,Spencer,IN,47460,39.3,-86.8
3968,Spencer,WV,25276,38.8,-81.4
3969,Spirit Lake,IA,51360,43.4,-95.1
3970,Spokane,WA,99205,47.7,-117.4
3971,Spokane,WA,99218,47.7,-117.4
3972,Spokane,WA,99224,47.6,-117.6
3973,Spokane Valley,WA,99037,47.7,-117.2
3974,Spokane Valley,WA,99212,47.7,-117.3
3975,Spring,TX,77373,30.1,-95.4
3976,Spring,TX,77373,30.1,-95.4
3977,Spring,TX,77379,30.1,-95.5
3978,Spring,TX,77380,30.1,-95.5
3979,Spring,TX,77386,30.1,-95.4
3980,Spring,TX,77386,30.1,-95.4
3981,Spring Branch,TX,78070,29.8,-98.4
3982,Spring Hill,FL,34606,28.5,-82.6
3983,Spring Hill,FL,34609,28.5,-82.5
3984,Spring Hill,TN,37174,35.8,-86.9
3985,Spring Lake,NC,28390,35.2,-79.0
3986,Springdale,AR,72762,36.2,-94.2
3987,Springdale,AR,72762,36.2,-94.2
3988,Springdale,AR,72762,36.2,-94.2
3989,Springdale,AR,72764,36.2,-94.1
3990,Springdale,AR,72764,36.2,-94.1
3991,Springfield,IL,62702,39.8,-89.6
3992,Springfield,IL,62703,39.7,-89.6
3993,Springfield,IL,62704,39.8,-89.7
3994,Springfield,MA,1119,42.1,-72.5
3995,Springfield,MO,65802,37.1,-93.3
3996,Springfield,MO,65802,37.2,-93.4
3997,Springfield,MO,65803,37.2,-93.3
3998,Springfield,MO,65803,37.2,-93.3
3999,Springfield,MO,65804,37.1,-93.3
4000,Springfield,MO,65804,37.2,-93.3
4001,Springfield,MO,65807,37.2,-93.3
4002,Springfield,MO,65807,37.2,-93.4
4003,Springfield,MO,65807,37.2,-93.3
4004,Springfield,MO,65809,37.2,-93.2
4005,Springfield,MO,65810,37.1,-93.3
4006,Springfield,OH,45504,40.0,-83.8
4007,Springfield,OH,45505,39.9,-83.7
4008,Springfield,OR,97477,44.1,-123.0
4009,Springfield,OR,97477,44.1,-123.0
4010,Springfield,PA,19064,39.9,-75.4
4011,Springfield,TN,37172,36.5,-86.9
4012,Springhill,LA,71075,33.0,-93.5
4013,Springville,AL,35146,33.8,-86.4
4014,Springville,NY,14141,42.5,-78.7
4015,Springville,UT,84663,40.2,-111.6
4016,Spruce Pine,NC,28777,35.9,-82.0
4017,St Augustine,FL,32086,29.9,-81.3
4018,St Cloud,MN,56301,45.6,-94.2
4019,St George,UT,84790,37.1,-113.6
4020,St Petersburg,FL,33708,27.8,-82.8
4021,St Petersburg,FL,33711,27.7,-82.7
4022,St Petersburg,FL,33713,27.8,-82.7
4023,St. Pauls,NC,28384,34.8,-79.0
4024,St. Peters,MO,63376,38.8,-90.6
4025,St. Peters,MO,63376,38.8,-90.6
4026,Stafford,TX,77477,29.6,-95.6
4027,Stafford,VA,22554,38.5,-77.4
4028,Stafford,VA,22556,38.5,-77.5
4029,Stamford,TX,79553,33.0,-99.8
4030,Stanford,KY,40484,37.5,-84.6
4031,Stanton,CA,90680,33.8,-118.0
4032,Starke,FL,32091,29.9,-82.1
4033,Starkville,MS,39759,33.4,-88.9
4034,State College,PA,16801,40.8,-77.8
4035,State College,PA,16803,40.8,-77.9
4036,Statesboro,GA,30458,32.4,-81.8
4037,Statesboro,GA,30458,32.4,-81.8
4038,Statesville,NC,28625,35.8,-80.9
4039,Staunton,VA,24401,38.1,-79.0
4040,Steamboat Springs,CO,80487,40.5,-106.8
4041,Stephenville,TX,76401,32.2,-98.2
4042,Sterling,CO,80751,40.6,-103.2
4043,Sterling,IL,61081,41.8,-89.6
4044,Sterling,VA,20166,39.0,-77.4
4045,Sterling Heights,MI,48312,42.5,-83.0
4046,Sterling Heights,MI,48314,42.6,-83.1
4047,Steubenville,OH,43952,40.4,-80.7
4048,Stevenson Ranch,CA,91381,34.4,-118.6
4049,Stigler,OK,74462,35.3,-95.1
4050,Stillwater,OK,74074,36.1,-97.1
4051,Stillwater,OK,74075,36.1,-97.0
4052,Stillwater,OK,74075,36.1,-97.0
4053,Stilwell,OK,74960,35.8,-94.6
4054,Stockbridge,GA,30281,33.5,-84.2
4055,Stockbridge,GA,30281,33.6,-84.3
4056,Stockton,CA,95210,38.0,-121.3
4057,Stockton,CA,95212,38.0,-121.3
4058,Stockton,CA,95219,38.0,-121.4
4059,Stone Mountain,GA,30083,33.8,-84.2
4060,Stone Mountain,GA,30087,33.8,-84.1
4061,Storm Lake,IA,50588,42.7,-95.2
4062,Stoughton,WI,53589,42.9,-89.2
4063,Stow,OH,44224,41.2,-81.5
4064,Stratford,CT,6614,41.2,-73.1
4065,Streamwood,IL,60107,42.0,-88.1
4066,Streator,IL,61364,41.2,-88.8
4067,Streetsboro,OH,44241,41.3,-81.4
4068,Strongsville,OH,44136,41.3,-81.8
4069,Stuart,FL,34997,27.2,-80.2
4070,Stuart,VA,24171,36.6,-80.2
4071,Sturbridge,MA,1566,42.1,-72.1
4072,Sturgeon Bay,WI,54235,44.9,-87.4
4073,Sturgis,MI,49091,41.8,-85.4
4074,Sturtevant,WI,53177,42.7,-87.9
4075,Stuttgart,AR,72160,34.5,-91.5
4076,Suffern,NY,10901,41.1,-74.1
4077,Suffolk,VA,23434,36.7,-76.6
4078,Suffolk,VA,23435,36.9,-76.4
4079,Sugar Land,TX,77478,29.6,-95.6
4080,Sugar Land,TX,77478,29.7,-95.6
4081,Suisun City,CA,94585,38.2,-122.0
4082,Sullivan,IN,47882,39.1,-87.4
4083,Sullivan,MO,63080,38.2,-91.2
4084,Sulphur,LA,70663,30.2,-93.3
4085,Sulphur,OK,73086,34.5,-97.0
4086,Sulphur Springs,TX,75482,33.1,-95.6
4087,Sumiton,AL,35148,33.7,-87.0
4088,Summerfield,FL,34491,29.0,-82.0
4089,Summersville,WV,26651,38.3,-80.8
4090,Summerville,SC,29483,33.0,-80.2
4091,Summerville,SC,29483,33.0,-80.2
4092,Summerville,SC,29485,33.0,-80.2
4093,Summerville,SC,29485,33.0,-80.2
4094,Sumter,SC,29150,33.9,-80.4
4095,Sumter,SC,29150,33.9,-80.4
4096,Sumter,SC,29150,34.0,-80.4
4097,Sun Prairie,WI,53590,43.2,-89.2
4098,Sunnyside,WA,98944,46.3,-120.0
4099,Sunrise,FL,33323,26.1,-80.3
4100,Sunrise,FL,33351,26.2,-80.3
4101,Superior,WI,54880,46.7,-92.1
4102,Surfside Beach,SC,29575,33.6,-79.0
4103,Surprise,AZ,85374,33.6,-112.4
4104,Surprise,AZ,85374,33.6,-112.4
4105,Surprise,AZ,85388,33.6,-112.4
4106,Susanville,CA,96130,40.4,-120.6
4107,Sutton,WV,26601,38.7,-80.7
4108,Suwanee,GA,30024,34.0,-84.1
4109,Swainsboro,GA,30401,32.6,-82.3
4110,Swansea,MA,2777,41.8,-71.2
4111,Sweetwater,TN,37874,35.6,-84.5
4112,Sweetwater,TX,79556,32.5,-100.4
4113,Sykesville,MD,21784,39.4,-76.9
4114,Sylacauga,AL,35150,33.2,-86.3
4115,Sylva,NC,28779,35.4,-83.2
4116,Sylvester,GA,31791,31.5,-83.8
4117,Syracuse,UT,84075,41.1,-112.1
4118,Tacoma,WA,98405,47.2,-122.5
4119,Tahlequah,OK,74464,35.9,-95.0
4120,Talladega,AL,35160,33.4,-86.1
4121,Tallahassee,FL,32303,30.5,-84.3
4122,Tallahassee,FL,32304,30.5,-84.4
4123,Tallahassee,FL,32311,30.4,-84.2
4124,Tallahassee,FL,32312,30.5,-84.2
4125,Tallahassee,FL,32317,30.5,-84.2
4126,Tallassee,AL,36078,32.6,-85.9
4127,Tamaqua,PA,18252,40.8,-76.0
4128,Tamarac,FL,33321,26.2,-80.3
4129,Tampa,FL,33604,28.0,-82.5
4130,Tampa,FL,33606,27.9,-82.5
4131,Tampa,FL,33607,28.0,-82.5
4132,Tampa,FL,33610,28.0,-82.4
4133,Tampa,FL,33611,27.9,-82.5
4134,Tampa,FL,33612,28.1,-82.4
4135,Tampa,FL,33613,28.1,-82.5
4136,Tampa,FL,33614,28.0,-82.5
4137,Tampa,FL,33614,28.0,-82.5
4138,Tampa,FL,33615,28.0,-82.6
4139,Tampa,FL,33618,28.1,-82.5
4140,Tampa,FL,33624,28.0,-82.5
4141,Tampa,FL,33625,28.1,-82.6
4142,Tampa,FL,33634,28.0,-82.6
4143,Tampa,FL,33647,28.2,-82.4
4144,Taos,NM,87571,36.4,-105.6
4145,Tappahannock,VA,22560,37.9,-76.9
4146,Tarboro,NC,27886,35.9,-77.5
4147,Tarentum,PA,15084,40.6,-79.8
4148,Tarpon Springs,FL,34689,28.1,-82.7
4149,Tawas City,MI,48763,44.3,-83.5
4150,Taylor,AZ,85939,34.5,-110.1
4151,Taylor,MI,48180,42.3,-83.3
4152,Taylor,PA,18517,41.4,-75.7
4153,Taylor,TX,76574,30.6,-97.4
4154,Taylors,SC,29687,34.9,-82.3
4155,Taylorsville,NC,28681,35.9,-81.2
4156,Taylorsville,UT,84123,40.7,-111.9
4157,Taylorville,IL,62568,39.6,-89.3
4158,Teaticket,MA,2536,41.6,-70.6
4159,Tega Cay,SC,29708,35.0,-81.0
4160,Tell City,IN,47586,37.9,-86.8
4161,Temecula,CA,92592,33.5,-117.1
4162,Tempe,AZ,85281,33.4,-111.9
4163,Tempe,AZ,85282,33.4,-111.9
4164,Tempe,AZ,85284,33.4,-112.0
4165,Temple,PA,19560,40.4,-75.9
4166,Temple,TX,76502,31.1,-97.4
4167,Temple,TX,76502,31.1,-97.4
4168,Terre Haute,IN,47802,39.4,-87.4
4169,Terre Haute,IN,47803,39.4,-87.3
4170,Terrell,TX,75160,32.7,-96.3
4171,Teterboro,NJ,7608,40.9,-74.1
4172,Texarkana,AR,71854,33.5,-94.0
4173,Texarkana,TX,75501,33.4,-94.1
4174,Texarkana,TX,75503,33.4,-94.1
4175,Texarkana,TX,75503,33.5,-94.1
4176,Thayer,MO,65791,36.5,-91.5
4177,The Village,OK,73120,35.6,-97.5
4178,The Villages,FL,32162,28.9,-82.0
4179,The Villages,FL,32163,28.9,-82.0
4180,The Woodlands,TX,77384,30.2,-95.5
4181,Theodore,AL,36582,30.6,-88.2
4182,Thibodaux,LA,70301,29.8,-90.8
4183,Thibodaux,LA,70301,29.8,-90.8
4184,Thief River Falls,MN,56701,48.1,-96.2
4185,Thomaston,GA,30286,32.9,-84.3
4186,Thomaston,ME,4861,44.1,-69.1
4187,Thomasville,AL,36784,31.9,-87.7
4188,Thomasville,GA,31757,30.9,-83.9
4189,Thomasville,NC,27360,35.9,-80.1
4190,Thomson,GA,30824,33.5,-82.5
4191,Thornton,CO,80229,39.9,-105.0
4192,Thornton,CO,80229,39.9,-105.0
4193,Thornton,CO,80233,39.9,-105.0
4194,Thousand Oaks,CA,91320,34.2,-118.9
4195,Three Rivers,MI,49093,41.9,-85.7
4196,Ticonderoga,NY,12883,43.9,-73.4
4197,Tiffin,OH,44883,41.1,-83.2
4198,Tifton,GA,31793,31.4,-83.5
4199,Tifton,GA,31794,31.5,-83.5
4200,Tigard,OR,97223,45.4,-122.8
4201,Tilton,NH,3276,43.5,-71.6
4202,Timberville,VA,22853,38.6,-78.8
4203,Timnath,CO,80547,40.5,-105.0
4204,Tipton,IA,52772,41.8,-91.1
4205,Titusville,FL,32780,28.6,-80.8
4206,Titusville,PA,16354,41.6,-79.7
4207,Toa Baja,PR,949,18.4,-66.3
4208,Toledo,OH,43614,41.6,-83.6
4209,Toledo,OH,43615,41.7,-83.7
4210,Tomah,WI,54660,44.0,-90.5
4211,Tomball,TX,77375,30.0,-95.6
4212,Tomball,TX,77375,30.1,-95.6
4213,Tomball,TX,77375,30.1,-95.6
4214,Tompkinsville,KY,42167,36.7,-85.7
4215,Toms River,NJ,8755,40.0,-74.2
4216,Tooele,UT,84074,40.6,-112.3
4217,Topeka,KS,66604,39.0,-95.8
4218,Topeka,KS,66605,39.0,-95.6
4219,Topeka,KS,66606,39.1,-95.7
4220,Topeka,KS,66611,39.0,-95.7
4221,Topeka,KS,66617,39.1,-95.7
4222,Torrance,CA,90501,33.9,-118.3
4223,Torrance,CA,90503,33.8,-118.4
4224,Torrance,CA,90503,33.9,-118.4
4225,Torrington,CT,6790,41.8,-73.1
4226,Towson,MD,21286,39.4,-76.6
4227,Tracy,CA,95304,37.8,-121.5
4228,Travelers Rest,SC,29690,35.0,-82.4
4229,Traverse City,MI,49684,44.7,-85.6
4230,Triadelphia,WV,26059,40.1,-80.6
4231,Trinidad,CO,81082,37.1,-104.5
4232,Trion,GA,30753,34.5,-85.3
4233,Troy,AL,36081,31.8,-85.9
4234,Troy,MI,48084,42.5,-83.2
4235,Troy,MO,63379,39.0,-91.0
4236,Troy,NY,12180,42.7,-73.6
4237,Troy,OH,45373,40.1,-84.2
4238,Trumann,AR,72472,35.7,-90.5
4239,Truth Or Consequences,NM,87901,33.2,-107.2
4240,Tucker,GA,30084,33.9,-84.2
4241,Tucker,GA,30084,33.9,-84.2
4242,Tucson,AZ,85705,32.3,-111.0
4243,Tucson,AZ,85705,32.3,-111.0
4244,Tucson,AZ,85706,32.1,-110.9
4245,Tucson,AZ,85710,32.2,-110.8
4246,Tucson,AZ,85710,32.2,-110.8
4247,Tucson,AZ,85710,32.2,-110.8
4248,Tucson,AZ,85711,32.2,-110.9
4249,Tucson,AZ,85712,32.3,-110.9
4250,Tucson,AZ,85713,32.2,-111.0
4251,Tucson,AZ,85716,32.2,-110.9
4252,Tucson,AZ,85719,32.3,-111.0
4253,Tucson,AZ,85730,32.2,-110.8
4254,Tucson,AZ,85741,32.3,-111.0
4255,Tucson,AZ,85743,32.4,-111.1
4256,Tucson,AZ,85746,32.1,-111.0
4257,Tucson,AZ,85746,32.1,-111.0
4258,Tucson,AZ,85747,32.1,-110.8
4259,Tulare,CA,93274,36.2,-119.3
4260,Tullahoma,TN,37388,35.4,-86.2
4261,Tulsa,OK,74105,36.1,-96.0
4262,Tulsa,OK,74112,36.2,-95.9
4263,Tulsa,OK,74114,36.1,-95.9
4264,Tulsa,OK,74133,36.0,-95.9
4265,Tulsa,OK,74133,36.0,-95.9
4266,Tulsa,OK,74133,36.1,-95.9
4267,Tulsa,OK,74135,36.1,-95.9
4268,Tulsa,OK,74137,36.0,-95.9
4269,Tulsa,OK,74137,36.0,-96.0
4270,Tulsa,OK,74146,36.1,-95.9
4271,Tumwater,WA,98512,47.0,-122.9
4272,Tunkhannock,PA,18657,41.5,-75.9
4273,Tupelo,MS,38801,34.3,-88.7
4274,Tupelo,MS,38801,34.3,-88.7
4275,Tupelo,MS,38804,34.3,-88.7
4276,Turlock,CA,95380,37.5,-120.9
4277,Turlock,CA,95380,37.5,-120.8
4278,Turnersville,NJ,8012,39.7,-75.0
4279,Tuscaloosa,AL,35405,33.2,-87.5
4280,Tuscaloosa,AL,35405,33.2,-87.5
4281,Twin Falls,ID,83301,42.6,-114.5
4282,Tyler,TX,75701,32.3,-95.3
4283,Tyler,TX,75702,32.3,-95.3
4284,Tyler,TX,75703,32.3,-95.3
4285,Tyler,TX,75703,32.3,-95.3
4286,Tyler,TX,75703,32.3,-95.3
4287,Tyler,TX,75704,32.4,-95.3
4288,Tyler,TX,75707,32.3,-95.3
4289,Ukiah,CA,95482,39.1,-123.2
4290,Unicoi,TN,37692,36.2,-82.4
4291,Union,MO,63084,38.4,-91.0
4292,Union,NJ,7083,40.7,-74.3
4293,Union,SC,29379,34.7,-81.6
4294,Union City,CA,94587,37.6,-122.1
4295,Union City,GA,30291,33.6,-84.5
4296,Union City,TN,38261,36.4,-89.1
4297,Uniondale,NY,11553,40.7,-73.6
4298,Uniontown,PA,15401,39.9,-79.8
4299,Universal City,TX,78148,29.5,-98.3
4300,Upland,CA,91786,34.1,-117.7
4301,Upland,CA,91786,34.1,-117.6
4302,Upper Sandusky,OH,43351,40.8,-83.2
4303,Urbana,IL,61802,40.1,-88.2
4304,Urbana,OH,43078,40.1,-83.7
4305,Utica,NY,13502,43.1,-75.2
4306,Uvalde,TX,78801,29.2,-99.8
4307,Vacaville,CA,95687,38.3,-122.0
4308,Vacaville,CA,95687,38.4,-122.0
4309,Vacaville,CA,95687,38.4,-122.0
4310,Vadnais Heights,MN,55127,45.0,-93.1
4311,Valdosta,GA,31601,30.8,-83.3
4312,Valdosta,GA,31602,30.9,-83.3
4313,Valdosta,GA,31605,30.9,-83.3
4314,Vallejo,CA,94589,38.1,-122.3
4315,Valley,AL,36854,32.8,-85.2
4316,Valley Stream,NY,11581,40.7,-73.7
4317,Valparaiso,IN,46383,41.5,-87.0
4318,Valrico,FL,33596,27.9,-82.2
4319,Van Buren,AR,72956,35.5,-94.4
4320,Van Wert,OH,45891,40.9,-84.6
4321,Vancouver,WA,98661,45.6,-122.6
4322,Vancouver,WA,98662,45.6,-122.6
4323,Vancouver,WA,98664,45.6,-122.6
4324,Vancouver,WA,98665,45.7,-122.7
4325,Vancouver,WA,98682,45.7,-122.5
4326,Vancouver,WA,98683,45.6,-122.5
4327,Vandalia,IL,62471,39.0,-89.1
4328,Venice,FL,34293,27.0,-82.4
4329,Ventura,CA,93003,34.3,-119.2
4330,Vermillion,SD,57069,42.8,-96.9
4331,Vernal,UT,84078,40.4,-109.6
4332,Vernon,TX,76384,34.2,-99.3
4333,Vernon Hills,IL,60061,42.2,-87.9
4334,Vero Beach,FL,32960,27.6,-80.4
4335,Vero Beach,FL,32966,27.6,-80.4
4336,Versailles,MO,65084,38.4,-92.9
4337,Vestal,NY,13850,42.1,-76.0
4338,Vestavia Hills,AL,35216,33.4,-86.8
4339,Vicksburg,MS,39180,32.3,-90.9
4340,Victor,NY,14564,43.0,-77.4
4341,Victoria,TX,77901,28.8,-97.0
4342,Victoria,TX,77904,28.9,-97.0
4343,Victorville,CA,92392,34.5,-117.4
4344,Victorville,CA,92392,34.5,-117.4
4345,Vidalia,GA,30474,32.2,-82.4
4346,Vidalia,LA,71373,31.6,-91.5
4347,Vidor,TX,77662,30.1,-94.0
4348,Vienna,VA,22182,38.9,-77.2
4349,Vienna,WV,26105,39.3,-81.6
4350,Villa Park,IL,60181,41.9,-88.0
4351,Villa Rica,GA,30180,33.7,-84.9
4352,Ville Platte,LA,70586,30.7,-92.3
4353,Vincennes,IN,47591,38.7,-87.5
4354,Vineland,NJ,8360,39.5,-75.0
4355,Vinita,OK,74301,36.6,-95.1
4356,Virginia Beach,VA,23451,36.8,-76.0
4357,Virginia Beach,VA,23452,36.8,-76.1
4358,Virginia Beach,VA,23452,36.8,-76.1
4359,Virginia Beach,VA,23453,36.8,-76.1
4360,Virginia Beach,VA,23456,36.8,-76.0
4361,Virginia Beach,VA,23456,36.8,-76.1
4362,Virginia Beach,VA,23462,36.8,-76.1
4363,Virginia Beach,VA,23464,36.8,-76.2
4364,Viroqua,WI,54665,43.6,-90.9
4365,Visalia,CA,93277,36.3,-119.3
4366,Visalia,CA,93291,36.3,-119.3
4367,Visalia,CA,93292,36.3,-119.3
4368,Vista,CA,92083,33.2,-117.2
4369,Vivian,LA,71082,32.9,-94.0
4370,Wabash,IN,46992,40.8,-85.8
4371,Waco,TX,76710,31.5,-97.2
4372,Waco,TX,76712,31.5,-97.2
4373,Wadena,MN,56482,46.5,-95.1
4374,Wadesboro,NC,28170,35.0,-80.1
4375,Wadsworth,OH,44281,41.1,-81.7
4376,Wagoner,OK,74467,36.0,-95.4
4377,Wahpeton,ND,58075,46.3,-96.6
4378,Waipahu,HI,96797,21.4,-158.0
4379,Wake Forest,NC,27587,36.0,-78.5
4380,Wake Village,TX,75503,33.4,-94.1
4381,Waldorf,MD,20601,38.6,-76.9
4382,Walker,LA,70785,30.5,-90.9
4383,Wallace,NC,28466,34.7,-78.0
4384,Wallingford,CT,6492,41.5,-72.8
4385,Walnut Ridge,AR,72476,36.1,-91.0
4386,Walpole,MA,2081,42.1,-71.2
4387,Walterboro,SC,29488,32.9,-80.7
4388,Wapakoneta,OH,45895,40.6,-84.2
4389,Ware,MA,1082,42.2,-72.3
4390,Wareham,MA,2571,41.8,-70.7
4391,Warminster,PA,18974,40.2,-75.1
4392,Warner Robins,GA,31088,32.6,-83.7
4393,Warner Robins,GA,31088,32.6,-83.6
4394,Warner Robins,GA,31093,32.6,-83.7
4395,Warner Robins,GA,31093,32.6,-83.6
4396,Warr Acres,OK,73132,35.5,-97.6
4397,Warren,MI,48093,42.5,-83.0
4398,Warren,PA,16365,41.9,-79.2
4399,Warrensburg,MO,64093,38.8,-93.7
4400,Warrenton,MO,63383,38.8,-91.1
4401,Warrenton,VA,20186,38.7,-77.8
4402,Warrington,PA,18976,40.2,-75.1
4403,Warsaw,IN,46582,41.3,-85.9
4404,Warsaw,MO,65355,38.3,-93.4
4405,Warsaw,NY,14569,42.8,-78.1
4406,Warwick,RI,2886,41.7,-71.5
4407,Warwick,RI,2888,41.8,-71.4
4408,Wasco,CA,93280,35.6,-119.4
4409,Waseca,MN,56093,44.1,-93.5
4410,Washington,DC,20001,38.9,-77.0
4411,Washington,DC,20011,39.0,-77.0
4412,Washington,DC,20011,39.0,-77.0
4413,Washington,IA,52353,41.3,-91.7
4414,Washington,IL,61571,40.7,-89.5
4415,Washington,IN,47501,38.6,-87.2
4416,Washington,MO,63090,38.5,-91.0
4417,Washington,NC,27889,35.6,-77.1
4418,Washington,PA,15301,40.2,-80.2
4419,Washington,UT,84780,37.1,-113.5
4420,Washington Court House,OH,43160,39.5,-83.5
4421,Wasilla,AK,99654,61.6,-149.4
4422,Watchung,NJ,7069,40.6,-74.4
4423,Waterbury,CT,6705,41.6,-73.0
4424,Waterford,CT,6385,41.4,-72.2
4425,Waterloo,IA,50702,42.5,-92.3
4426,Waterloo,IL,62298,38.4,-90.2
4427,Waterloo,NY,13165,42.9,-76.8
4428,Watertown,NY,13601,44.0,-76.0
4429,Watertown,SD,57201,44.9,-97.1
4430,Watertown,WI,53094,43.2,-88.7
4431,Waterville,ME,4901,44.6,-69.6
4432,Watkins Glen,NY,14891,42.4,-76.9
4433,Watseka,IL,60970,40.8,-87.7
4434,Wauchula,FL,33873,27.6,-81.8
4435,Waukegan,IL,60085,42.3,-87.9
4436,Waukesha,WI,53189,43.0,-88.2
4437,Wausau,WI,54401,44.9,-89.7
4438,Wauseon,OH,43567,41.6,-84.1
4439,Waveland,MS,39576,30.3,-89.4
4440,Waverly,IA,50677,42.7,-92.5
4441,Waverly,OH,45690,39.1,-83.0
4442,Waverly,TN,37185,36.1,-87.8
4443,Waxahachie,TX,75165,32.4,-96.8
4444,Waxhaw,NC,28173,35.0,-80.8
4445,Waycross,GA,31501,31.2,-82.3
4446,Waycross,GA,31503,31.2,-82.3
4447,Wayne,WV,25570,38.3,-82.4
4448,Waynesboro,GA,30830,33.1,-82.0
4449,Waynesboro,MS,39367,31.7,-88.6
4450,Waynesboro,PA,17268,39.7,-77.5
4451,Waynesboro,VA,22980,38.1,-78.9
4452,Waynesboro,VA,22980,38.1,-78.9
4453,Waynesburg,PA,15370,39.9,-80.1
4454,Waynesville,NC,28786,35.5,-83.0
4455,Weatherford,OK,73096,35.5,-98.7
4456,Weatherford,TX,76086,32.7,-97.8
4457,Weaverville,NC,28787,35.7,-82.6
4458,Webb City,MO,64870,37.1,-94.5
4459,Webster,NY,14580,43.2,-77.5
4460,Weirton,WV,26062,40.4,-80.5
4461,Wellington,KS,67152,37.3,-97.4
4462,Wenatchee,WA,98801,47.5,-120.3
4463,Wentzville,MO,63385,38.8,-90.9
4464,Weslaco,TX,78596,26.1,-98.0
4465,Weslaco,TX,78599,26.2,-98.0
4466,Wesley Chapel,FL,33543,28.2,-82.3
4467,West Bend,WI,53095,43.4,-88.2
4468,West Berlin,NJ,8091,39.8,-74.9
4469,West Boylston,MA,1583,42.4,-71.8
4470,West Branch,MI,48661,44.3,-84.2
4471,West Brownsville,PA,15417,40.0,-79.9
4472,West Burlington,IA,52655,40.8,-91.2
4473,West Chester,OH,45069,39.3,-84.4
4474,West Columbia,SC,29169,34.0,-81.1
4475,West Columbia,TX,77486,29.2,-95.7
4476,West Covina,CA,91791,34.1,-117.9
4477,West Des Moines,IA,50266,41.6,-93.8
4478,West Haven,CT,6516,41.3,-73.0
4479,West Helena,AR,72390,34.6,-90.7
4480,West Hills,CA,91307,34.2,-118.6
4481,West Jefferson,NC,28694,36.4,-81.5
4482,West Jordan,UT,84084,40.6,-112.0
4483,West Lafayette,IN,47906,40.5,-86.9
4484,West Lebanon,NH,3784,43.6,-72.3
4485,West Linn,OR,97068,45.4,-122.6
4486,West Melbourne,FL,32904,28.0,-80.6
4487,West Memphis,AR,72301,35.2,-90.2
4488,West Mifflin,PA,15122,40.3,-79.9
4489,West Milwaukee,WI,53215,43.0,-88.0
4490,West Monroe,LA,71291,32.5,-92.2
4491,West Monroe,LA,71291,32.5,-92.2
4492,West Monroe,LA,71291,32.5,-92.1
4493,West Orange,TX,77630,30.1,-93.8
4494,West Palm Beach,FL,33406,26.7,-80.1
4495,West Palm Beach,FL,33407,26.8,-80.1
4496,West Palm Beach,FL,33411,26.7,-80.2
4497,West Palm Beach,FL,33411,26.7,-80.2
4498,West Plains,MO,65775,36.7,-91.9
4499,West Point,MS,39773,33.6,-88.7
4500,West Sacramento,CA,95605,38.6,-121.6
4501,West Union,OH,45693,38.8,-83.6
4502,West Valley City,UT,84118,40.6,-112.0
4503,West Valley City,UT,84120,40.7,-112.0
4504,West Valley City,UT,84120,40.7,-112.0
4505,Westbury,NY,11590,40.7,-73.6
4506,Westerly,RI,2891,41.4,-71.8
4507,Westerville,OH,43081,40.1,-82.9
4508,Westfield,MA,1085,42.1,-72.7
4509,Westminster,CA,92683,33.8,-118.0
4510,Westminster,CO,80003,39.8,-105.1
4511,Westminster,CO,80030,39.8,-105.0
4512,Westminster,CO,80031,39.9,-105.1
4513,Westminster,CO,80234,39.9,-105.0
4514,Westminster,MD,21157,39.6,-77.0
4515,Weston,WV,26452,39.0,-80.4
4516,Westwood,KS,66205,39.0,-94.6
4517,Westworth Village,TX,76114,32.8,-97.4
4518,Wetumpka,AL,36092,32.5,-86.2
4519,Weymouth,MA,2188,42.2,-70.9
4520,Wharton,TX,77488,29.3,-96.1
4521,Wheeling,IL,60090,42.2,-88.0
4522,White House,TN,37188,36.5,-86.7
4523,White Lake,MI,48386,42.7,-83.5
4524,Whitehall,MI,49461,43.4,-86.3
4525,Whitehall,PA,18052,40.6,-75.5
4526,Whitesburg,KY,41858,37.1,-82.8
4527,Whiteville,NC,28472,34.3,-78.7
4528,Whitewater,WI,53190,42.8,-88.8
4529,Whitinsville,MA,1588,42.1,-71.7
4530,Wichita,KS,67203,37.7,-97.4
4531,Wichita,KS,67204,37.8,-97.4
4532,Wichita,KS,67205,37.7,-97.5
4533,Wichita,KS,67207,37.6,-97.4
4534,Wichita,KS,67207,37.7,-97.2
4535,Wichita,KS,67209,37.7,-97.4
4536,Wichita,KS,67211,37.6,-97.3
4537,Wichita,KS,67212,37.7,-97.5
4538,Wichita,KS,67226,37.7,-97.2
4539,Wichita Falls,TX,76302,33.9,-98.5
4540,Wichita Falls,TX,76306,34.0,-98.5
4541,Wichita Falls,TX,76308,33.9,-98.5
4542,Wiggins,MS,39577,30.8,-89.1
4543,Wilkes Barre,PA,18702,41.2,-75.9
4544,Wilkesboro,NC,28697,36.1,-81.2
4545,Williamsburg,KY,40769,36.7,-84.2
4546,Williamsburg,VA,23188,37.3,-76.8
4547,Williamsburg,VA,23188,37.3,-76.7
4548,Williamston,NC,27892,35.8,-77.1
4549,Williamstown,NJ,8094,39.7,-75.0
4550,Williamsville,NY,14221,43.0,-78.7
4551,Williston,ND,58801,48.2,-103.6
4552,Williston,VT,5495,44.4,-73.1
4553,Willmar,MN,56201,45.1,-95.0
4554,Willow Grove,PA,19090,40.2,-75.1
4555,Willows,CA,95988,39.5,-122.2
4556,Wilmington,DE,19808,39.7,-75.6
4557,Wilmington,NC,28403,34.2,-77.9
4558,Wilmington,NC,28411,34.3,-77.8
4559,Wilmington,NC,28412,34.1,-77.9
4560,Wilmington,OH,45177,39.5,-83.8
4561,Wilson,NC,27893,35.7,-77.9
4562,Wilson,NC,27893,35.8,-77.9
4563,Wimauma,FL,33598,27.7,-82.3
4564,Winchester,IN,47394,40.2,-85.0
4565,Winchester,KY,40391,38.0,-84.2
4566,Winchester,TN,37398,35.2,-86.1
4567,Winchester,VA,22601,39.2,-78.2
4568,Winchester,VA,22602,39.1,-78.2
4569,Winchester,VA,22603,39.2,-78.2
4570,Winder,GA,30680,34.0,-83.8
4571,Windham,ME,4062,43.8,-70.4
4572,Windsor,CA,95492,38.5,-122.8
4573,Winfield,AL,35594,33.9,-87.8
4574,Winfield,KS,67156,37.2,-97.0
4575,Winnemucca,NV,89445,41.0,-117.7
4576,Winnfield,LA,71483,32.0,-92.7
4577,Winnsboro,LA,71295,32.2,-91.7
4578,Winona,MN,55987,44.0,-91.6
4579,Winslow,AZ,86047,35.0,-110.7
4580,Winston Salem,NC,27103,36.1,-80.3
4581,Winston Salem,NC,27103,36.1,-80.3
4582,Winston Salem,NC,27105,36.2,-80.3
4583,Winston Salem,NC,27106,36.2,-80.3
4584,Winston Salem,NC,27127,36.0,-80.3
4585,Winston-salem,NC,27104,36.1,-80.4
4586,Winter Garden,FL,34787,28.5,-81.6
4587,Winter Haven,FL,33880,28.0,-81.7
4588,Winter Haven,FL,33884,28.0,-81.6
4589,Winter Springs,FL,32708,28.6,-81.3
4590,Winterville,NC,28590,35.6,-77.4
4591,Wisconsin Dells,WI,53965,43.6,-89.8
4592,Wisconsin Rapids,WI,54494,44.4,-89.8
4593,Wood River,IL,62095,38.9,-90.1
4594,Wood Village,OR,97060,45.5,-122.4
4595,Woodbridge,NJ,7095,40.5,-74.3
4596,Woodbridge,VA,22192,38.6,-77.3
4597,Woodburn,OR,97071,45.1,-122.9
4598,Woodbury,MN,55129,44.9,-92.9
4599,Woodbury,NJ,8096,39.8,-75.1
4600,Woodhaven,MI,48183,42.1,-83.2
4601,Woodland,CA,95695,38.7,-121.8
4602,Woodland,CA,95776,38.7,-121.8
4603,Woodland,CA,95776,38.7,-121.7
4604,Woodland,WA,98674,45.9,-122.8
4605,Woodland Park,CO,80863,39.0,-105.0
4606,Woodlands,TX,77382,30.2,-95.6
4607,Woodstock,GA,30188,34.1,-84.5
4608,Woodstock,GA,30189,34.1,-84.6
4609,Woodstock,IL,60098,42.3,-88.4
4610,Woodstock,VA,22664,38.9,-78.5
4611,Woodsville,NH,3785,44.1,-72.0
4612,Woodville,TX,75979,30.8,-94.4
4613,Woodward,OK,73801,36.4,-99.4
4614,Wooster,OH,44691,40.8,-81.9
4615,Worcester,MA,1607,42.2,-71.8
4616,Worthington,MN,56187,43.6,-95.6
4617,Wylie,TX,75098,33.0,-96.5
4618,Wylie,TX,75098,33.0,-96.6
4619,Wyncote,PA,19095,40.1,-75.2
4620,Wynne,AR,72396,35.3,-90.8
4621,Wyoming,MI,49548,42.9,-85.7
4622,Wyomissing,PA,19610,40.3,-76.0
4623,Wytheville,VA,24382,37.0,-81.1
4624,Xenia,OH,45385,39.7,-84.0
4625,Yakima,WA,98901,46.6,-120.5
4626,Yakima,WA,98908,46.6,-120.6
4627,Yankton,SD,57078,42.9,-97.4
4628,Yazoo City,MS,39194,32.9,-90.4
4629,Yelm,WA,98597,46.9,-122.6
4630,York,NE,68467,40.8,-97.6
4631,York,PA,17402,40.0,-76.7
4632,York,PA,17408,40.0,-76.8
4633,York,SC,29745,35.0,-81.2
4634,Yorktown,VA,23693,37.1,-76.5
4635,Youngstown,OH,44505,41.1,-80.7
4636,Ypsilanti,MI,48197,42.2,-83.7
4637,Yreka,CA,96097,41.7,-122.6
4638,Yuba City,CA,95993,39.1,-121.7
4639,Yucca Valley,CA,92284,34.1,-116.4
4640,Yukon,OK,73099,35.5,-97.8
4641,Yukon,OK,73099,35.5,-97.7
4642,Yulee,FL,32097,30.6,-81.5
4643,Yuma,AZ,85364,32.7,-114.6
4644,Yuma,AZ,85364,32.7,-114.7
4645,Yuma,AZ,85365,32.7,-114.5
4646,Yuma,AZ,85365,32.7,-114.6
4647,Zachary,LA,70791,30.7,-91.1
4648,Zanesville,OH,43701,39.9,-82.0
4649,Zanesville,OH,43701,40.0,-82.0
4650,Zebulon,NC,27597,35.8,-78.3
4651,Zephyrhills,FL,33541,28.3,-82.2
4652,Zion,IL,60099,42.5,-87.9
